{
"type": "FeatureCollection",
"name": "Agricultural_Changes",
"xy_coordinate_resolution": 8.98315e-10,
"z_coordinate_resolution": 0.0001,
"features": [
{"type":"Feature","properties":{"سعر_الايجار_زراعية_2023":4355758.734957248,"نوع_ملكية_الأرض":"ايجار","أنواع_المحاصيل_المزروعة":"خضروات","اسم_المحور":"محور دهشور","اسم_المحافظة":"محافظة الجيزة","المساحة_كم2":0.066565554623590886,"نسبة_المساحة":0.18955473311673676,"المساحة_فدان":16.441691992026946,"GlobalID":"{B2D8C550-0308-4F99-8A84-960C3C395C6A}","SHAPE_Length":1260.104946791766,"SHAPE_Area":66565.554623590884},"geometry":{"type":"Polygon","coordinates":[[[30.8141799708,29.9762265069],[30.8124989337,29.9788719103],[30.8117614171,29.9784968453],[30.810860943,29.9795512037],[30.8099223649,29.9788971656],[30.8129263979,29.9757910918],[30.8141799708,29.9762265069]]]}},
{"type":"Feature","properties":{"سعر_الايجار_زراعية_2023":2824288.1742672124,"نوع_ملكية_الأرض":"ايجار","أنواع_المحاصيل_المزروعة":"خضروات","اسم_المحور":"محور دهشور","اسم_المحافظة":"محافظة الجيزة","المساحة_كم2":0.052698103334118444,"نسبة_المساحة":0.15006522472084782,"المساحة_فدان":13.016431523527254,"GlobalID":"{96C84C9F-E2F0-4DF1-8CA0-EB03842C0896}","SHAPE_Length":934.9501092746591,"SHAPE_Area":52698.103334118445},"geometry":{"type":"Polygon","coordinates":[[[30.8250680138,29.9772337133],[30.8230478788,29.9764007483],[30.8247387612,29.9742664539],[30.8262236544,29.9751083442],[30.8250680138,29.9772337133]]]}},
{"type":"Feature","properties":{"سعر_الايجار_زراعية_2023":53115.749171703377,"نوع_ملكية_الأرض":"ايجار","أنواع_المحاصيل_المزروعة":"خضروات","اسم_المحور":"محور دهشور","اسم_المحافظة":"محافظة الجيزة","المساحة_كم2":0.0091420339360291196,"نسبة_المساحة":0.026033221125960595,"المساحة_فدان":2.2580823821991927,"GlobalID":"{37DA45D4-2388-4223-851F-A307999E1EFD}","SHAPE_Length":382.8162135376453,"SHAPE_Area":9142.03393602912},"geometry":{"type":"Polygon","coordinates":[[[30.8330256291,29.9790204429],[30.832374019,29.9797353368],[30.8316413921,29.9791313172],[30.8322470783,29.9785111477],[30.8330256291,29.9790204429]]]}},
{"type":"Feature","properties":{"سعر_الايجار_زراعية_2023":1375952.2479917018,"نوع_ملكية_الأرض":"ايجار","أنواع_المحاصيل_المزروعة":"خضروات","اسم_المحور":"محور دهشور","اسم_المحافظة":"محافظة الجيزة","المساحة_كم2":0.25910031974234099,"نسبة_المساحة":0.73782442341154442,"المساحة_فدان":63.997778976358219,"GlobalID":"{2E3DC9B3-93C5-41B5-BC85-3F4F44D14EA8}","SHAPE_Length":1804.2441220186627,"SHAPE_Area":258996.27422930938},"geometry":{"type":"Polygon","coordinates":[[[30.8343628508,29.9955350869],[30.8322754617,29.9947418973],[30.8314438397,29.9928962355],[30.8323550775,29.9910792851],[30.8344753355,29.9903553642],[30.8365626549,29.9911485157],[30.8373943613,29.9929941495],[30.8364831933,29.9948111381],[30.8343628508,29.9955350869]]]}},
{"type":"Feature","properties":{"سعر_الايجار_زراعية_2023":411116.4368098015,"نوع_ملكية_الأرض":"ايجار","أنواع_المحاصيل_المزروعة":"خضروات","اسم_المحور":"محور دهشور","اسم_المحافظة":"محافظة الجيزة","المساحة_كم2":0.077415768159269663,"نسبة_المساحة":0.22045223472466743,"المساحة_فدان":19.121694735339606,"GlobalID":"{5AB7C354-9841-490E-A97C-B645170D8998}","SHAPE_Length":1146.6931157090671,"SHAPE_Area":77415.768159269661},"geometry":{"type":"Polygon","coordinates":[[[30.8319709894,29.9904583392],[30.8291050214,29.9927171327],[30.8274644846,29.9915846933],[30.8288336297,29.9898182368],[30.8312063553,29.9898532217],[30.8319709894,29.9904583392]]]}},
{"type":"Feature","properties":{"سعر_الايجار_زراعية_2023":215091.45698998441,"نوع_ملكية_الأرض":"ايجار","أنواع_المحاصيل_المزروعة":"خضروات","اسم_المحور":"محور دهشور","اسم_المحافظة":"محافظة الجيزة","المساحة_كم2":0.023000077796640091,"نسبة_المساحة":0.065495940551529463,"المساحة_فدان":5.6810192157701023,"GlobalID":"{29B87540-F3CF-41C3-83DF-B9691B687AD9}","SHAPE_Length":608.38850991299978,"SHAPE_Area":23000.077796640093},"geometry":{"type":"Polygon","coordinates":[[[30.8290839681,29.9857245716],[30.8290423568,29.9868109706],[30.8271262484,29.9868198681],[30.8273592861,29.985616113],[30.8290839681,29.9857245716]]]}},
{"type":"Feature","properties":{"سعر_الايجار_زراعية_2023":1199040.8701713402,"نوع_ملكية_الأرض":"ايجار","أنواع_المحاصيل_المزروعة":"خضروات","اسم_المحور":"محور دهشور","اسم_المحافظة":"محافظة الجيزة","المساحة_كم2":0.023723150263061026,"نسبة_المساحة":0.06755499059883284,"المساحة_فدان":5.8596181149760733,"GlobalID":"{289AACD5-F6FB-4EE9-BAB7-DC490582FFDB}","SHAPE_Length":609.10975454137747,"SHAPE_Area":23723.150263061027},"geometry":{"type":"Polygon","coordinates":[[[30.8253027047,29.9865008415],[30.8246282195,29.9877957125],[30.8232493984,29.9873286065],[30.8234515511,29.9862131987],[30.8253027047,29.9865008415]]]}},
{"type":"Feature","properties":{"سعر_الايجار_زراعية_2023":1783537.5995220619,"نوع_ملكية_الأرض":"ايجار","أنواع_المحاصيل_المزروعة":"خضروات","اسم_المحور":"محور دهشور","اسم_المحافظة":"محافظة الجيزة","المساحة_كم2":0.068017658304367859,"نسبة_المساحة":0.19368980158005819,"المساحة_فدان":16.80036160117886,"GlobalID":"{9CB2ADA6-B1AD-499F-B6C4-B058D2CF1268}","SHAPE_Length":1090.9512244517871,"SHAPE_Area":68017.658304367855},"geometry":{"type":"Polygon","coordinates":[[[30.8345425628,29.9897470979],[30.8327312165,29.989174495],[30.8338711743,29.9864834953],[30.8361680645,29.9869450154],[30.8345425628,29.9897470979]]]}},
{"type":"Feature","properties":{"سعر_الايجار_زراعية_2023":183831.50364833424,"نوع_ملكية_الأرض":"ايجار","أنواع_المحاصيل_المزروعة":"خضروات","اسم_المحور":"محور دهشور","اسم_المحافظة":"محافظة الجيزة","المساحة_كم2":0.034616609292596599,"نسبة_المساحة":0.098575639803037282,"المساحة_فدان":8.5503024952713602,"GlobalID":"{10ED57CF-9631-4FA0-AE5C-BF4B567B886A}","SHAPE_Length":755.7247322757496,"SHAPE_Area":34616.6092925966},"geometry":{"type":"Polygon","coordinates":[[[30.8467957563,29.9943006037],[30.848276486,29.9947084202],[30.8473251789,29.9965502628],[30.8458763272,29.9960965082],[30.8467957563,29.9943006037]]]}},
{"type":"Feature","properties":{"سعر_الايجار_زراعية_2023":497757.60697167838,"نوع_ملكية_الأرض":"ايجار","أنواع_المحاصيل_المزروعة":"خضروات","اسم_المحور":"محور دهشور","اسم_المحافظة":"محافظة الجيزة","المساحة_كم2":0.17770635213910513,"نسبة_المساحة":0.50604370899268214,"المساحة_فدان":43.89346897835896,"GlobalID":"{5B97E8A5-FA2B-4CED-99D8-86642883292C}","SHAPE_Length":1884.5079452048153,"SHAPE_Area":177706.35213910512},"geometry":{"type":"Polygon","coordinates":[[[30.8454590677,29.9966152013],[30.843278457,29.996006622],[30.8436582315,29.9946761727],[30.8415666327,29.9940117391],[30.8427482537,29.9921215801],[30.8440582154,29.9924103801],[30.8441620253,29.9916673628],[30.8473972041,29.9921976993],[30.8454590677,29.9966152013]]]}},
{"type":"Feature","properties":{"سعر_الايجار_زراعية_2023":1464179.3654695458,"نوع_ملكية_الأرض":"ايجار","أنواع_المحاصيل_المزروعة":"خضروات","اسم_المحور":"محور دهشور","اسم_المحافظة":"محافظة الجيزة","المساحة_كم2":0.27571403172385761,"نسبة_المساحة":0.78513429348687958,"المساحة_فدان":68.101365835792834,"GlobalID":"{95E34276-9D18-432B-8797-AF4C795C6702}","SHAPE_Length":1861.258336436747,"SHAPE_Area":275638.37805098016},"geometry":{"type":"Polygon","coordinates":[[[30.8703565684,30.0407585987],[30.8725006808,30.0415647108],[30.8733716503,30.0434787583],[30.8724517619,30.0453229753],[30.8702372851,30.0460865766],[30.8680887518,30.0452849068],[30.8672163935,30.043397944],[30.8681284781,30.0415252588],[30.8703565684,30.0407585987]]]}},
{"type":"Feature","properties":{"سعر_الايجار_زراعية_2023":1316271.6878667874,"نوع_ملكية_الأرض":"ايجار","أنواع_المحاصيل_المزروعة":"خضروات","اسم_المحور":"محور دهشور","اسم_المحافظة":"محافظة الجيزة","المساحة_كم2":0.24786210109533707,"نسبة_المساحة":0.7058220229450215,"المساحة_فدان":61.221938970548251,"GlobalID":"{BDCA5164-C39F-4B94-B4A1-926AB3538831}","SHAPE_Length":1764.6817643271745,"SHAPE_Area":247762.57963053911},"geometry":{"type":"Polygon","coordinates":[[[30.8614642902,30.0425909002],[30.8594214921,30.0418154718],[30.8586072727,30.0400104176],[30.8594985334,30.038233133],[30.8615731385,30.0375247015],[30.8636158696,30.0383000935],[30.8644301699,30.0401051208],[30.8635389763,30.0418824418],[30.8614642902,30.0425909002]]]}},
{"type":"Feature","properties":{"سعر_الايجار_زراعية_2023":1560943.3567215262,"نوع_ملكية_الأرض":"ايجار","أنواع_المحاصيل_المزروعة":"خضروات","اسم_المحور":"محور دهشور","اسم_المحافظة":"محافظة الجيزة","المساحة_كم2":0.29393528984493483,"نسبة_المساحة":0.83702187618220791,"المساحة_فدان":72.602016591698899,"GlobalID":"{49B3BD47-CECB-41F1-8AA6-C6FF97C5FF26}","SHAPE_Length":1922.2281396447984,"SHAPE_Area":293869.50667232089},"geometry":{"type":"Polygon","coordinates":[[[30.8573767831,30.0317366292],[30.8597637402,30.0313925264],[30.8609627654,30.0318901275],[30.86177019,30.0326995093],[30.8620535719,30.034811291],[30.8604716635,30.0365669743],[30.8581812326,30.0368021388],[30.8563218272,30.0355199078],[30.8559911516,30.0334213859],[30.8573767831,30.0317366292]]]}},
{"type":"Feature","properties":{"سعر_الايجار_زراعية_2023":5345521.7929206528,"نوع_ملكية_الأرض":"ايجار","أنواع_المحاصيل_المزروعة":"خضروات","اسم_المحور":"محور دهشور","اسم_المحافظة":"محافظة الجيزة","المساحة_كم2":0.064772222651339167,"نسبة_المساحة":0.184447969336098,"المساحة_فدان":15.998738994880773,"GlobalID":"{8B379DC8-5FDF-4F63-886E-82DF96D410EC}","SHAPE_Length":1052.8131100553239,"SHAPE_Area":64772.222651339165},"geometry":{"type":"Polygon","coordinates":[[[30.8026264913,29.9808481504],[30.8022228827,29.982671363],[30.7988580559,29.982591299],[30.7993397007,29.9807926042],[30.8026264913,29.9808481504]]]}},
{"type":"Feature","properties":{"سعر_الايجار_زراعية_2023":null,"نوع_ملكية_الأرض":"تمليك","أنواع_المحاصيل_المزروعة":"موالح","اسم_المحور":"محور دهشور","اسم_المحافظة":"محافظة الجيزة","المساحة_كم2":0.16736519502180139,"نسبة_المساحة":0.47659581678216573,"المساحة_فدان":41.339203170384941,"GlobalID":"{05C58BDF-2FF5-46FE-AEB9-BDBF9B9B2813}","SHAPE_Length":1725.751104659603,"SHAPE_Area":167365.1950218014},"geometry":{"type":"Polygon","coordinates":[[[30.8572158,30.0425947031],[30.8518906975,30.0422999101],[30.8516687083,30.0392193496],[30.8564701704,30.039450474],[30.8565258647,30.040940815],[30.8571182422,30.0409504708],[30.8572158,30.0425947031]]]}},
{"type":"Feature","properties":{"سعر_الايجار_زراعية_2023":null,"نوع_ملكية_الأرض":"تمليك","أنواع_المحاصيل_المزروعة":"موالح","اسم_المحور":"محور دهشور","اسم_المحافظة":"محافظة الجيزة","المساحة_كم2":0.035640068078568572,"نسبة_المساحة":0.10149008193647882,"المساحة_فدان":8.8030968154064357,"GlobalID":"{F946A627-3990-4BE4-9CD6-2F89E5DB54DD}","SHAPE_Length":889.7536959624822,"SHAPE_Area":35640.068078568569},"geometry":{"type":"Polygon","coordinates":[[[30.8643133708,30.0429164261],[30.8654215138,30.0429539007],[30.8657169869,30.0460003085],[30.8646278633,30.0459590774],[30.8643133708,30.0429164261]]]}},
{"type":"Feature","properties":{"سعر_الايجار_زراعية_2023":null,"نوع_ملكية_الأرض":"تمليك","أنواع_المحاصيل_المزروعة":"موالح","اسم_المحور":"محور دهشور","اسم_المحافظة":"محافظة الجيزة","المساحة_كم2":0.072656428428075071,"نسبة_المساحة":0.20689934873641264,"المساحة_فدان":17.946137821734542,"GlobalID":"{F65FC7AA-C302-4F6B-87B0-6212C582C7EA}","SHAPE_Length":1110.5322861160146,"SHAPE_Area":72656.428428075073},"geometry":{"type":"Polygon","coordinates":[[[30.8643133708,30.0429164261],[30.8646278633,30.0459590774],[30.8624116408,30.045875176],[30.86204023,30.0428395538],[30.8643133708,30.0429164261]]]}},
{"type":"Feature","properties":{"سعر_الايجار_زراعية_2023":null,"نوع_ملكية_الأرض":"تمليك","أنواع_المحاصيل_المزروعة":"موالح","اسم_المحور":"محور دهشور","اسم_المحافظة":"محافظة الجيزة","المساحة_كم2":0.11038517436536795,"نسبة_المساحة":0.3143372332010328,"المساحة_فدان":27.265138068245882,"GlobalID":"{88DE55FC-2C3A-40E0-B046-D84D9DC78D3B}","SHAPE_Length":1338.9666614283983,"SHAPE_Area":110385.17436536794},"geometry":{"type":"Polygon","coordinates":[[[30.86204023,30.0428395538],[30.8624116408,30.045875176],[30.8590055893,30.0457462312],[30.8586339604,30.0426731857],[30.86204023,30.0428395538]]]}},
{"type":"Feature","properties":{"سعر_الايجار_زراعية_2023":null,"نوع_ملكية_الأرض":"تمليك","أنواع_المحاصيل_المزروعة":"موالح","اسم_المحور":"محور دهشور","اسم_المحافظة":"محافظة الجيزة","المساحة_كم2":0.072808408073797348,"نسبة_المساحة":0.20733213204824663,"المساحة_فدان":17.983676794227943,"GlobalID":"{CD3C45D4-E709-48D7-B5D7-964347E7E07F}","SHAPE_Length":1116.6055654015988,"SHAPE_Area":72808.408073797342},"geometry":{"type":"Polygon","coordinates":[[[30.8586339604,30.0426731857],[30.8590055893,30.0457462312],[30.8567718505,30.0456616717],[30.8564395829,30.042551735],[30.8586339604,30.0426731857]]]}},
{"type":"Feature","properties":{"سعر_الايجار_زراعية_2023":null,"نوع_ملكية_الأرض":"تمليك","أنواع_المحاصيل_المزروعة":"موالح","اسم_المحور":"محور دهشور","اسم_المحافظة":"محافظة الجيزة","المساحة_كم2":0.11373663116205683,"نسبة_المساحة":0.32388097548998368,"المساحة_فدان":28.092947897028036,"GlobalID":"{F620CFDC-5AD0-4818-B8BE-4C8EB2C28440}","SHAPE_Length":1356.0514172106859,"SHAPE_Area":113736.63116205683},"geometry":{"type":"Polygon","coordinates":[[[30.855249199,30.0424858342],[30.8555873341,30.0456080104],[30.8521167596,30.0454368969],[30.8518906975,30.0422999101],[30.855249199,30.0424858342]]]}},
{"type":"Feature","properties":{"سعر_الايجار_زراعية_2023":null,"نوع_ملكية_الأرض":"تمليك","أنواع_المحاصيل_المزروعة":"موالح","اسم_المحور":"محور دهشور","اسم_المحافظة":"محافظة الجيزة","المساحة_كم2":0.039373968770086948,"نسبة_المساحة":0.11212288674171854,"المساحة_فدان":9.7253702862114757,"GlobalID":"{FC9122AA-8536-4B87-AA0B-99707EBD32DB}","SHAPE_Length":923.41929813431489,"SHAPE_Area":39373.968770086947},"geometry":{"type":"Polygon","coordinates":[[[30.8564395829,30.042551735],[30.8567718505,30.0456616717],[30.8555873341,30.0456080104],[30.855249199,30.0424858342],[30.8564395829,30.042551735]]]}},
{"type":"Feature","properties":{"سعر_الايجار_زراعية_2023":5345521.7929206528,"نوع_ملكية_الأرض":"ايجار","أنواع_المحاصيل_المزروعة":"خضروات","اسم_المحور":"محور دهشور","اسم_المحافظة":"محافظة الجيزة","المساحة_كم2":0.033411914729671706,"نسبة_المساحة":0.095145103429477462,"المساحة_فدان":8.252742938228911,"GlobalID":"{D7615ADE-53D1-4EAD-946E-38FAC3203B09}","SHAPE_Length":890.44648909066746,"SHAPE_Area":33411.914729671706},"geometry":{"type":"Polygon","coordinates":[[[30.8061570845,29.9762732387],[30.8052612475,29.9789335333],[30.8043085292,29.9789022677],[30.8052184447,29.9756159138],[30.8061570845,29.9762732387]]]}},
{"type":"Feature","properties":{"سعر_الايجار_زراعية_2023":5345521.7929206528,"نوع_ملكية_الأرض":"ايجار","أنواع_المحاصيل_المزروعة":"خضروات","اسم_المحور":"محور دهشور","اسم_المحافظة":"محافظة الجيزة","المساحة_كم2":0.058923392495810467,"نسبة_المساحة":0.16779260688256487,"المساحة_فدان":14.554077946465185,"GlobalID":"{5443BD5D-FD11-42FB-9C58-265E626736C9}","SHAPE_Length":1227.994501701864,"SHAPE_Area":58923.392495810469},"geometry":{"type":"Polygon","coordinates":[[[30.7993262861,29.9743331146],[30.7987119276,29.9785292317],[30.7975567635,29.9784800754],[30.7980451088,29.973868765],[30.7993262861,29.9743331146]]]}},
{"type":"Feature","properties":{"سعر_الايجار_زراعية_2023":5345521.7929206528,"نوع_ملكية_الأرض":"ايجار","أنواع_المحاصيل_المزروعة":"خضروات","اسم_المحور":"محور دهشور","اسم_المحافظة":"محافظة الجيزة","المساحة_كم2":0.03925635320346918,"نسبة_المساحة":0.11178795995463363,"المساحة_فدان":9.6963192412568873,"GlobalID":"{5700C301-45DB-4A96-8903-8BE06374B267}","SHAPE_Length":836.66269997743507,"SHAPE_Area":39256.353203469182},"geometry":{"type":"Polygon","coordinates":[[[30.8070668474,29.9804230309],[30.8063446895,29.9827692465],[30.8048549674,29.9827338842],[30.8054726819,29.9803631951],[30.8070668474,29.9804230309]]]}},
{"type":"Feature","properties":{"سعر_الايجار_زراعية_2023":5345521.7929206528,"نوع_ملكية_الأرض":"ايجار","أنواع_المحاصيل_المزروعة":"خضروات","اسم_المحور":"محور دهشور","اسم_المحافظة":"محافظة الجيزة","المساحة_كم2":0.11125443202887886,"نسبة_المساحة":0.31681256605671509,"المساحة_فدان":27.479844711133076,"GlobalID":"{92EB1EAE-4F8B-4762-8EB9-A1B07CC9EB2A}","SHAPE_Length":1345.7400962473916,"SHAPE_Area":111254.43202887886},"geometry":{"type":"Polygon","coordinates":[[[30.7992142979,29.9812609261],[30.7955257115,29.9811434182],[30.7959652317,29.9784534391],[30.7999318507,29.9785811317],[30.7992142979,29.9812609261]]]}},
{"type":"Feature","properties":{"سعر_الايجار_زراعية_2023":5345521.7929206528,"نوع_ملكية_الأرض":"ايجار","أنواع_المحاصيل_المزروعة":"خضروات","اسم_المحور":"محور دهشور","اسم_المحافظة":"محافظة الجيزة","المساحة_كم2":0.054007970665024441,"نسبة_المساحة":0.15379525527091589,"المساحة_فدان":13.339968754261037,"GlobalID":"{18781BFD-E19F-4E33-A8FE-1A9E874345A5}","SHAPE_Length":1218.4274327282596,"SHAPE_Area":54007.970665024441},"geometry":{"type":"Polygon","coordinates":[[[30.8042446028,29.9749324389],[30.803230848,29.9788573971],[30.8023010007,29.9788186745],[30.803019965,29.9740729239],[30.8042446028,29.9749324389]]]}},
{"type":"Feature","properties":{"سعر_الايجار_زراعية_2023":5345521.7929206528,"نوع_ملكية_الأرض":"ايجار","أنواع_المحاصيل_المزروعة":"خضروات","اسم_المحور":"محور دهشور","اسم_المحافظة":"محافظة الجيزة","المساحة_كم2":0.09063577319549139,"نسبة_المساحة":0.25809804929968533,"المساحة_فدان":22.387035979286374,"GlobalID":"{E65A243C-EA0B-4EBB-8F91-2704788C2454}","SHAPE_Length":1228.0325696794323,"SHAPE_Area":90635.773195491391},"geometry":{"type":"Polygon","coordinates":[[[30.8056653038,29.9796239159],[30.8048549674,29.9827338842],[30.8022228827,29.982671363],[30.8029189681,29.9795269012],[30.8056653038,29.9796239159]]]}},
{"type":"Feature","properties":{"سعر_الايجار_زراعية_2023":5345521.7929206528,"نوع_ملكية_الأرض":"ايجار","أنواع_المحاصيل_المزروعة":"خضروات","اسم_المحور":"محور دهشور","اسم_المحافظة":"محافظة الجيزة","المساحة_كم2":0.10303929374667077,"نسبة_المساحة":0.29341881003069437,"المساحة_فدان":25.450705555427678,"GlobalID":"{F4B5BD47-C452-4061-A458-D2C1517FD857}","SHAPE_Length":1366.732455007399,"SHAPE_Area":103039.29374667077},"geometry":{"type":"Polygon","coordinates":[[[30.8021488865,29.9795104308],[30.7998688912,29.9788162658],[30.8004977719,29.974757693],[30.8027953748,29.9755904141],[30.8021488865,29.9795104308]]]}},
{"type":"Feature","properties":{"سعر_الايجار_زراعية_2023":4355758.734957248,"نوع_ملكية_الأرض":"ايجار","أنواع_المحاصيل_المزروعة":"خضروات","اسم_المحور":"محور دهشور","اسم_المحافظة":"محافظة الجيزة","المساحة_كم2":0.027127057113500993,"نسبة_المساحة":0.077248091756600579,"المساحة_فدان":6.700383107034745,"GlobalID":"{E4C944DB-B954-4F1F-BC42-D94D8DD74C3B}","SHAPE_Length":699.78271389321094,"SHAPE_Area":27127.057113500992},"geometry":{"type":"Polygon","coordinates":[[[30.8104794918,29.9765303276],[30.8089435415,29.9782150708],[30.8079985703,29.9775565532],[30.8094812961,29.9759491099],[30.8104794918,29.9765303276]]]}},
{"type":"Feature","properties":{"سعر_الايجار_زراعية_2023":4355758.734957248,"نوع_ملكية_الأرض":"ايجار","أنواع_المحاصيل_المزروعة":"خضروات","اسم_المحور":"محور دهشور","اسم_المحافظة":"محافظة الجيزة","المساحة_كم2":0.029243670766603922,"نسبة_المساحة":0.083275445369049503,"المساحة_فدان":7.2231866793511683,"GlobalID":"{E19DEE4F-F3AC-45A5-8383-C397E504541D}","SHAPE_Length":708.76226819662384,"SHAPE_Area":29243.670766603922},"geometry":{"type":"Polygon","coordinates":[[[30.8094812961,29.9759491099],[30.8079985703,29.9775565532],[30.8069345757,29.9768150722],[30.8083506889,29.9752907884],[30.8094812961,29.9759491099]]]}},
{"type":"Feature","properties":{"سعر_الايجار_زراعية_2023":4355758.734957248,"نوع_ملكية_الأرض":"ايجار","أنواع_المحاصيل_المزروعة":"خضروات","اسم_المحور":"محور دهشور","اسم_المحافظة":"محافظة الجيزة","المساحة_كم2":0.031279064807528581,"نسبة_المساحة":0.089071514768554447,"المساحة_فدان":7.7259290074595599,"GlobalID":"{DB25535E-F3CD-4E06-A70A-4B8CB30BC2CA}","SHAPE_Length":776.72135152143278,"SHAPE_Area":31279.064807528583},"geometry":{"type":"Polygon","coordinates":[[[30.8069188635,29.9708788806],[30.8055947221,29.973191899],[30.8045969604,29.9728118283],[30.8056019551,29.9706778001],[30.8069188635,29.9708788806]]]}},
{"type":"Feature","properties":{"سعر_الايجار_زراعية_2023":4355758.734957248,"نوع_ملكية_الأرض":"ايجار","أنواع_المحاصيل_المزروعة":"خضروات","اسم_المحور":"محور دهشور","اسم_المحافظة":"محافظة الجيزة","المساحة_كم2":0.031369653516760375,"نسبة_المساحة":0.089329478796630571,"المساحة_فدان":7.7483044186398127,"GlobalID":"{36561116-85B6-4FD5-A89B-A7F76507BD93}","SHAPE_Length":720.62933577436979,"SHAPE_Area":31369.653516760376},"geometry":{"type":"Polygon","coordinates":[[[30.8083506889,29.9752907884],[30.8069345757,29.9768150722],[30.8057270794,29.9759728799],[30.8070642366,29.9745417174],[30.8083506889,29.9752907884]]]}},
{"type":"Feature","properties":{"سعر_الايجار_زراعية_2023":4355758.734957248,"نوع_ملكية_الأرض":"ايجار","أنواع_المحاصيل_المزروعة":"خضروات","اسم_المحور":"محور دهشور","اسم_المحافظة":"محافظة الجيزة","المساحة_كم2":0.03600313559634407,"نسبة_المساحة":0.10252396750724367,"المساحة_فدان":8.8927744922969847,"GlobalID":"{4A680D83-3046-4C90-9C3B-32E178753628}","SHAPE_Length":833.41496497753485,"SHAPE_Area":36003.135596344073},"geometry":{"type":"Polygon","coordinates":[[[30.8056019551,29.9706778001],[30.8045969604,29.9728118283],[30.8036257665,29.9724418725],[30.8043616822,29.9698953983],[30.8054110739,29.9700465594],[30.8056019551,29.9706778001]]]}},
{"type":"Feature","properties":{"سعر_الايجار_زراعية_2023":4355758.734957248,"نوع_ملكية_الأرض":"ايجار","أنواع_المحاصيل_المزروعة":"خضروات","اسم_المحور":"محور دهشور","اسم_المحافظة":"محافظة الجيزة","المساحة_كم2":0.043697979640699533,"نسبة_المساحة":0.1244361128720745,"المساحة_فدان":10.793400971252783,"GlobalID":"{791D6C15-7A33-475A-9023-1E1C60F50A80}","SHAPE_Length":1026.4008573941053,"SHAPE_Area":43697.97964069953},"geometry":{"type":"Polygon","coordinates":[[[30.8081240102,29.9714208608],[30.8059113978,29.9744937482],[30.8051450154,29.9741666753],[30.8069188635,29.9708788806],[30.8081240102,29.9714208608]]]}},
{"type":"Feature","properties":{"سعر_الايجار_زراعية_2023":4355758.734957248,"نوع_ملكية_الأرض":"ايجار","أنواع_المحاصيل_المزروعة":"خضروات","اسم_المحور":"محور دهشور","اسم_المحافظة":"محافظة الجيزة","المساحة_كم2":0.051844547256492658,"نسبة_المساحة":0.14763460432852282,"المساحة_فدان":12.805603172353687,"GlobalID":"{4E861652-5FEB-432D-B28D-78BA74D2D7B4}","SHAPE_Length":1120.9174033575473,"SHAPE_Area":51844.54725649266},"geometry":{"type":"Polygon","coordinates":[[[30.809435532,29.9719175134],[30.806774669,29.9748621636],[30.8059113978,29.9744937482],[30.8084083248,29.9710996714],[30.8094595403,29.9714506381],[30.809435532,29.9719175134]]]}},
{"type":"Feature","properties":{"سعر_الايجار_زراعية_2023":4355758.734957248,"نوع_ملكية_الأرض":"ايجار","أنواع_المحاصيل_المزروعة":"خضروات","اسم_المحور":"محور دهشور","اسم_المحافظة":"محافظة الجيزة","المساحة_كم2":0.041374617746408666,"نسبة_المساحة":0.11782001470694602,"المساحة_فدان":10.219530583362939,"GlobalID":"{3FDD48AA-6022-41FA-BE28-0D82603DD748}","SHAPE_Length":897.32262637555993,"SHAPE_Area":41374.617746408665},"geometry":{"type":"Polygon","coordinates":[[[30.8180311005,29.9721189324],[30.816454272,29.9741604603],[30.8158401744,29.9739370627],[30.8160559353,29.970961793],[30.8180311005,29.9721189324]]]}},
{"type":"Feature","properties":{"سعر_الايجار_زراعية_2023":4355758.734957248,"نوع_ملكية_الأرض":"ايجار","أنواع_المحاصيل_المزروعة":"خضروات","اسم_المحور":"محور دهشور","اسم_المحافظة":"محافظة الجيزة","المساحة_كم2":0.031418472614819032,"نسبة_المساحة":0.089468498010934969,"المساحة_فدان":7.7603627358603005,"GlobalID":"{1F95A5AD-E6CE-407A-BB00-425E989FECD9}","SHAPE_Length":831.08846025039395,"SHAPE_Area":31418.472614819031},"geometry":{"type":"Polygon","coordinates":[[[30.8211405234,29.9758436498],[30.8190987481,29.9779693661],[30.8180466327,29.9775965753],[30.8201295105,29.9754830234],[30.8211405234,29.9758436498]]]}},
{"type":"Feature","properties":{"سعر_الايجار_زراعية_2023":4355758.734957248,"نوع_ملكية_الأرض":"ايجار","أنواع_المحاصيل_المزروعة":"خضروات","اسم_المحور":"محور دهشور","اسم_المحافظة":"محافظة الجيزة","المساحة_كم2":0.033107634571941387,"نسبة_المساحة":0.094278623094153274,"المساحة_فدان":8.1775857392695226,"GlobalID":"{83D90B29-CB04-448A-A950-795DEE843407}","SHAPE_Length":958.11365447989112,"SHAPE_Area":33107.634571941388},"geometry":{"type":"Polygon","coordinates":[[[30.8078532835,29.975001163],[30.8070642366,29.9745417174],[30.809435532,29.9719175134],[30.8094212767,29.9721947126],[30.8101456106,29.972168572],[30.8078532835,29.975001163]]]}},
{"type":"Feature","properties":{"سعر_الايجار_زراعية_2023":4355758.734957248,"نوع_ملكية_الأرض":"ايجار","أنواع_المحاصيل_المزروعة":"خضروات","اسم_المحور":"محور دهشور","اسم_المحافظة":"محافظة الجيزة","المساحة_كم2":0.035485700316710805,"نسبة_المساحة":0.10105049812971509,"المساحة_فدان":8.7649679782275687,"GlobalID":"{0869E92C-3C19-4B2E-9FB4-A852D49EA5E8}","SHAPE_Length":926.70178347011222,"SHAPE_Area":35485.700316710805},"geometry":{"type":"Polygon","coordinates":[[[30.8104794918,29.9765303276],[30.8097290874,29.9760933923],[30.8119524574,29.9733160044],[30.8126876271,29.974109553],[30.8104794918,29.9765303276]]]}},
{"type":"Feature","properties":{"سعر_الايجار_زراعية_2023":4355758.734957248,"نوع_ملكية_الأرض":"ايجار","أنواع_المحاصيل_المزروعة":"خضروات","اسم_المحور":"محور دهشور","اسم_المحافظة":"محافظة الجيزة","المساحة_كم2":0.037005152227792361,"نسبة_المساحة":0.10537735010469594,"المساحة_فدان":9.1402726002647121,"GlobalID":"{6CE2DB25-21D5-484B-B4E2-83501774A303}","SHAPE_Length":964.73094148054679,"SHAPE_Area":37005.152227792358},"geometry":{"type":"Polygon","coordinates":[[[30.811155936,29.9727759886],[30.808717289,29.975504252],[30.8078532835,29.975001163],[30.8101284026,29.9724768205],[30.811155936,29.9727759886]]]}},
{"type":"Feature","properties":{"سعر_الايجار_زراعية_2023":4355758.734957248,"نوع_ملكية_الأرض":"ايجار","أنواع_المحاصيل_المزروعة":"خضروات","اسم_المحور":"محور دهشور","اسم_المحافظة":"محافظة الجيزة","المساحة_كم2":0.042979529333831284,"نسبة_المساحة":0.12239022507100174,"المساحة_فدان":10.615943745456326,"GlobalID":"{2FBAA110-8F4F-4381-872B-5D6F438DF813}","SHAPE_Length":1013.7264964784467,"SHAPE_Area":42979.529333831284},"geometry":{"type":"Polygon","coordinates":[[[30.8097290874,29.9760933923],[30.808717289,29.975504252],[30.811155936,29.9727759886],[30.8120172758,29.9728298297],[30.8097290874,29.9760933923]]]}},
{"type":"Feature","properties":{"سعر_الايجار_زراعية_2023":4355758.734957248,"نوع_ملكية_الأرض":"ايجار","أنواع_المحاصيل_المزروعة":"خضروات","اسم_المحور":"محور دهشور","اسم_المحافظة":"محافظة الجيزة","المساحة_كم2":0.054602718762092113,"نسبة_المساحة":0.15548888371657141,"المساحة_فدان":13.48687153423675,"GlobalID":"{91058C7A-B22C-4AD0-9AD3-161F6E266A40}","SHAPE_Length":1119.9115750914898,"SHAPE_Area":54602.71876209211},"geometry":{"type":"Polygon","coordinates":[[[30.8129263979,29.9757910918],[30.8099223649,29.9788971656],[30.8089435415,29.9782150708],[30.8115870792,29.9753258913],[30.8129263979,29.9757910918]]]}},
{"type":"Feature","properties":{"سعر_الايجار_زراعية_2023":4355758.734957248,"نوع_ملكية_الأرض":"ايجار","أنواع_المحاصيل_المزروعة":"خضروات","اسم_المحور":"محور دهشور","اسم_المحافظة":"محافظة الجيزة","المساحة_كم2":0.018382967546294485,"نسبة_المساحة":0.052348072916026563,"المساحة_فدان":4.5405929839347383,"GlobalID":"{59325033-0223-40F6-891F-EE77A0F696BB}","SHAPE_Length":694.35240709770505,"SHAPE_Area":18382.967546294487},"geometry":{"type":"Polygon","coordinates":[[[30.8141005632,29.9740245669],[30.812524322,29.9756514347],[30.8115870792,29.9753258913],[30.8126876271,29.974109553],[30.8131015337,29.9743945547],[30.8131744182,29.9740711472],[30.8141005632,29.9740245669]]]}},
{"type":"Feature","properties":{"سعر_الايجار_زراعية_2023":4355758.734957248,"نوع_ملكية_الأرض":"ايجار","أنواع_المحاصيل_المزروعة":"خضروات","اسم_المحور":"محور دهشور","اسم_المحافظة":"محافظة الجيزة","المساحة_كم2":0.023417560498799412,"نسبة_المساحة":0.066684780975621985,"المساحة_فدان":5.7841374432034547,"GlobalID":"{A2CF1FB6-E58E-41A1-AB1A-39DBAC58ACEB}","SHAPE_Length":744.58980243212932,"SHAPE_Area":23417.560498799412},"geometry":{"type":"Polygon","coordinates":[[[30.8153829815,29.9739600614],[30.8134153571,29.9759609265],[30.812524322,29.9756514347],[30.8141005632,29.9740245669],[30.8153829815,29.9739600614]]]}},
{"type":"Feature","properties":{"سعر_الايجار_زراعية_2023":4355758.734957248,"نوع_ملكية_الأرض":"ايجار","أنواع_المحاصيل_المزروعة":"خضروات","اسم_المحور":"محور دهشور","اسم_المحافظة":"محافظة الجيزة","المساحة_كم2":0.027313996884520297,"نسبة_المساحة":0.077780428918137717,"المساحة_فدان":6.7465572304765127,"GlobalID":"{6D1611E0-5B3A-4FD5-A94E-5BE713983495}","SHAPE_Length":803.44794758075886,"SHAPE_Area":27313.996884520297},"geometry":{"type":"Polygon","coordinates":[[[30.8173116677,29.9744723646],[30.8152905195,29.9766200081],[30.8143737325,29.9762951645],[30.816454272,29.9741604603],[30.8173116677,29.9744723646]]]}},
{"type":"Feature","properties":{"سعر_الايجار_زراعية_2023":4355758.734957248,"نوع_ملكية_الأرض":"ايجار","أنواع_المحاصيل_المزروعة":"خضروات","اسم_المحور":"محور دهشور","اسم_المحافظة":"محافظة الجيزة","المساحة_كم2":0.027977897507994277,"نسبة_المساحة":0.079670978861126493,"المساحة_فدان":6.9105406844745856,"GlobalID":"{E1EDDB21-E1C8-4B07-87E6-8A95A90D4B47}","SHAPE_Length":804.29232302134687,"SHAPE_Area":27977.897507994276},"geometry":{"type":"Polygon","coordinates":[[[30.8191308618,29.9751268072],[30.8171636009,29.9772836932],[30.8162059329,29.9769443653],[30.8182585131,29.9748156364],[30.8191308618,29.9751268072]]]}},
{"type":"Feature","properties":{"سعر_الايجار_زراعية_2023":4355758.734957248,"نوع_ملكية_الأرض":"ايجار","أنواع_المحاصيل_المزروعة":"خضروات","اسم_المحور":"محور دهشور","اسم_المحافظة":"محافظة الجيزة","المساحة_كم2":0.028577239436930687,"نسبة_المساحة":0.0813776888859679,"المساحة_فدان":7.0585781409218793,"GlobalID":"{4BE9371A-5CCB-4E28-8932-88704B0A9765}","SHAPE_Length":810.36401479693768,"SHAPE_Area":28577.239436930686},"geometry":{"type":"Polygon","coordinates":[[[30.8182585131,29.9748156364],[30.8162059329,29.9769443653],[30.8152905195,29.9766200081],[30.8173116677,29.9744723646],[30.8182585131,29.9748156364]]]}},
{"type":"Feature","properties":{"سعر_الايجار_زراعية_2023":4355758.734957248,"نوع_ملكية_الأرض":"ايجار","أنواع_المحاصيل_المزروعة":"خضروات","اسم_المحور":"محور دهشور","اسم_المحافظة":"محافظة الجيزة","المساحة_كم2":0.028748016066775073,"نسبة_المساحة":0.081863999240862101,"المساحة_فدان":7.1007599684934419,"GlobalID":"{1757ECA7-1540-4FD2-B3C9-6BCB43A5B1F0}","SHAPE_Length":810.29637799283591,"SHAPE_Area":28748.016066775072},"geometry":{"type":"Polygon","coordinates":[[[30.8201295105,29.9754830234],[30.8180466327,29.9775965753],[30.8171636009,29.9772836932],[30.8191308618,29.9751268072],[30.8201295105,29.9754830234]]]}},
{"type":"Feature","properties":{"سعر_الايجار_زراعية_2023":4355758.734957248,"نوع_ملكية_الأرض":"ايجار","أنواع_المحاصيل_المزروعة":"خضروات","اسم_المحور":"محور دهشور","اسم_المحافظة":"محافظة الجيزة","المساحة_كم2":0.028863625412912829,"نسبة_المساحة":0.082193213034345278,"المساحة_فدان":7.1293154769894684,"GlobalID":"{F7F2E4E2-DEC7-4808-8D56-ED15B0A6C047}","SHAPE_Length":810.52105141102652,"SHAPE_Area":28863.625412912828},"geometry":{"type":"Polygon","coordinates":[[[30.816454272,29.9741604603],[30.8143737325,29.9762951645],[30.8134153571,29.9759609265],[30.8153829815,29.9739600614],[30.816454272,29.9741604603]]]}},
{"type":"Feature","properties":{"سعر_الايجار_زراعية_2023":4355758.734957248,"نوع_ملكية_الأرض":"ايجار","أنواع_المحاصيل_المزروعة":"خضروات","اسم_المحور":"محور دهشور","اسم_المحافظة":"محافظة الجيزة","المساحة_كم2":0.021084933501005355,"نسبة_المساحة":0.060042299131550556,"المساحة_فدان":5.2079785747483225,"GlobalID":"{20C830B7-253F-4100-A866-77845E8A9BEB}","SHAPE_Length":666.85209029398095,"SHAPE_Area":21084.933501005355},"geometry":{"type":"Polygon","coordinates":[[[30.8187549552,29.9725429901],[30.8195326053,29.9729985589],[30.8180929178,29.9747565673],[30.8173116677,29.9744723646],[30.8187549552,29.9725429901]]]}},
{"type":"Feature","properties":{"سعر_الايجار_زراعية_2023":4355758.734957248,"نوع_ملكية_الأرض":"ايجار","أنواع_المحاصيل_المزروعة":"خضروات","اسم_المحور":"محور دهشور","اسم_المحافظة":"محافظة الجيزة","المساحة_كم2":0.022745588148012336,"نسبة_المساحة":0.064771245659413126,"المساحة_فدان":5.6181602725590469,"GlobalID":"{8098BAD2-6126-41A6-8059-301C5D00A44A}","SHAPE_Length":701.94202798418951,"SHAPE_Area":22745.588148012335},"geometry":{"type":"Polygon","coordinates":[[[30.8187549552,29.9725429901],[30.8173116677,29.9744723646],[30.816454272,29.9741604603],[30.8180311005,29.9721189324],[30.8187549552,29.9725429901]]]}},
{"type":"Feature","properties":{"سعر_الايجار_زراعية_2023":2824288.1742672124,"نوع_ملكية_الأرض":"ايجار","أنواع_المحاصيل_المزروعة":"خضروات","اسم_المحور":"محور دهشور","اسم_المحافظة":"محافظة الجيزة","المساحة_كم2":0.019103047679466491,"نسبة_المساحة":0.054398601875605156,"المساحة_فدان":4.7184527768282232,"GlobalID":"{56691B77-16D7-4EFF-BF0B-8702F3F20C02}","SHAPE_Length":578.51461904679502,"SHAPE_Area":19103.04767946649},"geometry":{"type":"Polygon","coordinates":[[[30.8300667978,29.978639466],[30.8288593044,29.9799520158],[30.8280325909,29.9793890745],[30.8292567955,29.9780556762],[30.8300667978,29.978639466]]]}},
{"type":"Feature","properties":{"سعر_الايجار_زراعية_2023":2824288.1742672124,"نوع_ملكية_الأرض":"ايجار","أنواع_المحاصيل_المزروعة":"خضروات","اسم_المحور":"محور دهشور","اسم_المحافظة":"محافظة الجيزة","المساحة_كم2":0.019117370369763634,"نسبة_المساحة":0.054439387740789345,"المساحة_فدان":4.7219904813316171,"GlobalID":"{D412D677-46DC-4C95-ACCA-6824710B63EB}","SHAPE_Length":577.1998028622437,"SHAPE_Area":19117.370369763634},"geometry":{"type":"Polygon","coordinates":[[[30.8304610382,29.9767440034],[30.8292567955,29.9780556762],[30.828441376,29.9774679781],[30.8296235365,29.9761551315],[30.8304610382,29.9767440034]]]}},
{"type":"Feature","properties":{"سعر_الايجار_زراعية_2023":2824288.1742672124,"نوع_ملكية_الأرض":"ايجار","أنواع_المحاصيل_المزروعة":"خضروات","اسم_المحور":"محور دهشور","اسم_المحافظة":"محافظة الجيزة","المساحة_كم2":0.019182089826562422,"نسبة_المساحة":0.054623685451975344,"المساحة_فدان":4.7379761871609185,"GlobalID":"{BCBF28CF-93E5-4A7B-BC16-9E7B325752B0}","SHAPE_Length":581.43937042378968,"SHAPE_Area":19182.089826562424},"geometry":{"type":"Polygon","coordinates":[[[30.8292567955,29.9780556762],[30.8280325909,29.9793890745],[30.827229249,29.9788140853],[30.828441376,29.9774679781],[30.8292567955,29.9780556762]]]}},
{"type":"Feature","properties":{"سعر_الايجار_زراعية_2023":2824288.1742672124,"نوع_ملكية_الأرض":"ايجار","أنواع_المحاصيل_المزروعة":"خضروات","اسم_المحور":"محور دهشور","اسم_المحافظة":"محافظة الجيزة","المساحة_كم2":0.019469569193593481,"نسبة_المساحة":0.055442323184392406,"المساحة_فدان":4.80898359081759,"GlobalID":"{C164B6C9-089F-49A1-903F-5DE827410FB7}","SHAPE_Length":583.23611357758784,"SHAPE_Area":19469.569193593481},"geometry":{"type":"Polygon","coordinates":[[[30.831056284,29.9793526096],[30.8302100361,29.9787427004],[30.8314211999,29.9774222432],[30.8322363492,29.9779953981],[30.831056284,29.9793526096]]]}},
{"type":"Feature","properties":{"سعر_الايجار_زراعية_2023":2824288.1742672124,"نوع_ملكية_الأرض":"ايجار","أنواع_المحاصيل_المزروعة":"خضروات","اسم_المحور":"محور دهشور","اسم_المحافظة":"محافظة الجيزة","المساحة_كم2":0.019619786817219206,"نسبة_المساحة":0.055870088891698824,"المساحة_فدان":4.846087343853144,"GlobalID":"{AFF34D98-4210-498C-ACAF-74CAC6F32C7E}","SHAPE_Length":586.51891121596987,"SHAPE_Area":19619.786817219207},"geometry":{"type":"Polygon","coordinates":[[[30.828441376,29.9774679781],[30.827229249,29.9788140853],[30.8264143745,29.9782308332],[30.8276036235,29.9768641807],[30.828441376,29.9774679781]]]}},
{"type":"Feature","properties":{"سعر_الايجار_زراعية_2023":2824288.1742672124,"نوع_ملكية_الأرض":"ايجار","أنواع_المحاصيل_المزروعة":"خضروات","اسم_المحور":"محور دهشور","اسم_المحافظة":"محافظة الجيزة","المساحة_كم2":0.019620398882142471,"نسبة_المساحة":0.055871831832230698,"المساحة_فدان":4.8462385238891903,"GlobalID":"{569B0690-C500-4A0B-A037-BC53DA0A9EBE}","SHAPE_Length":581.65611261680021,"SHAPE_Area":19620.398882142472},"geometry":{"type":"Polygon","coordinates":[[[30.8296235365,29.9761551315],[30.828441376,29.9774679781],[30.8276036235,29.9768641807],[30.8287531664,29.9755431373],[30.8296235365,29.9761551315]]]}},
{"type":"Feature","properties":{"سعر_الايجار_زراعية_2023":2824288.1742672124,"نوع_ملكية_الأرض":"ايجار","أنواع_المحاصيل_المزروعة":"خضروات","اسم_المحور":"محور دهشور","اسم_المحافظة":"محافظة الجيزة","المساحة_كم2":0.022292059846395991,"نسبة_المساحة":0.063479760346026953,"المساحة_فدان":5.5061387820598098,"GlobalID":"{95B0804D-5138-4C08-B974-6F7DCF07F97C}","SHAPE_Length":612.30425520544941,"SHAPE_Area":22292.05984639599},"geometry":{"type":"Polygon","coordinates":[[[30.8314211999,29.9774222432],[30.8302100361,29.9787427004],[30.8292567955,29.9780556762],[30.8304610382,29.9767440034],[30.8314211999,29.9774222432]]]}},
{"type":"Feature","properties":{"سعر_الايجار_زراعية_2023":2824288.1742672124,"نوع_ملكية_الأرض":"ايجار","أنواع_المحاصيل_المزروعة":"خضروات","اسم_المحور":"محور دهشور","اسم_المحافظة":"محافظة الجيزة","المساحة_كم2":0.023184196288255569,"نسبة_المساحة":0.066020243725105954,"المساحة_فدان":5.7264964831991261,"GlobalID":"{E48F5B9A-C649-4B3C-8003-279DF06625A2}","SHAPE_Length":619.71683090066063,"SHAPE_Area":23184.196288255571},"geometry":{"type":"Polygon","coordinates":[[[30.831056284,29.9793526096],[30.8299286658,29.9806494646],[30.8288593044,29.9799520158],[30.8300667978,29.978639466],[30.831056284,29.9793526096]]]}},
{"type":"Feature","properties":{"سعر_الايجار_زراعية_2023":2824288.1742672124,"نوع_ملكية_الأرض":"ايجار","أنواع_المحاصيل_المزروعة":"خضروات","اسم_المحور":"محور دهشور","اسم_المحافظة":"محافظة الجيزة","المساحة_كم2":0.033207521835535311,"نسبة_المساحة":0.094563066057174835,"المساحة_فدان":8.2022578933772223,"GlobalID":"{8BF13547-8215-4CA0-819E-3327194E725F}","SHAPE_Length":798.90623090077406,"SHAPE_Area":33207.521835535314},"geometry":{"type":"Polygon","coordinates":[[[30.8276036235,29.9768641807],[30.8264143745,29.9782308332],[30.8264016563,29.9777836127],[30.8250680138,29.9772337133],[30.8259262828,29.975655252],[30.8276036235,29.9768641807]]]}},
{"type":"Feature","properties":{"سعر_الايجار_زراعية_2023":2824288.1742672124,"نوع_ملكية_الأرض":"ايجار","أنواع_المحاصيل_المزروعة":"خضروات","اسم_المحور":"محور دهشور","اسم_المحافظة":"محافظة الجيزة","المساحة_كم2":0.039585096517280143,"نسبة_المساحة":0.1127241025506913,"المساحة_فدان":9.7775188397681951,"GlobalID":"{D94FB354-4C35-457E-B5C9-838C4B98F042}","SHAPE_Length":787.82347541498393,"SHAPE_Area":39585.096517280144},"geometry":{"type":"Polygon","coordinates":[[[30.8287531664,29.9755431373],[30.8276036235,29.9768641807],[30.8259262828,29.975655252],[30.8270566469,29.9743502148],[30.8287531664,29.9755431373]]]}},
{"type":"Feature","properties":{"سعر_الايجار_زراعية_2023":2824288.1742672124,"نوع_ملكية_الأرض":"ايجار","أنواع_المحاصيل_المزروعة":"خضروات","اسم_المحور":"محور دهشور","اسم_المحافظة":"محافظة الجيزة","المساحة_كم2":0.04587452022940107,"نسبة_المساحة":0.13063411682084425,"المساحة_فدان":11.331006496662063,"GlobalID":"{0E66F314-3D70-4416-B756-8325081F9FC6}","SHAPE_Length":962.80470802113712,"SHAPE_Area":45874.520229401067},"geometry":{"type":"Polygon","coordinates":[[[30.8246516833,29.9800926123],[30.8229151755,29.9798190768],[30.8252058542,29.9772905498],[30.8264016563,29.9777836127],[30.8246516833,29.9800926123]]]}},
{"type":"Feature","properties":{"سعر_الايجار_زراعية_2023":2824288.1742672124,"نوع_ملكية_الأرض":"ايجار","أنواع_المحاصيل_المزروعة":"خضروات","اسم_المحور":"محور دهشور","اسم_المحافظة":"محافظة الجيزة","المساحة_كم2":0.049449976039695268,"نسبة_المساحة":0.14081572765130235,"المساحة_فدان":12.214144081804731,"GlobalID":"{835F646D-9A34-4F89-8010-DDF10F9C7DE7}","SHAPE_Length":992.27592752876717,"SHAPE_Area":49449.97603969527},"geometry":{"type":"Polygon","coordinates":[[[30.8252058542,29.9772905498],[30.8229151755,29.9798190768],[30.8216012937,29.9792908604],[30.8239332965,29.9767658346],[30.8252058542,29.9772905498]]]}},
{"type":"Feature","properties":{"سعر_الايجار_زراعية_2023":2824288.1742672124,"نوع_ملكية_الأرض":"ايجار","أنواع_المحاصيل_المزروعة":"خضروات","اسم_المحور":"محور دهشور","اسم_المحافظة":"محافظة الجيزة","المساحة_كم2":0.049466772478616639,"نسبة_المساحة":0.14086355786191287,"المساحة_فدان":12.218292802218308,"GlobalID":"{943F40F6-2DA1-4662-A033-ACF869F1BA84}","SHAPE_Length":936.84056205310571,"SHAPE_Area":49466.772478616636},"geometry":{"type":"Polygon","coordinates":[[[30.8247387612,29.9742664539],[30.8230478788,29.9764007483],[30.8213036523,29.9756815429],[30.8234582303,29.9735404155],[30.8247387612,29.9742664539]]]}},
{"type":"Feature","properties":{"سعر_الايجار_زراعية_2023":2824288.1742672124,"نوع_ملكية_الأرض":"ايجار","أنواع_المحاصيل_المزروعة":"خضروات","اسم_المحور":"محور دهشور","اسم_المحافظة":"محافظة الجيزة","المساحة_كم2":0.049759138299937326,"نسبة_المساحة":0.14169611045681393,"المساحة_فدان":12.290507160084518,"GlobalID":"{EFAA05B1-ED4F-42F9-BD85-580C256865AC}","SHAPE_Length":1003.5010484742335,"SHAPE_Area":49759.138299937324},"geometry":{"type":"Polygon","coordinates":[[[30.8239332965,29.9767658346],[30.8216012937,29.9792908604],[30.8202810523,29.9787600847],[30.8225824195,29.9762088239],[30.8239332965,29.9767658346]]]}},
{"type":"Feature","properties":{"سعر_الايجار_زراعية_2023":2824288.1742672124,"نوع_ملكية_الأرض":"ايجار","أنواع_المحاصيل_المزروعة":"خضروات","اسم_المحور":"محور دهشور","اسم_المحافظة":"محافظة الجيزة","المساحة_كم2":0.050200833121825494,"نسبة_المساحة":0.1429538982804939,"المساحة_فدان":12.399605781090898,"GlobalID":"{E013D995-4805-427C-996B-39B198BDF574}","SHAPE_Length":1003.7645687136028,"SHAPE_Area":50200.833121825497},"geometry":{"type":"Polygon","coordinates":[[[30.8225824195,29.9762088239],[30.8202810523,29.9787600847],[30.8189227829,29.9782140173],[30.8213036523,29.9756815429],[30.8225824195,29.9762088239]]]}},
{"type":"Feature","properties":{"سعر_الايجار_زراعية_2023":215091.45698998441,"نوع_ملكية_الأرض":"ايجار","أنواع_المحاصيل_المزروعة":"خضروات","اسم_المحور":"محور دهشور","اسم_المحافظة":"محافظة الجيزة","المساحة_كم2":0.017502974079828121,"نسبة_المساحة":0.049842168358876109,"المساحة_فدان":4.323234597717545,"GlobalID":"{B957424B-D5F8-4C8B-88CE-A40FA0C1605F}","SHAPE_Length":545.26187790269694,"SHAPE_Area":17502.97407982812},"geometry":{"type":"Polygon","coordinates":[[[30.8290423568,29.9868109706],[30.8290839681,29.9857245716],[30.8308364497,29.9860169749],[30.8307508687,29.9868030138],[30.8290423568,29.9868109706]]]}},
{"type":"Feature","properties":{"سعر_الايجار_زراعية_2023":1199040.8701713402,"نوع_ملكية_الأرض":"ايجار","أنواع_المحاصيل_المزروعة":"خضروات","اسم_المحور":"محور دهشور","اسم_المحافظة":"محافظة الجيزة","المساحة_كم2":0.015738075429728049,"نسبة_المساحة":0.044816372442511201,"المساحة_فدان":3.8873046311428281,"GlobalID":"{9C4E2FFF-D082-48FE-8778-1A857290507E}","SHAPE_Length":588.98149210277097,"SHAPE_Area":15738.075429728049},"geometry":{"type":"Polygon","coordinates":[[[30.8288282803,29.9870057832],[30.827941986,29.9888659769],[30.8271795037,29.9886433529],[30.8278822895,29.9871215914],[30.8288282803,29.9870057832]]]}},
{"type":"Feature","properties":{"سعر_الايجار_زراعية_2023":1199040.8701713402,"نوع_ملكية_الأرض":"ايجار","أنواع_المحاصيل_المزروعة":"خضروات","اسم_المحور":"محور دهشور","اسم_المحافظة":"محافظة الجيزة","المساحة_كم2":0.017148366215651852,"نسبة_المساحة":0.048832372835724155,"المساحة_فدان":4.2356464552660071,"GlobalID":"{BA08BF19-D182-4561-95E9-0AFF9615F161}","SHAPE_Length":599.02240238173249,"SHAPE_Area":17148.366215651851},"geometry":{"type":"Polygon","coordinates":[[[30.8286521459,29.9890733217],[30.827941986,29.9888659769],[30.8288282803,29.9870057832],[30.8294439753,29.9872365247],[30.8286521459,29.9890733217]]]}},
{"type":"Feature","properties":{"سعر_الايجار_زراعية_2023":1199040.8701713402,"نوع_ملكية_الأرض":"ايجار","أنواع_المحاصيل_المزروعة":"خضروات","اسم_المحور":"محور دهشور","اسم_المحافظة":"محافظة الجيزة","المساحة_كم2":0.019459857492562172,"نسبة_المساحة":0.055414667756483647,"المساحة_فدان":4.806584800662856,"GlobalID":"{4F81ED61-5CAE-477D-9169-8CF9BA11D85C}","SHAPE_Length":585.74935330340509,"SHAPE_Area":19459.857492562172},"geometry":{"type":"Polygon","coordinates":[[[30.8217989895,29.9851951477],[30.8206598389,29.9866280232],[30.8198790607,29.9860481086],[30.8209096259,29.98462259],[30.8217989895,29.9851951477]]]}},
{"type":"Feature","properties":{"سعر_الايجار_زراعية_2023":1199040.8701713402,"نوع_ملكية_الأرض":"ايجار","أنواع_المحاصيل_المزروعة":"خضروات","اسم_المحور":"محور دهشور","اسم_المحافظة":"محافظة الجيزة","المساحة_كم2":0.020039062625573412,"نسبة_المساحة":0.057064035436639356,"المساحة_فدان":4.9496484685166324,"GlobalID":"{3FBF7E6F-FE9E-4635-B9CA-DFCE78C99800}","SHAPE_Length":597.6932393387317,"SHAPE_Area":20039.062625573413},"geometry":{"type":"Polygon","coordinates":[[[30.8226532423,29.9857450932],[30.8214616183,29.9872235325],[30.8206598389,29.9866280232],[30.8217989895,29.9851951477],[30.8226532423,29.9857450932]]]}},
{"type":"Feature","properties":{"سعر_الايجار_زراعية_2023":1199040.8701713402,"نوع_ملكية_الأرض":"ايجار","أنواع_المحاصيل_المزروعة":"خضروات","اسم_المحور":"محور دهشور","اسم_المحافظة":"محافظة الجيزة","المساحة_كم2":0.028956443866307979,"نسبة_المساحة":0.082457526570995213,"المساحة_فدان":7.1522416349780702,"GlobalID":"{C50360E3-9F4D-4234-8A2C-92F89D3F9F7E}","SHAPE_Length":703.82773551273283,"SHAPE_Area":28956.443866307978},"geometry":{"type":"Polygon","coordinates":[[[30.8228410401,29.9882480686],[30.8214616183,29.9872235325],[30.8226532423,29.9857450932],[30.8234515511,29.9862131987],[30.8228410401,29.9882480686]]]}},
{"type":"Feature","properties":{"سعر_الايجار_زراعية_2023":1199040.8701713402,"نوع_ملكية_الأرض":"ايجار","أنواع_المحاصيل_المزروعة":"خضروات","اسم_المحور":"محور دهشور","اسم_المحافظة":"محافظة الجيزة","المساحة_كم2":0.008405053627573645,"نسبة_المساحة":0.023934566551961769,"المساحة_فدان":2.0760482460106902,"GlobalID":"{95FC070E-FEE4-4A01-AEDE-C7A5D5C91EAC}","SHAPE_Length":384.85391557900539,"SHAPE_Area":8405.0536275736449},"geometry":{"type":"Polygon","coordinates":[[[30.8239498496,29.9875659],[30.8233958567,29.9886601443],[30.8228410401,29.9882480686],[30.8232493984,29.9873286065],[30.8239498496,29.9875659]]]}},
{"type":"Feature","properties":{"سعر_الايجار_زراعية_2023":1199040.8701713402,"نوع_ملكية_الأرض":"ايجار","أنواع_المحاصيل_المزروعة":"خضروات","اسم_المحور":"محور دهشور","اسم_المحافظة":"محافظة الجيزة","المساحة_كم2":0.012671333902360105,"نسبة_المساحة":0.036083396730892538,"المساحة_فدان":3.1298194738829461,"GlobalID":"{20645D2F-C0E7-4D1F-9DB6-F91AF6C6A047}","SHAPE_Length":490.06285474318372,"SHAPE_Area":12671.333902360106},"geometry":{"type":"Polygon","coordinates":[[[30.8260983898,29.9865759567],[30.8253777018,29.9880496152],[30.8246282195,29.9877957125],[30.8253027047,29.9865008415],[30.8260983898,29.9865759567]]]}},
{"type":"Feature","properties":{"سعر_الايجار_زراعية_2023":1199040.8701713402,"نوع_ملكية_الأرض":"ايجار","أنواع_المحاصيل_المزروعة":"خضروات","اسم_المحور":"محور دهشور","اسم_المحافظة":"محافظة الجيزة","المساحة_كم2":0.013107503771952118,"نسبة_المساحة":0.03732545147965257,"المساحة_فدان":3.2375534316721732,"GlobalID":"{42A886AD-8315-46BA-BB3D-FA44E02CB276}","SHAPE_Length":512.56628950127129,"SHAPE_Area":13107.503771952119},"geometry":{"type":"Polygon","coordinates":[[[30.8259597929,29.9882468103],[30.8247228292,29.9896457207],[30.8241733417,29.9892375968],[30.825222641,29.9879970857],[30.8259597929,29.9882468103]]]}},
{"type":"Feature","properties":{"سعر_الايجار_زراعية_2023":1199040.8701713402,"نوع_ملكية_الأرض":"ايجار","أنواع_المحاصيل_المزروعة":"خضروات","اسم_المحور":"محور دهشور","اسم_المحافظة":"محافظة الجيزة","المساحة_كم2":0.013577045519412776,"نسبة_المساحة":0.038662537321276849,"المساحة_فدان":3.3535302432949554,"GlobalID":"{96AAA2D0-DFFC-4A6F-A6CE-DF0512432DB9}","SHAPE_Length":534.05838946386359,"SHAPE_Area":13577.045519412775},"geometry":{"type":"Polygon","coordinates":[[[30.8278822895,29.9871215914],[30.8271795037,29.9886433529],[30.8264549515,29.9884145552],[30.8271256877,29.9868919873],[30.8278822895,29.9871215914]]]}},
{"type":"Feature","properties":{"سعر_الايجار_زراعية_2023":1199040.8701713402,"نوع_ملكية_الأرض":"ايجار","أنواع_المحاصيل_المزروعة":"خضروات","اسم_المحور":"محور دهشور","اسم_المحافظة":"محافظة الجيزة","المساحة_كم2":0.016028679043759111,"نسبة_المساحة":0.045643906905521517,"المساحة_فدان":3.9590837238085004,"GlobalID":"{35AE28B3-7D58-4D70-B7BD-66E06290E3CC}","SHAPE_Length":578.00214553698515,"SHAPE_Area":16028.679043759112},"geometry":{"type":"Polygon","coordinates":[[[30.8268235014,29.9885394087],[30.8252575616,29.9900428633],[30.8247228292,29.9896457207],[30.8259597929,29.9882468103],[30.8268235014,29.9885394087]]]}},
{"type":"Feature","properties":{"سعر_الايجار_زراعية_2023":1199040.8701713402,"نوع_ملكية_الأرض":"ايجار","أنواع_المحاصيل_المزروعة":"خضروات","اسم_المحور":"محور دهشور","اسم_المحافظة":"محافظة الجيزة","المساحة_كم2":0.017130891710901375,"نسبة_المساحة":0.048782611737765096,"المساحة_فدان":4.2313302525926391,"GlobalID":"{9B47454A-9D17-49D9-91C7-E2EF31B01A0E}","SHAPE_Length":533.82064381173745,"SHAPE_Area":17130.891710901375},"geometry":{"type":"Polygon","coordinates":[[[30.825222641,29.9879970857],[30.8241733417,29.9892375968],[30.8233958567,29.9886601443],[30.8239498496,29.9875659],[30.825222641,29.9879970857]]]}},
{"type":"Feature","properties":{"سعر_الايجار_زراعية_2023":1199040.8701713402,"نوع_ملكية_الأرض":"ايجار","أنواع_المحاصيل_المزروعة":"خضروات","اسم_المحور":"محور دهشور","اسم_المحافظة":"محافظة الجيزة","المساحة_كم2":0.019799887724811546,"نسبة_المساحة":0.056382951432479782,"المساحة_فدان":4.8905722680284516,"GlobalID":"{698A0E5F-9960-4454-A804-5A4D8BAF5DFF}","SHAPE_Length":580.74145956287487,"SHAPE_Area":19799.887724811546},"geometry":{"type":"Polygon","coordinates":[[[30.8253777018,29.9880496152],[30.8260983898,29.9865759567],[30.8271262484,29.9868198681],[30.8264549515,29.9884145552],[30.8253777018,29.9880496152]]]}},
{"type":"Feature","properties":{"سعر_الايجار_زراعية_2023":1783537.5995220619,"نوع_ملكية_الأرض":"ايجار","أنواع_المحاصيل_المزروعة":"خضروات","اسم_المحور":"محور دهشور","اسم_المحافظة":"محافظة الجيزة","المساحة_كم2":0.01044633530831243,"نسبة_المساحة":0.029747401829854796,"المساحة_فدان":2.5802448211531703,"GlobalID":"{1E4CF329-D1EC-414F-906E-51DE6C06FE26}","SHAPE_Length":423.6915119184066,"SHAPE_Area":10446.335308312431},"geometry":{"type":"Polygon","coordinates":[[[30.8403569648,29.9855523451],[30.8398013548,29.9866728432],[30.8390509696,29.9863230861],[30.83966088,29.9852606692],[30.8403569648,29.9855523451]]]}},
{"type":"Feature","properties":{"سعر_الايجار_زراعية_2023":1783537.5995220619,"نوع_ملكية_الأرض":"ايجار","أنواع_المحاصيل_المزروعة":"خضروات","اسم_المحور":"محور دهشور","اسم_المحافظة":"محافظة الجيزة","المساحة_كم2":0.010950574706153888,"نسبة_المساحة":0.031183294087123056,"المساحة_فدان":2.7047919524200101,"GlobalID":"{A230B3C5-2C2E-4D46-BA67-8677F40533E4}","SHAPE_Length":436.15653637641788,"SHAPE_Area":10950.574706153888},"geometry":{"type":"Polygon","coordinates":[[[30.8402643998,29.9841033175],[30.8409226658,29.9844114815],[30.8403569648,29.9855523451],[30.8395617316,29.9852191241],[30.8402643998,29.9841033175]]]}},
{"type":"Feature","properties":{"سعر_الايجار_زراعية_2023":1783537.5995220619,"نوع_ملكية_الأرض":"ايجار","أنواع_المحاصيل_المزروعة":"خضروات","اسم_المحور":"محور دهشور","اسم_المحافظة":"محافظة الجيزة","المساحة_كم2":0.012547064361993963,"نسبة_المساحة":0.035729521822287856,"المساحة_فدان":3.0991248974125085,"GlobalID":"{2E0A3585-FB5C-45C0-A3E8-F0A0E87323E1}","SHAPE_Length":465.1158619094424,"SHAPE_Area":12547.064361993962},"geometry":{"type":"Polygon","coordinates":[[[30.8393830089,29.9836906974],[30.8386623702,29.9848422689],[30.837911672,29.9845277058],[30.8385611501,29.9833059456],[30.8393830089,29.9836906974]]]}},
{"type":"Feature","properties":{"سعر_الايجار_زراعية_2023":1783537.5995220619,"نوع_ملكية_الأرض":"ايجار","أنواع_المحاصيل_المزروعة":"خضروات","اسم_المحور":"محور دهشور","اسم_المحافظة":"محافظة الجيزة","المساحة_كم2":0.012642979832082695,"نسبة_المساحة":0.036002654547422429,"المساحة_فدان":3.1228160185244254,"GlobalID":"{B8C1BB21-8BA7-4A8E-9BE2-E48059FCA52D}","SHAPE_Length":470.41395604412799,"SHAPE_Area":12642.979832082694},"geometry":{"type":"Polygon","coordinates":[[[30.8385611501,29.9833059456],[30.837911672,29.9845277058],[30.8371755358,29.9842192443],[30.8377523223,29.9829272929],[30.8385611501,29.9833059456]]]}},
{"type":"Feature","properties":{"سعر_الايجار_زراعية_2023":1783537.5995220619,"نوع_ملكية_الأرض":"ايجار","أنواع_المحاصيل_المزروعة":"خضروات","اسم_المحور":"محور دهشور","اسم_المحافظة":"محافظة الجيزة","المساحة_كم2":0.013806862507444071,"نسبة_المساحة":0.039316973359229214,"المساحة_فدان":3.4102950393386853,"GlobalID":"{F1BBA17E-DEA8-405C-86D2-2AFA6AFA6369}","SHAPE_Length":479.38427104030404,"SHAPE_Area":13806.862507444072},"geometry":{"type":"Polygon","coordinates":[[[30.8402643998,29.9841033175],[30.8395617316,29.9852191241],[30.8386623702,29.9848422689],[30.8393830089,29.9836906974],[30.8402643998,29.9841033175]]]}},
{"type":"Feature","properties":{"سعر_الايجار_زراعية_2023":1783537.5995220619,"نوع_ملكية_الأرض":"ايجار","أنواع_المحاصيل_المزروعة":"خضروات","اسم_المحور":"محور دهشور","اسم_المحافظة":"محافظة الجيزة","المساحة_كم2":0.01326928175551822,"نسبة_المساحة":0.037786136929844373,"المساحة_فدان":3.2775125936129998,"GlobalID":"{1D4A44B9-4D26-4B58-B380-A046FCC9BABA}","SHAPE_Length":464.02658435158367,"SHAPE_Area":13269.281755518219},"geometry":{"type":"Polygon","coordinates":[[[30.8386899467,29.9848538243],[30.83966088,29.9852606692],[30.8390509696,29.9863230861],[30.8381281911,29.9858929755],[30.8386899467,29.9848538243]]]}},
{"type":"Feature","properties":{"سعر_الايجار_زراعية_2023":1783537.5995220619,"نوع_ملكية_الأرض":"ايجار","أنواع_المحاصيل_المزروعة":"خضروات","اسم_المحور":"محور دهشور","اسم_المحافظة":"محافظة الجيزة","المساحة_كم2":0.025104304571899751,"نسبة_المساحة":0.071488020795687418,"المساحة_فدان":6.2007632292592376,"GlobalID":"{61C4D5FD-8390-417A-9C0F-9BA93AC9726B}","SHAPE_Length":688.56841722007528,"SHAPE_Area":25104.304571899749},"geometry":{"type":"Polygon","coordinates":[[[30.8388901348,29.9873586059],[30.8386980798,29.9878163274],[30.8374387235,29.987457663],[30.8382910934,29.9859689046],[30.8398013548,29.9866728432],[30.8394809574,29.9873565855],[30.8388901348,29.9873586059]]]}},
{"type":"Feature","properties":{"سعر_الايجار_زراعية_2023":1783537.5995220619,"نوع_ملكية_الأرض":"ايجار","أنواع_المحاصيل_المزروعة":"خضروات","اسم_المحور":"محور دهشور","اسم_المحافظة":"محافظة الجيزة","المساحة_كم2":0.045011029552294565,"نسبة_المساحة":0.12817520626607956,"المساحة_فدان":11.117724299416757,"GlobalID":"{D8B07F6B-CAC5-4D0B-B724-F72C36CE70CB}","SHAPE_Length":892.8790358800303,"SHAPE_Area":45011.029552294567},"geometry":{"type":"Polygon","coordinates":[[[30.8371153761,29.9877485782],[30.8362471465,29.9902079679],[30.8345425628,29.9897470979],[30.8357951897,29.98728893],[30.8371153761,29.9877485782]]]}},
{"type":"Feature","properties":{"سعر_الايجار_زراعية_2023":1783537.5995220619,"نوع_ملكية_الأرض":"ايجار","أنواع_المحاصيل_المزروعة":"خضروات","اسم_المحور":"محور دهشور","اسم_المحافظة":"محافظة الجيزة","المساحة_كم2":0.05960222381147396,"نسبة_المساحة":0.16972567406122055,"المساحة_فدان":14.721749281434068,"GlobalID":"{4E6DDB2E-4980-448A-9D3F-9A5329CAFFB8}","SHAPE_Length":1007.292774669661,"SHAPE_Area":59602.223811473959},"geometry":{"type":"Polygon","coordinates":[[[30.8327312165,29.989174495],[30.8313693111,29.9897303132],[30.8294726103,29.9890270863],[30.8307081329,29.9876916919],[30.831476436,29.9876661612],[30.8315265172,29.9873805568],[30.833361401,29.9877353942],[30.8327312165,29.989174495]]]}},
{"type":"Feature","properties":{"سعر_الايجار_زراعية_2023":1783537.5995220619,"نوع_ملكية_الأرض":"ايجار","أنواع_المحاصيل_المزروعة":"خضروات","اسم_المحور":"محور دهشور","اسم_المحافظة":"محافظة الجيزة","المساحة_كم2":0.034027310392770606,"نسبة_المساحة":0.096897528709181627,"المساحة_فدان":8.404745667014339,"GlobalID":"{330040CA-4A85-4784-ACF1-1E68EE453E99}","SHAPE_Length":747.97624859361213,"SHAPE_Area":34027.310392770603},"geometry":{"type":"Polygon","coordinates":[[[30.8370159432,29.9854788237],[30.8361680645,29.9869450154],[30.8343767069,29.9863571399],[30.8354665563,29.9847338772],[30.8370159432,29.9854788237]]]}},
{"type":"Feature","properties":{"سعر_الايجار_زراعية_2023":1783537.5995220619,"نوع_ملكية_الأرض":"ايجار","أنواع_المحاصيل_المزروعة":"خضروات","اسم_المحور":"محور دهشور","اسم_المحافظة":"محافظة الجيزة","المساحة_كم2":0.030425537596386946,"نسبة_المساحة":0.086640976577583129,"المساحة_فدان":7.515107786307575,"GlobalID":"{A1590FF5-EE54-4B95-B31A-2B82695F139B}","SHAPE_Length":755.34262057154956,"SHAPE_Area":30425.537596386945},"geometry":{"type":"Polygon","coordinates":[[[30.8373494572,29.9876135727],[30.8357951897,29.98728893],[30.8370159432,29.9854788237],[30.8382910934,29.9859689046],[30.8373494572,29.9876135727]]]}},
{"type":"Feature","properties":{"سعر_الايجار_زراعية_2023":null,"نوع_ملكية_الأرض":"تمليك","أنواع_المحاصيل_المزروعة":"موالح","اسم_المحور":"محور دهشور","اسم_المحافظة":"محافظة الجيزة","المساحة_كم2":0.65999129130476297,"نسبة_المساحة":1.8794175724978888,"المساحة_فدان":163.01784895227644,"GlobalID":"{D1C87C58-EF6C-4A24-9497-79550DB2C469}","SHAPE_Length":5062.7938547387357,"SHAPE_Area":659991.29130476294},"geometry":{"type":"Polygon","coordinates":[[[30.8591581656,29.9568935193],[30.8780481709,29.9692345953],[30.8750069231,29.9706143332],[30.8572228501,29.9591528639],[30.8591581656,29.9568935193]]]}},
{"type":"Feature","properties":{"سعر_الايجار_زراعية_2023":null,"نوع_ملكية_الأرض":"تمليك","أنواع_المحاصيل_المزروعة":"موالح","اسم_المحور":"محور دهشور","اسم_المحافظة":"محافظة الجيزة","المساحة_كم2":0.18702347651062612,"نسبة_المساحة":0.53257552463886626,"المساحة_فدان":46.19479869812465,"GlobalID":"{32B85C1A-24F2-4646-A76B-19A0CA2F1497}","SHAPE_Length":1885.2947963520983,"SHAPE_Area":187023.47651062612},"geometry":{"type":"Polygon","coordinates":[[[30.8449028865,29.9633987758],[30.8431634814,29.9654400579],[30.8376880272,29.961935648],[30.8394089583,29.9598346],[30.8449028865,29.9633987758]]]}},
{"type":"Feature","properties":{"سعر_الايجار_زراعية_2023":null,"نوع_ملكية_الأرض":"تمليك","أنواع_المحاصيل_المزروعة":"موالح","اسم_المحور":"محور دهشور","اسم_المحافظة":"محافظة الجيزة","المساحة_كم2":0.18763203011570939,"نسبة_المساحة":0.53430846620077588,"المساحة_فدان":46.345111438580211,"GlobalID":"{C6E48A1E-A664-41D3-B767-386D8C875B25}","SHAPE_Length":1913.9153130702796,"SHAPE_Area":187632.03011570938},"geometry":{"type":"Polygon","coordinates":[[[30.8561331664,29.9706829341],[30.8544706847,29.972675456],[30.8487652851,29.9690248586],[30.8504839401,29.9670189916],[30.8561331664,29.9706829341]]]}},
{"type":"Feature","properties":{"سعر_الايجار_زراعية_2023":null,"نوع_ملكية_الأرض":"تمليك","أنواع_المحاصيل_المزروعة":"موالح","اسم_المحور":"محور دهشور","اسم_المحافظة":"محافظة الجيزة","المساحة_كم2":0.18775322002138717,"نسبة_المساحة":0.53465357141858838,"المساحة_فدان":46.375045345282622,"GlobalID":"{9F778894-04C2-4785-B640-43FD33020B34}","SHAPE_Length":1902.1598320085584,"SHAPE_Area":187753.22002138715},"geometry":{"type":"Polygon","coordinates":[[[30.8504839401,29.9670189916],[30.8487652851,29.9690248586],[30.8431634814,29.9654400579],[30.8449028865,29.9633987758],[30.8504839401,29.9670189916]]]}},
{"type":"Feature","properties":{"سعر_الايجار_زراعية_2023":null,"نوع_ملكية_الأرض":"تمليك","أنواع_المحاصيل_المزروعة":"موالح","اسم_المحور":"محور دهشور","اسم_المحافظة":"محافظة الجيزة","المساحة_كم2":0.20880206431563472,"نسبة_المساحة":0.5945931014829533,"المساحة_فدان":51.574109885961775,"GlobalID":"{93B1F8D2-FB7F-4D92-B85E-4D90554166D0}","SHAPE_Length":1968.8806705647094,"SHAPE_Area":208802.06431563472},"geometry":{"type":"Polygon","coordinates":[[[30.8591581656,29.9568935193],[30.8572228501,29.9591528639],[30.8515980158,29.9555406488],[30.8534868355,29.9533234253],[30.8591581656,29.9568935193]]]}},
{"type":"Feature","properties":{"سعر_الايجار_زراعية_2023":null,"نوع_ملكية_الأرض":"تمليك","أنواع_المحاصيل_المزروعة":"موالح","اسم_المحور":"محور دهشور","اسم_المحافظة":"محافظة الجيزة","المساحة_كم2":0.21159664329655259,"نسبة_المساحة":0.60255105625245786,"المساحة_فدان":52.264370894248486,"GlobalID":"{93BC6F3C-9617-4E92-BA3B-7AAABE594EA8}","SHAPE_Length":2005.3125392570528,"SHAPE_Area":211596.64329655259},"geometry":{"type":"Polygon","coordinates":[[[30.8534868355,29.9533234253],[30.8515980158,29.9555406488],[30.8458092226,29.9518226311],[30.8475421047,29.9496000891],[30.8534868355,29.9533234253]]]}},
{"type":"Feature","properties":{"سعر_الايجار_زراعية_2023":null,"نوع_ملكية_الأرض":"تمليك","أنواع_المحاصيل_المزروعة":"موالح","اسم_المحور":"محور دهشور","اسم_المحافظة":"محافظة الجيزة","المساحة_كم2":0.33244649387957387,"نسبة_المساحة":0.94668791958963538,"المساحة_فدان":82.114283988254741,"GlobalID":"{2757F840-7718-4B33-87CB-F2DFA4757231}","SHAPE_Length":2330.4679120986839,"SHAPE_Area":332446.49387957389},"geometry":{"type":"Polygon","coordinates":[[[30.8479902162,29.9597753581],[30.8449028865,29.9633987758],[30.8394089583,29.9598346],[30.8424048977,29.9561766436],[30.8479902162,29.9597753581]]]}},
{"type":"Feature","properties":{"سعر_الايجار_زراعية_2023":null,"نوع_ملكية_الأرض":"تمليك","أنواع_المحاصيل_المزروعة":"موالح","اسم_المحور":"محور دهشور","اسم_المحافظة":"محافظة الجيزة","المساحة_كم2":0.3371211389456622,"نسبة_المساحة":0.95999962566537522,"المساحة_فدان":83.268921319578553,"GlobalID":"{58EE68E0-F823-422C-8D37-C37E3E183A59}","SHAPE_Length":2347.5892761009509,"SHAPE_Area":337121.13894566218},"geometry":{"type":"Polygon","coordinates":[[[30.8535958957,29.963386706],[30.8504839401,29.9670189916],[30.8449028865,29.9633987758],[30.8479902162,29.9597753581],[30.8535958957,29.963386706]]]}},
{"type":"Feature","properties":{"سعر_الايجار_زراعية_2023":null,"نوع_ملكية_الأرض":"تمليك","أنواع_المحاصيل_المزروعة":"موالح","اسم_المحور":"محور دهشور","اسم_المحافظة":"محافظة الجيزة","المساحة_كم2":0.34076887480686935,"نسبة_المساحة":0.97038706405691855,"المساحة_فدان":84.169912077296729,"GlobalID":"{79E57441-A1D4-4A34-9E24-256455C97FB2}","SHAPE_Length":2360.6249250082005,"SHAPE_Area":340768.87480686937},"geometry":{"type":"Polygon","coordinates":[[[30.8592056632,29.9670001998],[30.8561331664,29.9706829341],[30.8504839401,29.9670189916],[30.8535958957,29.963386706],[30.8592056632,29.9670001998]]]}},
{"type":"Feature","properties":{"سعر_الايجار_زراعية_2023":null,"نوع_ملكية_الأرض":"تمليك","أنواع_المحاصيل_المزروعة":"موالح","اسم_المحور":"محور دهشور","اسم_المحافظة":"محافظة الجيزة","المساحة_كم2":0.39261781125367273,"نسبة_المساحة":1.1180341672191498,"المساحة_فدان":96.976599379657159,"GlobalID":"{CE883FB5-4D7C-4A86-824B-C6CC79A912F7}","SHAPE_Length":2511.9923475317391,"SHAPE_Area":392617.81125367276},"geometry":{"type":"Polygon","coordinates":[[[30.8627769396,29.9627191682],[30.8592056632,29.9670001998],[30.8535958957,29.963386706],[30.8572228501,29.9591528639],[30.8627769396,29.9627191682]]]}},
{"type":"Feature","properties":{"سعر_الايجار_زراعية_2023":null,"نوع_ملكية_الأرض":"تمليك","أنواع_المحاصيل_المزروعة":"موالح","اسم_المحور":"محور دهشور","اسم_المحافظة":"محافظة الجيزة","المساحة_كم2":0.39430943122703249,"نسبة_المساحة":1.122851291847621,"المساحة_فدان":97.394429513077029,"GlobalID":"{EF2702A0-8DAD-4D05-855C-6B1C8E574BC8}","SHAPE_Length":2518.0501755627238,"SHAPE_Area":394309.4312270325},"geometry":{"type":"Polygon","coordinates":[[[30.8572228501,29.9591528639],[30.8535958957,29.963386706],[30.8479902162,29.9597753581],[30.8515980158,29.9555406488],[30.8572228501,29.9591528639]]]}},
{"type":"Feature","properties":{"سعر_الايجار_زراعية_2023":null,"نوع_ملكية_الأرض":"تمليك","أنواع_المحاصيل_المزروعة":"موالح","اسم_المحور":"محور دهشور","اسم_المحافظة":"محافظة الجيزة","المساحة_كم2":0.39847753522390744,"نسبة_المساحة":1.1347205513347258,"المساحة_فدان":98.423951200305126,"GlobalID":"{07791DAC-B88B-4A4A-B173-5FCBDC21C96B}","SHAPE_Length":2533.7708107096114,"SHAPE_Area":398477.53522390744},"geometry":{"type":"Polygon","coordinates":[[[30.8515980158,29.9555406488],[30.8479902162,29.9597753581],[30.8424048977,29.9561766436],[30.8458092226,29.9518226311],[30.8515980158,29.9555406488]]]}},
{"type":"Feature","properties":{"سعر_الايجار_زراعية_2023":5345521.7929206528,"نوع_ملكية_الأرض":"ايجار","أنواع_المحاصيل_المزروعة":"خضروات","اسم_المحور":"محور دهشور","اسم_المحافظة":"محافظة الجيزة","المساحة_كم2":0.020889752508421344,"نسبة_المساحة":0.05948649393818993,"المساحة_فدان":5.1597688695800716,"GlobalID":"{DDFF749A-431F-4A7A-9480-E98E3FE82C6D}","SHAPE_Length":631.312229313383,"SHAPE_Area":20889.752508421345},"geometry":{"type":"Polygon","coordinates":[[[30.8070201582,29.9768747142],[30.8078130167,29.9774272464],[30.8074063447,29.9790039202],[30.8062585351,29.9789662582],[30.8070201582,29.9768747142]]]}},
{"type":"Feature","properties":{"سعر_الايجار_زراعية_2023":5345521.7929206528,"نوع_ملكية_الأرض":"ايجار","أنواع_المحاصيل_المزروعة":"خضروات","اسم_المحور":"محور دهشور","اسم_المحافظة":"محافظة الجيزة","المساحة_كم2":0.026462501261851533,"نسبة_المساحة":0.07535567595967825,"المساحة_فدان":6.5362378116773279,"GlobalID":"{2991727D-B3A3-484D-91F0-77B9A2FFCDE0}","SHAPE_Length":753.65676110744937,"SHAPE_Area":26462.501261851532},"geometry":{"type":"Polygon","coordinates":[[[30.8070201582,29.9768747142],[30.8062585351,29.9789662582],[30.8052612475,29.9789335333],[30.8061570845,29.9762732387],[30.8070201582,29.9768747142]]]}},
{"type":"Feature","properties":{"سعر_الايجار_زراعية_2023":5345521.7929206528,"نوع_ملكية_الأرض":"ايجار","أنواع_المحاصيل_المزروعة":"خضروات","اسم_المحور":"محور دهشور","اسم_المحافظة":"محافظة الجيزة","المساحة_كم2":0.052917226873955898,"نسبة_المساحة":0.1506892096684436,"المساحة_فدان":13.070555037867107,"GlobalID":"{B5770C12-B41A-4F82-8C50-6BB1C2F92355}","SHAPE_Length":1136.7923995275971,"SHAPE_Area":52917.2268739559},"geometry":{"type":"Polygon","coordinates":[[[30.7993262861,29.9743331146],[30.8004977719,29.974757693],[30.7999318507,29.9785811317],[30.7987119276,29.9785292317],[30.7993262861,29.9743331146]]]}},
{"type":"Feature","properties":{"سعر_الايجار_زراعية_2023":5345521.7929206528,"نوع_ملكية_الأرض":"ايجار","أنواع_المحاصيل_المزروعة":"خضروات","اسم_المحور":"محور دهشور","اسم_المحافظة":"محافظة الجيزة","المساحة_كم2":0.01831785439597566,"نسبة_المساحة":0.052162654107442023,"المساحة_فدان":4.5245100358059878,"GlobalID":"{9E9A6654-E91F-4F5F-8D0E-23B2877EFEC9}","SHAPE_Length":547.08421117476246,"SHAPE_Area":18317.854395975661},"geometry":{"type":"Polygon","coordinates":[[[30.8074989984,29.9790189556],[30.8086357278,29.9792034076],[30.8084339068,29.9804743269],[30.8070668474,29.9804230309],[30.8074989984,29.9790189556]]]}},
{"type":"Feature","properties":{"سعر_الايجار_زراعية_2023":5345521.7929206528,"نوع_ملكية_الأرض":"ايجار","أنواع_المحاصيل_المزروعة":"خضروات","اسم_المحور":"محور دهشور","اسم_المحافظة":"محافظة الجيزة","المساحة_كم2":0.024865991569587523,"نسبة_المساحة":0.07080939116799205,"المساحة_فدان":6.1418999176881179,"GlobalID":"{CCB43AC8-87E5-41D4-8402-BB8C6B132533}","SHAPE_Length":635.91139602401074,"SHAPE_Area":24865.991569587524},"geometry":{"type":"Polygon","coordinates":[[[30.8074989984,29.9790189556],[30.8070668474,29.9804230309],[30.8054726819,29.9803631951],[30.8058402333,29.9789525299],[30.8074989984,29.9790189556]]]}},
{"type":"Feature","properties":{"سعر_الايجار_زراعية_2023":5345521.7929206528,"نوع_ملكية_الأرض":"ايجار","أنواع_المحاصيل_المزروعة":"خضروات","اسم_المحور":"محور دهشور","اسم_المحافظة":"محافظة الجيزة","المساحة_كم2":0.038913800997119656,"نسبة_المساحة":0.11081249460441897,"المساحة_فدان":9.6117088462885558,"GlobalID":"{99395A20-6568-4497-9728-633A505DA627}","SHAPE_Length":828.69569937899053,"SHAPE_Area":38913.800997119659},"geometry":{"type":"Polygon","coordinates":[[[30.8084339068,29.9804743269],[30.808062984,29.9828100139],[30.8063446895,29.9827692465],[30.8070668474,29.9804230309],[30.8084339068,29.9804743269]]]}},
{"type":"Feature","properties":{"سعر_الايجار_زراعية_2023":5345521.7929206528,"نوع_ملكية_الأرض":"ايجار","أنواع_المحاصيل_المزروعة":"خضروات","اسم_المحور":"محور دهشور","اسم_المحافظة":"محافظة الجيزة","المساحة_كم2":0.031856077745461939,"نسبة_المساحة":0.090714639866412483,"المساحة_فدان":7.8684512031290987,"GlobalID":"{20BA1068-F149-45DE-83E8-0A62A0EF7A27}","SHAPE_Length":724.85482442058083,"SHAPE_Area":31856.077745461938},"geometry":{"type":"Polygon","coordinates":[[[30.7955257115,29.9811434182],[30.7953029485,29.982506719],[30.7931244806,29.9824548432],[30.793384207,29.981075148],[30.7955257115,29.9811434182]]]}},
{"type":"Feature","properties":{"سعر_الايجار_زراعية_2023":5345521.7929206528,"نوع_ملكية_الأرض":"ايجار","أنواع_المحاصيل_المزروعة":"خضروات","اسم_المحور":"محور دهشور","اسم_المحافظة":"محافظة الجيزة","المساحة_كم2":0.052512962120832229,"نسبة_المساحة":0.1495380092041767,"المساحة_فدان":12.97070164384556,"GlobalID":"{49F9876F-FA29-4D3B-ADD5-7DD77BBC9967}","SHAPE_Length":1003.643196374297,"SHAPE_Area":52512.962120832228},"geometry":{"type":"Polygon","coordinates":[[[30.7992142979,29.9812609261],[30.7988580559,29.982591299],[30.7953029485,29.982506719],[30.7955257115,29.9811434182],[30.7992142979,29.9812609261]]]}},
{"type":"Feature","properties":{"سعر_الايجار_زراعية_2023":5345521.7929206528,"نوع_ملكية_الأرض":"ايجار","أنواع_المحاصيل_المزروعة":"خضروات","اسم_المحور":"محور دهشور","اسم_المحافظة":"محافظة الجيزة","المساحة_كم2":0.060655978346507808,"نسبة_المساحة":0.17272638758022282,"المساحة_فدان":14.982026651587427,"GlobalID":"{E1E7364F-1EDB-42F6-9E55-9DA6204B3193}","SHAPE_Length":1007.4325574640018,"SHAPE_Area":60655.978346507807},"geometry":{"type":"Polygon","coordinates":[[[30.7959652317,29.9784534391],[30.7955257115,29.9811434182],[30.793384207,29.981075148],[30.7938842798,29.9784185828],[30.7959652317,29.9784534391]]]}},
{"type":"Feature","properties":{"سعر_الايجار_زراعية_2023":5345521.7929206528,"نوع_ملكية_الأرض":"ايجار","أنواع_المحاصيل_المزروعة":"خضروات","اسم_المحور":"محور دهشور","اسم_المحافظة":"محافظة الجيزة","المساحة_كم2":0.043328099258139331,"نسبة_المساحة":0.12338282671532599,"المساحة_فدان":10.702040516760414,"GlobalID":"{7DEEB8B1-790B-4D03-B73D-606E1CE1A594}","SHAPE_Length":1045.6916261687713,"SHAPE_Area":43328.099258139329},"geometry":{"type":"Polygon","coordinates":[[[30.8042446028,29.9749324389],[30.8052184447,29.9756159138],[30.8043085292,29.9789022677],[30.803230848,29.9788573971],[30.8042446028,29.9749324389]]]}},
{"type":"Feature","properties":{"سعر_الايجار_زراعية_2023":5345521.7929206528,"نوع_ملكية_الأرض":"ايجار","أنواع_المحاصيل_المزروعة":"خضروات","اسم_المحور":"محور دهشور","اسم_المحافظة":"محافظة الجيزة","المساحة_كم2":0.054928959631590696,"نسبة_المساحة":0.15641790025221461,"المساحة_فدان":13.567453029002902,"GlobalID":"{B43D049E-E9F6-4D39-9157-D144E5962F0D}","SHAPE_Length":998.96071413417599,"SHAPE_Area":54928.959631590697},"geometry":{"type":"Polygon","coordinates":[[[30.7993397007,29.9807926042],[30.7998688912,29.9788162658],[30.8029189681,29.9795269012],[30.8026264913,29.9808481504],[30.7993397007,29.9807926042]]]}},
{"type":"Feature","properties":{"سعر_الايجار_زراعية_2023":5345521.7929206528,"نوع_ملكية_الأرض":"ايجار","أنواع_المحاصيل_المزروعة":"خضروات","اسم_المحور":"محور دهشور","اسم_المحافظة":"محافظة الجيزة","المساحة_كم2":0.025644262821004439,"نسبة_المساحة":0.073025627481036748,"المساحة_فدان":6.3341329167880964,"GlobalID":"{CEE80EBC-F56C-4512-A4CF-92C0798D08C2}","SHAPE_Length":836.00107514604804,"SHAPE_Area":25644.262821004439},"geometry":{"type":"Polygon","coordinates":[[[30.8058402333,29.9789525299],[30.8056653038,29.9796239159],[30.8021488865,29.9795104308],[30.8023010007,29.9788186745],[30.8058402333,29.9789525299]]]}}
]
}
