{
"type": "FeatureCollection",
"name": "Axis_Road",
"xy_coordinate_resolution": 8.98315e-10,
"z_coordinate_resolution": 0.0001,
"features": [
{"type":"Feature","properties":{"اسم_المحور":"محور دهشور","اسم_المحافظة":"محافظة الجيزة","طول_المحور_كم":35.134605128722008,"GlobalID":"{9D2836E3-DDCE-4D01-80D5-FBB225F8B419}","SHAPE_Length":35134.605128722011},"geometry":{"type":"LineString","coordinates":[[30.8457628095,30.0674933729,0.0],[30.8460061652,30.0126793527,0.0],[30.8479979306,30.0040790227,0.0],[30.8506950315,29.9979178199,0.0],[30.8534996173,29.9933210506,0.0],[30.8570855284,29.9887593993,0.0],[30.8706190455,29.9736737172,0.0],[30.8742566041,29.9711662336,0.0],[30.883508314,29.9673588162,0.0],[30.8884975148,29.9637578802,0.0],[30.8949281975,29.9562215551,0.0],[30.8986453551,29.9498822934,0.0],[30.9007058251,29.9471078834,0.0],[30.9143528567,29.9316112197,0.0],[30.9160405842,29.9286360599,0.0],[30.93429463,29.9075595051,0.0],[30.9359824924,29.906671153,0.0],[30.9380105234,29.9063330981,0.0],[30.9801909417,29.9047938243,0.0],[31.055800073,29.8690985326,0.0],[31.0586923872,29.8683160488,0.0],[31.0673458649,29.8681499548,0.0],[31.07117002,29.8667435842,0.0]]}}
]
}
