{"type":"FeatureCollection","features":[{"type":"Feature","properties":{"source_layer":"Governorates","source_feature_count":1,"اسم_المحور":"محور دهشور","اسم_المحافظة":"الجيزه","GlobalID":"{64E594FF-6A51-4C35-BE9A-7D0CE2CDD263}","SHAPE_Length":1374818.423652916,"SHAPE_Area":36622116889.198},"geometry":{"type":"Polygon","coordinates":[[[30.920654,30.325442],[30.920594,30.322928],[30.920914,30.313126],[30.920805,30.311572],[30.920218,30.308458],[30.919172,30.305534],[30.915575,30.299711],[30.914266,30.297177],[30.91323,30.293809],[30.912692,30.28971],[30.912615,30.287959],[30.912922,30.28688],[30.913456,30.285805],[30.914386,30.284784],[30.91563,30.283695],[30.917464,30.282912],[30.920086,30.282411],[30.922249,30.282174],[30.924747,30.282189],[30.929958,30.282789],[30.932012,30.283261],[30.933592,30.283782],[30.936246,30.285339],[30.93761,30.285869],[30.940001,30.28634],[30.941197,30.285838],[30.943581,30.285131],[30.946235,30.284581],[30.94887,30.28493],[30.951019,30.285023],[30.952116,30.284685],[30.955155,30.282629],[30.955823,30.281918],[30.95603,30.281142],[30.956025,30.279428],[30.957772,30.273971],[30.960661,30.270576],[30.963103,30.26838],[30.963903,30.267222],[30.964438,30.26508],[30.964795,30.262296],[30.964692,30.261313],[30.963891,30.259256],[30.96354,30.254463],[30.963685,30.25339],[30.964031,30.25245],[30.965773,30.250526],[30.967156,30.248149],[30.967514,30.246641],[30.96763,30.242991],[30.966845,30.238782],[30.96677,30.237777],[30.966941,30.236763],[30.969013,30.231659],[30.971911,30.22695],[30.976338,30.221076],[30.977983,30.218695],[30.980942,30.215101],[30.98374,30.212709],[30.986821,30.209777],[30.988135,30.20918],[30.989439,30.20828],[30.990555,30.207999],[30.99283,30.20686],[30.997438,30.204117],[31.006414,30.200204],[31.009088,30.198907],[31.009894,30.198232],[31.010719,30.197753],[31.011696,30.197531],[31.013916,30.197447],[31.015451,30.197687],[31.016824,30.198081],[31.018593,30.199012],[31.020292,30.2001],[31.023169,30.203387],[31.024708,30.204512],[31.026004,30.205186],[31.034509,30.208772],[31.039075,30.210991],[31.040486,30.212086],[31.046148,30.215807],[31.047597,30.217028],[31.048642,30.217723],[31.050194,30.218385],[31.053821,30.219439],[31.055014,30.219606],[31.060633,30.21949],[31.064515,30.219847],[31.066705,30.219699],[31.068872,30.218942],[31.070195,30.218352],[31.070862,30.217802],[31.071361,30.217],[31.072691,30.21544],[31.074623,30.214349],[31.076908,30.213413],[31.08344,30.21129],[31.08474,30.21011],[31.086701,30.20746],[31.088738,30.204452],[31.090115,30.201673],[31.091578,30.199816],[31.093892,30.19798],[31.098507,30.195499],[31.100641,30.19461],[31.103018,30.194245],[31.109145,30.189136],[31.121093,30.181492],[31.125817,30.177993],[31.127716,30.17551],[31.128865,30.175128],[31.133846,30.17285],[31.135141,30.172551],[31.137242,30.171778],[31.140368,30.169762],[31.141397,30.168914],[31.142999,30.167076],[31.143821,30.165884],[31.144912,30.163325],[31.147731,30.160483],[31.15259,30.156279],[31.155842,30.151934],[31.156351,30.152364],[31.161725,30.147211],[31.16484,30.144489],[31.168055,30.14269],[31.178526,30.137202],[31.187296,30.134456],[31.194913,30.132667],[31.203068,30.12995],[31.203343,30.130778],[31.204636,30.130499],[31.205471,30.13056],[31.208685,30.130337],[31.210038,30.130408],[31.211055,30.130286],[31.214177,30.130246],[31.215886,30.130017],[31.216154,30.129855],[31.216398,30.13001],[31.218065,30.129856],[31.216502,30.130146],[31.216485,30.130364],[31.21667,30.130655],[31.216459,30.130632],[31.21621,30.130215],[31.215888,30.130126],[31.214851,30.130227],[31.214921,30.130774],[31.214638,30.13028],[31.212873,30.130361],[31.212296,30.130526],[31.211395,30.130434],[31.211523,30.131089],[31.211292,30.13049],[31.210847,30.130449],[31.209086,30.130561],[31.208948,30.13066],[31.208702,30.130565],[31.205155,30.130796],[31.203377,30.131171],[31.203429,30.131371],[31.207538,30.1314],[31.210183,30.131235],[31.216526,30.130656],[31.217134,30.130683],[31.217691,30.13059],[31.218068,30.130632],[31.218751,30.130495],[31.218907,30.130589],[31.221441,30.130185],[31.224062,30.129601],[31.227081,30.12828],[31.227443,30.127935],[31.228932,30.127176],[31.231235,30.125563],[31.232824,30.12411],[31.232874,30.123885],[31.233441,30.123459],[31.234376,30.122334],[31.234233,30.122039],[31.234615,30.122148],[31.235233,30.121208],[31.235471,30.121099],[31.236525,30.11962],[31.236464,30.119528],[31.236121,30.119629],[31.236011,30.119563],[31.236098,30.119351],[31.236331,30.119234],[31.236187,30.118749],[31.236499,30.118613],[31.236625,30.118329],[31.236771,30.118392],[31.236468,30.118964],[31.236459,30.119328],[31.236652,30.119383],[31.236825,30.11926],[31.237243,30.118627],[31.237294,30.118097],[31.2375,30.117967],[31.237522,30.117807],[31.237344,30.11766],[31.236621,30.117493],[31.236197,30.117182],[31.236294,30.116902],[31.23655,30.116781],[31.236683,30.11583],[31.237026,30.115509],[31.237239,30.11495],[31.237369,30.113645],[31.237583,30.113556],[31.238172,30.113688],[31.238329,30.113441],[31.238189,30.111952],[31.238002,30.111813],[31.237866,30.112185],[31.237549,30.111823],[31.237596,30.111542],[31.237456,30.111324],[31.237691,30.110334],[31.237413,30.110117],[31.237953,30.109928],[31.237825,30.108009],[31.237499,30.107888],[31.237328,30.108127],[31.237154,30.107395],[31.236823,30.106923],[31.237062,30.106741],[31.236606,30.106369],[31.236469,30.106014],[31.236521,30.105436],[31.236059,30.104622],[31.236063,30.104388],[31.235754,30.104135],[31.235232,30.103079],[31.234651,30.102477],[31.234647,30.102179],[31.234142,30.102205],[31.234529,30.102049],[31.234512,30.101936],[31.23387,30.101136],[31.23341,30.100768],[31.232605,30.099499],[31.232691,30.099368],[31.233225,30.09923],[31.233664,30.098967],[31.233742,30.098486],[31.232942,30.09745],[31.232844,30.097533],[31.231128,30.094809],[31.230643,30.092221],[31.228049,30.081363],[31.224602,30.073962],[31.223224,30.074489],[31.222672,30.073454],[31.222567,30.073491],[31.221377,30.072765],[31.22039,30.071807],[31.220269,30.071901],[31.219922,30.071643],[31.220014,30.071557],[31.218771,30.070567],[31.216563,30.068428],[31.215883,30.067573],[31.215991,30.067508],[31.215792,30.067023],[31.215579,30.0671],[31.215446,30.066794],[31.215666,30.066737],[31.215517,30.066473],[31.215339,30.066529],[31.215244,30.066129],[31.215423,30.06611],[31.215253,30.06548],[31.215341,30.064396],[31.215664,30.063117],[31.21563,30.062605],[31.216196,30.061187],[31.217835,30.054512],[31.218993,30.048643],[31.219279,30.048124],[31.219772,30.046337],[31.219641,30.046299],[31.220403,30.04416],[31.221078,30.041511],[31.221503,30.040494],[31.221412,30.040277],[31.221587,30.040066],[31.221562,30.039622],[31.221928,30.038927],[31.222247,30.038623],[31.22265,30.038527],[31.222611,30.038451],[31.223057,30.038289],[31.22309,30.038362],[31.223607,30.038245],[31.224476,30.038245],[31.222924,30.034939],[31.221094,30.030102],[31.220495,30.026059],[31.220186,30.020569],[31.220391,30.011369],[31.220474,30.009746],[31.220702,30.009053],[31.22055,30.008789],[31.220582,30.004667],[31.220305,30.003825],[31.220281,30.00291],[31.219894,30.001695],[31.220505,30.001795],[31.220545,30.002182],[31.220393,30.00254],[31.220576,30.003722],[31.220872,30.003985],[31.220956,30.0052],[31.220722,30.008652],[31.220838,30.008742],[31.220965,30.008555],[31.22139,30.006228],[31.221474,30.004464],[31.224291,30.003127],[31.224339,30.002843],[31.224525,30.003041],[31.225446,30.000059],[31.225318,29.999877],[31.225524,29.999796],[31.22584,29.998274],[31.226036,29.995489],[31.226162,29.995195],[31.225968,29.994723],[31.225795,29.993307],[31.224596,29.990219],[31.224503,29.988803],[31.225101,29.986642],[31.225378,29.986137],[31.225527,29.985486],[31.225835,29.985035],[31.226064,29.984068],[31.226306,29.984141],[31.226776,29.98344],[31.226956,29.983604],[31.227493,29.982837],[31.227445,29.982576],[31.227622,29.982397],[31.227546,29.982198],[31.227742,29.981672],[31.227556,29.981429],[31.228115,29.981141],[31.228126,29.980807],[31.228337,29.980585],[31.228247,29.980424],[31.2285,29.980476],[31.228701,29.979868],[31.228877,29.97996],[31.229094,29.979662],[31.228942,29.979503],[31.228382,29.979605],[31.22847,29.979401],[31.228573,29.979323],[31.22931,29.979364],[31.230286,29.978009],[31.230418,29.977513],[31.230283,29.977392],[31.229568,29.97788],[31.229471,29.978099],[31.229338,29.978076],[31.230018,29.977033],[31.230128,29.976566],[31.230139,29.976808],[31.230611,29.977139],[31.230813,29.977137],[31.231082,29.976772],[31.231316,29.976224],[31.231174,29.975513],[31.23093,29.975618],[31.230683,29.975986],[31.230587,29.975955],[31.231049,29.97516],[31.231183,29.975378],[31.231387,29.975228],[31.23133,29.974981],[31.23149,29.974579],[31.231966,29.974468],[31.232057,29.974351],[31.232099,29.973951],[31.231974,29.973568],[31.232392,29.973003],[31.232106,29.972881],[31.232462,29.972084],[31.232763,29.972023],[31.233196,29.9704],[31.233356,29.970185],[31.23356,29.968757],[31.234235,29.966909],[31.237343,29.964106],[31.245716,29.959122],[31.251193,29.953919],[31.254503,29.951212],[31.264255,29.947238],[31.268448,29.944317],[31.271499,29.941561],[31.273194,29.939329],[31.277841,29.931047],[31.278484,29.925448],[31.279854,29.920386],[31.279676,29.919555],[31.279516,29.917318],[31.279598,29.913926],[31.279444,29.911176],[31.279071,29.907969],[31.279339,29.90631],[31.280323,29.904097],[31.280607,29.903837],[31.281696,29.899218],[31.281846,29.894694],[31.281653,29.884784],[31.282275,29.882387],[31.284763,29.877133],[31.286073,29.872687],[31.288296,29.86379],[31.290493,29.858469],[31.291486,29.855569],[31.293117,29.844605],[31.293447,29.843608],[31.293535,29.842344],[31.293274,29.840096],[31.290984,29.832653],[31.29075,29.831573],[31.293453,29.827131],[31.293885,29.825111],[31.294288,29.821238],[31.294579,29.820484],[31.29457,29.819467],[31.295603,29.816756],[31.29426,29.815438],[31.294244,29.8056],[31.293434,29.795858],[31.290874,29.788646],[31.290262,29.785711],[31.289298,29.784103],[31.289047,29.78321],[31.289077,29.781434],[31.289467,29.778816],[31.289688,29.777859],[31.290131,29.777051],[31.288643,29.770651],[31.292224,29.77024],[31.295075,29.770653],[31.297224,29.771195],[31.297431,29.771351],[31.298338,29.769754],[31.298691,29.768728],[31.299073,29.765961],[31.299137,29.763396],[31.300413,29.757433],[31.300731,29.757463],[31.300697,29.75765],[31.303424,29.757553],[31.305566,29.75631],[31.30645,29.756204],[31.307066,29.753616],[31.312209,29.754119],[31.312215,29.759337],[31.317537,29.760597],[31.317827,29.759825],[31.320557,29.760624],[31.321192,29.76091],[31.321498,29.761116],[31.321727,29.761569],[31.321944,29.761719],[31.324337,29.762398],[31.331334,29.76405],[31.333409,29.767416],[31.335309,29.766827],[31.352919,29.765454],[31.353697,29.765247],[31.358542,29.76334],[31.36076,29.762914],[31.361643,29.775193],[31.896403,29.781288],[31.891658,29.733624],[31.882038,29.604007],[31.868682,29.38406],[31.832933,28.993527],[31.841882,28.97414],[31.824774,28.981957],[31.807286,28.989639],[31.797359,28.993172],[31.78324,28.997738],[31.753235,28.999876],[31.63633,29.022466],[31.634465,29.023202],[31.610279,29.037057],[31.609216,29.037819],[31.604254,29.042145],[31.601966,29.043381],[31.598157,29.043901],[31.593138,29.044065],[31.588033,29.04597],[31.587203,29.046129],[31.585624,29.046113],[31.584672,29.046241],[31.584069,29.046462],[31.582116,29.047762],[31.578107,29.049695],[31.573939,29.05194],[31.572756,29.052295],[31.542031,29.055433],[31.50116,29.06052],[31.50031,29.060796],[31.496092,29.062842],[31.4938,29.064119],[31.483419,29.069146],[31.469614,29.076323],[31.464201,29.080022],[31.461592,29.082405],[31.460121,29.083396],[31.451946,29.087149],[31.448273,29.088518],[31.445348,29.089887],[31.435849,29.094837],[31.43323,29.096455],[31.407429,29.112659],[31.399517,29.11829],[31.391084,29.124855],[31.390615,29.12564],[31.39052,29.126372],[31.391592,29.129254],[31.391757,29.13055],[31.391028,29.134179],[31.390307,29.135476],[31.382044,29.14277],[31.379253,29.145983],[31.373026,29.152382],[31.372256,29.153029],[31.367562,29.155571],[31.366129,29.156063],[31.362558,29.156915],[31.362068,29.15712],[31.361441,29.157585],[31.360947,29.158253],[31.358584,29.163752],[31.356256,29.167056],[31.355392,29.167674],[31.351416,29.169117],[31.350649,29.169654],[31.350059,29.170371],[31.348894,29.172905],[31.348622,29.17368],[31.348603,29.174209],[31.348782,29.174819],[31.350068,29.17696],[31.351765,29.184542],[31.35174,29.185268],[31.351557,29.185876],[31.351207,29.186454],[31.347369,29.192199],[31.346119,29.193324],[31.340161,29.196493],[31.33909,29.197425],[31.337343,29.201576],[31.334179,29.205541],[31.333401,29.207193],[31.33032,29.210224],[31.328913,29.213277],[31.328284,29.214294],[31.327695,29.214746],[31.327095,29.215026],[31.321964,29.216083],[31.320943,29.216578],[31.320317,29.217066],[31.316668,29.22039],[31.307696,29.230365],[31.300311,29.238337],[31.299672,29.239314],[31.299332,29.24039],[31.298695,29.246088],[31.298376,29.247106],[31.297897,29.247649],[31.297257,29.248123],[31.289458,29.252374],[31.288134,29.253421],[31.287223,29.255033],[31.282909,29.264635],[31.281744,29.265981],[31.276044,29.27186],[31.273083,29.275237],[31.272828,29.275825],[31.272479,29.278675],[31.268503,29.284675],[31.265767,29.287833],[31.265253,29.288228],[31.264513,29.288572],[31.25134,29.292908],[31.245269,29.294384],[31.245329,29.291732],[31.24195,29.269684],[31.243824,29.261184],[31.243426,29.25732],[31.241988,29.252092],[31.236514,29.23971],[31.231732,29.227407],[31.22767,29.228157],[31.223866,29.222701],[31.212899,29.202437],[31.211497,29.202905],[31.210659,29.203326],[31.208625,29.203754],[31.208037,29.204451],[31.206894,29.205014],[31.206211,29.205159],[31.205492,29.205011],[31.201701,29.206205],[31.202246,29.206596],[31.203088,29.207552],[31.207357,29.214335],[31.209567,29.218296],[31.2114,29.22212],[31.21286,29.225538],[31.213448,29.228201],[31.212878,29.229227],[31.212483,29.230394],[31.213338,29.233151],[31.213583,29.233047],[31.213025,29.235134],[31.212858,29.235231],[31.21284,29.235536],[31.212021,29.236964],[31.211239,29.239067],[31.210475,29.240311],[31.209896,29.241649],[31.209676,29.243218],[31.209647,29.244845],[31.210228,29.246773],[31.211343,29.248931],[31.213345,29.250462],[31.213462,29.250436],[31.212694,29.249407],[31.212521,29.248862],[31.21262,29.248888],[31.213484,29.250218],[31.214685,29.251668],[31.214692,29.252028],[31.21481,29.252062],[31.215148,29.252951],[31.215187,29.253866],[31.215419,29.254588],[31.21605,29.255461],[31.216195,29.25537],[31.216611,29.255828],[31.217302,29.256737],[31.217463,29.257133],[31.217621,29.25671],[31.21753,29.256394],[31.217744,29.256389],[31.217837,29.256652],[31.217672,29.256895],[31.217637,29.257493],[31.217844,29.257837],[31.217818,29.258576],[31.217687,29.259085],[31.217477,29.259257],[31.217465,29.259484],[31.21719,29.259844],[31.21729,29.260065],[31.217117,29.26093],[31.217469,29.2636],[31.217938,29.264657],[31.218259,29.266822],[31.218048,29.270334],[31.217425,29.273609],[31.217366,29.275592],[31.216363,29.279766],[31.214461,29.282992],[31.21458,29.283435],[31.214257,29.285681],[31.213545,29.288238],[31.2128,29.289552],[31.211973,29.292352],[31.212101,29.294229],[31.212056,29.296484],[31.212544,29.298747],[31.213139,29.302809],[31.214379,29.305834],[31.215063,29.308097],[31.216043,29.31337],[31.21602,29.314708],[31.215724,29.316348],[31.214479,29.320111],[31.212614,29.328728],[31.212274,29.335908],[31.211984,29.339154],[31.212336,29.34152],[31.212837,29.342122],[31.213104,29.343269],[31.213099,29.345035],[31.213492,29.34752],[31.214872,29.350168],[31.219257,29.356522],[31.222299,29.360495],[31.223845,29.363693],[31.224413,29.365469],[31.22805,29.371237],[31.231808,29.377854],[31.232944,29.382146],[31.233001,29.383235],[31.232789,29.386625],[31.232112,29.389875],[31.230981,29.392542],[31.229714,29.396327],[31.226526,29.403882],[31.223451,29.403199],[31.22323,29.403416],[31.221565,29.403066],[31.221336,29.402008],[31.22055,29.401742],[31.216198,29.400934],[31.20552,29.399206],[31.201391,29.399489],[31.199909,29.399238],[31.199137,29.399271],[31.196726,29.398578],[31.194835,29.398204],[31.194767,29.398663],[31.193915,29.398536],[31.19367,29.400111],[31.18971,29.400607],[31.188267,29.400908],[31.188568,29.399465],[31.18801,29.39945],[31.187664,29.399654],[31.183631,29.402753],[31.183946,29.40338],[31.184622,29.405523],[31.185738,29.407968],[31.180063,29.413883],[31.179836,29.413994],[31.17756,29.413881],[31.176844,29.414121],[31.179059,29.418098],[31.17757,29.419127],[31.177638,29.419303],[31.175995,29.419931],[31.179435,29.424543],[31.177591,29.425377],[31.177822,29.42621],[31.174274,29.427922],[31.174471,29.42807],[31.167086,29.431323],[31.166343,29.429474],[31.166206,29.429644],[31.16574,29.429778],[31.165589,29.429721],[31.165298,29.430053],[31.164964,29.429822],[31.165619,29.428598],[31.164867,29.428252],[31.163879,29.4282],[31.163903,29.427857],[31.165807,29.428055],[31.165629,29.427521],[31.165016,29.426928],[31.164472,29.425968],[31.163763,29.4262],[31.163625,29.426472],[31.163345,29.426647],[31.162952,29.42672],[31.162671,29.426466],[31.162168,29.426701],[31.161399,29.427315],[31.16111,29.427053],[31.161997,29.425802],[31.161728,29.4254],[31.160971,29.42585],[31.159677,29.42694],[31.159166,29.427058],[31.158863,29.426585],[31.159502,29.426259],[31.160823,29.42467],[31.160093,29.424105],[31.159535,29.42441],[31.159076,29.424415],[31.158961,29.42434],[31.158885,29.423866],[31.15855,29.423948],[31.156827,29.422839],[31.156827,29.422625],[31.156454,29.422264],[31.156121,29.422221],[31.155595,29.421749],[31.155719,29.421049],[31.155456,29.420795],[31.155502,29.420453],[31.155253,29.420196],[31.154875,29.420167],[31.154985,29.419788],[31.154048,29.419397],[31.153212,29.419624],[31.152161,29.420253],[31.151898,29.419745],[31.153353,29.418939],[31.151149,29.415786],[31.149326,29.416705],[31.14783,29.418123],[31.14304,29.420966],[31.139828,29.422093],[31.13961,29.421279],[31.135679,29.42227],[31.132918,29.423116],[31.132829,29.423314],[31.132231,29.42333],[31.131571,29.423856],[31.130623,29.42128],[31.127239,29.420856],[31.126455,29.420932],[31.126253,29.421079],[31.125857,29.422279],[31.100217,29.456964],[31.058972,29.604818],[31.034882,29.72192],[30.759662,29.730103],[30.240763,29.41559],[30.010524,29.228],[29.856516,29.091321],[29.794536,28.885937],[29.738691,28.603943],[29.659333,28.456564],[29.592895,28.321292],[29.397296,28.18775],[29.255885,28.10258],[29.103068,28.029816],[28.964301,27.980054],[28.865643,27.944752],[28.788361,27.919191],[28.466408,27.674431],[27.359294,27.675592],[27.829245,28.578554],[28.759841,28.751332],[29.611444,29.508938],[30.336177,29.877079],[30.34061,29.877662],[30.699491,30.22777],[30.699875,30.22757],[30.707306,30.234437],[30.688788,30.243554],[30.690299,30.246018],[30.690843,30.246599],[30.731447,30.260396],[30.753286,30.268026],[30.747793,30.280848],[30.749758,30.281444],[30.748561,30.284111],[30.758578,30.287824],[30.762862,30.290023],[30.760759,30.294113],[30.758278,30.296861],[30.764859,30.299678],[30.770678,30.301084],[30.775448,30.301665],[30.786723,30.303551],[30.795082,30.309949],[30.794593,30.31134],[30.804799,30.31861],[30.802109,30.323088],[30.804835,30.324434],[30.811161,30.326796],[30.808822,30.331329],[30.810703,30.332217],[30.814787,30.333215],[30.819185,30.334076],[30.819403,30.334712],[30.819596,30.334914],[30.821721,30.336411],[30.822297,30.335569],[30.826332,30.331669],[30.829798,30.329066],[30.833987,30.327164],[30.836795,30.326053],[30.844849,30.324017],[30.845672,30.324031],[30.847343,30.32428],[30.850691,30.32574],[30.861417,30.331435],[30.872407,30.339425],[30.874125,30.340094],[30.875828,30.340171],[30.883113,30.339599],[30.892234,30.339475],[30.901232,30.338487],[30.908899,30.335948],[30.913661,30.335113],[30.916526,30.333951],[30.91751,30.33308],[30.918794,30.331474],[30.919796,30.329765],[30.920409,30.327631],[30.920654,30.325442]]]}}]}