{"type":"FeatureCollection","features":[{"type":"Feature","properties":{"source_layer":"Landmarks","source_feature_count":1,"LDMK_TYPE":1,"SUB_CLASS":6104,"Name":"المدرسة المصرية اليابانية بالمنطقة الصناعية اكتوبر","اسم_المحور":"محور دهشور","اسم_المحافظة":"محافظة الجيزة","GlobalID":"{AB46165E-A90E-4C3E-8728-57F6B63BAB57}"},"geometry":{"type":"Point","coordinates":[30.882764,29.981714]}},{"type":"Feature","properties":{"source_layer":"Landmarks","source_feature_count":1,"LDMK_TYPE":1,"SUB_CLASS":6100,"Name":"CMC","اسم_المحور":"محور دهشور","اسم_المحافظة":"محافظة الجيزة","GlobalID":"{EAE6B798-85A7-431E-BF09-EA1D1D9E8C9F}"},"geometry":{"type":"Point","coordinates":[30.893548,29.984679]}},{"type":"Feature","properties":{"source_layer":"Landmarks","source_feature_count":1,"LDMK_TYPE":8,"SUB_CLASS":6814,"Name":"Nyoum October club house","اسم_المحور":"محور دهشور","اسم_المحافظة":"محافظة الجيزة","GlobalID":"{8DECF61E-3F10-4FB5-A316-2FE80E5F2638}"},"geometry":{"type":"Point","coordinates":[30.879748,29.981956]}},{"type":"Feature","properties":{"source_layer":"Landmarks","source_feature_count":1,"LDMK_TYPE":8,"SUB_CLASS":6814,"Name":"Talah Compound - Club House","اسم_المحور":"محور دهشور","اسم_المحافظة":"محافظة الجيزة","GlobalID":"{11022C68-54AF-4780-9E2F-FD99E7BDC521}"},"geometry":{"type":"Point","coordinates":[30.919028,29.982662]}},{"type":"Feature","properties":{"source_layer":"Landmarks","source_feature_count":1,"LDMK_TYPE":1,"SUB_CLASS":6105,"Name":"Dhat Alnitaqayn Official Language School","اسم_المحور":"محور دهشور","اسم_المحافظة":"محافظة الجيزة","GlobalID":"{05AA323E-C400-4556-815F-4A5C08F569D1}"},"geometry":{"type":"Point","coordinates":[30.918363,29.985506]}},{"type":"Feature","properties":{"source_layer":"Landmarks","source_feature_count":1,"LDMK_TYPE":11,"SUB_CLASS":7115,"Name":"اكتوبر فيستيفال سيتى","اسم_المحور":"محور دهشور","اسم_المحافظة":"محافظة الجيزة","GlobalID":"{5FFDC62F-6F3F-4AB1-B316-1BA749263310}"},"geometry":{"type":"Point","coordinates":[30.925804,29.983481]}},{"type":"Feature","properties":{"source_layer":"Landmarks","source_feature_count":1,"LDMK_TYPE":11,"SUB_CLASS":7110,"Name":"Chillout Gas Station","اسم_المحور":"محور دهشور","اسم_المحافظة":"محافظة الجيزة","GlobalID":"{54299B56-9E54-427F-920A-CA960072C998}"},"geometry":{"type":"Point","coordinates":[30.928353,29.965297]}},{"type":"Feature","properties":{"source_layer":"Landmarks","source_feature_count":1,"LDMK_TYPE":2,"SUB_CLASS":6200,"Name":"Al Tahawy Mosque","اسم_المحور":"محور دهشور","اسم_المحافظة":"محافظة الجيزة","GlobalID":"{CD7323B8-0B71-4C85-BE84-9AFF4758620F}"},"geometry":{"type":"Point","coordinates":[30.927221,29.964829]}},{"type":"Feature","properties":{"source_layer":"Landmarks","source_feature_count":1,"LDMK_TYPE":8,"SUB_CLASS":6815,"Name":"ملعب الكابيتانو منطقة 645 شرق ابني بيتك 6","اسم_المحور":"محور دهشور","اسم_المحافظة":"محافظة الجيزة","GlobalID":"{751FDF14-2E2D-480B-8117-66413E766C16}"},"geometry":{"type":"Point","coordinates":[30.964705,29.911445]}},{"type":"Feature","properties":{"source_layer":"Landmarks","source_feature_count":1,"LDMK_TYPE":1,"SUB_CLASS":6104,"Name":"مدرسة الاسراء للتعليم الأساسي","اسم_المحور":"محور دهشور","اسم_المحافظة":"محافظة الجيزة","GlobalID":"{92A9F587-B2BF-4944-BC95-05A57199B5F0}"},"geometry":{"type":"Point","coordinates":[30.965722,29.910893]}},{"type":"Feature","properties":{"source_layer":"Landmarks","source_feature_count":1,"LDMK_TYPE":11,"SUB_CLASS":7110,"Name":"محطة وقود وطنية وصلة دهشور","اسم_المحور":"محور دهشور","اسم_المحافظة":"محافظة الجيزة","GlobalID":"{820C29BF-9467-44BF-AA43-F57942D5FFB1}"},"geometry":{"type":"Point","coordinates":[30.964161,29.906778]}},{"type":"Feature","properties":{"source_layer":"Landmarks","source_feature_count":1,"LDMK_TYPE":2,"SUB_CLASS":6200,"Name":"Abdelhameed Qamar Mosque - Zuhoor District","اسم_المحور":"محور دهشور","اسم_المحافظة":"محافظة الجيزة","GlobalID":"{78998620-4325-427B-B455-113DA8F97415}"},"geometry":{"type":"Point","coordinates":[30.907006,29.87905]}},{"type":"Feature","properties":{"source_layer":"Landmarks","source_feature_count":1,"LDMK_TYPE":8,"SUB_CLASS":6816,"Name":"مركز شباب ٨٠٠ فدان","اسم_المحور":"محور دهشور","اسم_المحافظة":"محافظة الجيزة","GlobalID":"{E4AE9AF0-C1E9-46D3-B544-DB690179A8E5}"},"geometry":{"type":"Point","coordinates":[30.909425,29.881012]}},{"type":"Feature","properties":{"source_layer":"Landmarks","source_feature_count":1,"LDMK_TYPE":1,"SUB_CLASS":6104,"Name":"مدرسة طلعت حرب للتعليم الأساسي - حي الزهور","اسم_المحور":"محور دهشور","اسم_المحافظة":"محافظة الجيزة","GlobalID":"{208C7857-8DC7-44AA-9352-ADED871A2101}"},"geometry":{"type":"Point","coordinates":[30.907264,29.881834]}},{"type":"Feature","properties":{"source_layer":"Landmarks","source_feature_count":1,"LDMK_TYPE":11,"SUB_CLASS":7115,"Name":"Alforsan Row Matirial","اسم_المحور":"محور دهشور","اسم_المحافظة":"محافظة الجيزة","GlobalID":"{A3BBBB24-10B5-4536-B8D5-0D4F72C02197}"},"geometry":{"type":"Point","coordinates":[30.905561,29.884384]}},{"type":"Feature","properties":{"source_layer":"Landmarks","source_feature_count":1,"LDMK_TYPE":1,"SUB_CLASS":6104,"Name":"Central preschool - Zuhoor District","اسم_المحور":"محور دهشور","اسم_المحافظة":"محافظة الجيزة","GlobalID":"{F9E5501A-8458-4F9D-86F7-5CFECBAD4CA8}"},"geometry":{"type":"Point","coordinates":[30.905096,29.884553]}},{"type":"Feature","properties":{"source_layer":"Landmarks","source_feature_count":1,"LDMK_TYPE":4,"SUB_CLASS":6407,"Name":"وحده صحيه","اسم_المحور":"محور دهشور","اسم_المحافظة":"محافظة الجيزة","GlobalID":"{172588C6-4E99-44FB-8441-C65D7131CDBA}"},"geometry":{"type":"Point","coordinates":[30.904814,29.884805]}},{"type":"Feature","properties":{"source_layer":"Landmarks","source_feature_count":1,"LDMK_TYPE":4,"SUB_CLASS":6400,"Name":"Hospital","اسم_المحور":"محور دهشور","اسم_المحافظة":"محافظة الجيزة","GlobalID":"{D3525B06-DFAD-4F5B-B899-FE7550DCA18F}"},"geometry":{"type":"Point","coordinates":[30.919731,29.890575]}},{"type":"Feature","properties":{"source_layer":"Landmarks","source_feature_count":1,"LDMK_TYPE":5,"SUB_CLASS":6503,"Name":"Talia Mall","اسم_المحور":"محور دهشور","اسم_المحافظة":"محافظة الجيزة","GlobalID":"{9BCD5117-0756-458C-A21E-78EED0F5B7BF}"},"geometry":{"type":"Point","coordinates":[30.912316,29.886166]}},{"type":"Feature","properties":{"source_layer":"Landmarks","source_feature_count":1,"LDMK_TYPE":5,"SUB_CLASS":6503,"Name":"Mall Of Ezz","اسم_المحور":"محور دهشور","اسم_المحافظة":"محافظة الجيزة","GlobalID":"{BD7F71FA-F048-4400-9EE2-1FD5F79CCC27}"},"geometry":{"type":"Point","coordinates":[30.907582,29.89326]}},{"type":"Feature","properties":{"source_layer":"Landmarks","source_feature_count":1,"LDMK_TYPE":1,"SUB_CLASS":6104,"Name":"مدرسة شمس المعارف للتعليم الاساسى","اسم_المحور":"محور دهشور","اسم_المحافظة":"محافظة الجيزة","GlobalID":"{207E6980-91BB-48C2-9DEA-7C4E61E3377C}"},"geometry":{"type":"Point","coordinates":[30.90813,29.895]}},{"type":"Feature","properties":{"source_layer":"Landmarks","source_feature_count":1,"LDMK_TYPE":2,"SUB_CLASS":6200,"Name":"مسجد ال محسب","اسم_المحور":"محور دهشور","اسم_المحافظة":"محافظة الجيزة","GlobalID":"{EF08E8DF-D429-436E-A2EF-56357C2B58DC}"},"geometry":{"type":"Point","coordinates":[30.907463,29.895813]}},{"type":"Feature","properties":{"source_layer":"Landmarks","source_feature_count":1,"LDMK_TYPE":11,"SUB_CLASS":7115,"Name":"Al Safwa District Center - Zahraa New October City","اسم_المحور":"محور دهشور","اسم_المحافظة":"محافظة الجيزة","GlobalID":"{DBBC5895-CC05-4B6D-BD5E-6FFDCE37C026}"},"geometry":{"type":"Point","coordinates":[30.900487,29.893143]}},{"type":"Feature","properties":{"source_layer":"Landmarks","source_feature_count":1,"LDMK_TYPE":1,"SUB_CLASS":6104,"Name":"مدرسة خاتم المرسلين للتعليم الاساسي","اسم_المحور":"محور دهشور","اسم_المحافظة":"محافظة الجيزة","GlobalID":"{4A4193D8-903A-45F0-B403-0AA644A27D9F}"},"geometry":{"type":"Point","coordinates":[30.900867,29.892364]}},{"type":"Feature","properties":{"source_layer":"Landmarks","source_feature_count":1,"LDMK_TYPE":8,"SUB_CLASS":6815,"Name":"Al Safwa District stadium","اسم_المحور":"محور دهشور","اسم_المحافظة":"محافظة الجيزة","GlobalID":"{AE70F2CB-3886-41F9-B8D8-98D56C4AB9DC}"},"geometry":{"type":"Point","coordinates":[30.90123,29.891611]}},{"type":"Feature","properties":{"source_layer":"Landmarks","source_feature_count":1,"LDMK_TYPE":2,"SUB_CLASS":6201,"Name":"كنيسة السيدة العذراء مريم و القوى الانبا موسى","اسم_المحور":"محور دهشور","اسم_المحافظة":"محافظة الجيزة","GlobalID":"{FC80A866-9304-4495-BE7F-0A4E94DC6A30}"},"geometry":{"type":"Point","coordinates":[30.901646,29.891247]}},{"type":"Feature","properties":{"source_layer":"Landmarks","source_feature_count":1,"LDMK_TYPE":5,"SUB_CLASS":6503,"Name":"مول القدس حى الصفوه","اسم_المحور":"محور دهشور","اسم_المحافظة":"محافظة الجيزة","GlobalID":"{E78FEA96-28DA-4ED8-B94C-DD516D062DB2}"},"geometry":{"type":"Point","coordinates":[30.901235,29.891085]}},{"type":"Feature","properties":{"source_layer":"Landmarks","source_feature_count":1,"LDMK_TYPE":11,"SUB_CLASS":7115,"Name":"Al-Hamad Mosque - Al-Safwa District","اسم_المحور":"محور دهشور","اسم_المحافظة":"محافظة الجيزة","GlobalID":"{B2C785AC-41FF-40F0-B1C4-CA4D4DFDC75E}"},"geometry":{"type":"Point","coordinates":[30.901508,29.890446]}},{"type":"Feature","properties":{"source_layer":"Landmarks","source_feature_count":1,"LDMK_TYPE":1,"SUB_CLASS":6105,"Name":"International Public School October-2","اسم_المحور":"محور دهشور","اسم_المحافظة":"محافظة الجيزة","GlobalID":"{8C8A4065-C892-4063-A48F-A72E25301687}"},"geometry":{"type":"Point","coordinates":[30.902199,29.890371]}},{"type":"Feature","properties":{"source_layer":"Landmarks","source_feature_count":1,"LDMK_TYPE":1,"SUB_CLASS":6104,"Name":"مدرسة محمد عبده الثانوية","اسم_المحور":"محور دهشور","اسم_المحافظة":"محافظة الجيزة","GlobalID":"{25A54682-1E3F-43A6-89A2-FC20BB9107C8}"},"geometry":{"type":"Point","coordinates":[30.894525,29.88761]}},{"type":"Feature","properties":{"source_layer":"Landmarks","source_feature_count":1,"LDMK_TYPE":1,"SUB_CLASS":6104,"Name":"مدرسة آدم الغيطانى","اسم_المحور":"محور دهشور","اسم_المحافظة":"محافظة الجيزة","GlobalID":"{CD05ED16-6849-4BA5-9DA7-018F672AE9F2}"},"geometry":{"type":"Point","coordinates":[30.89353,29.888886]}},{"type":"Feature","properties":{"source_layer":"Landmarks","source_feature_count":1,"LDMK_TYPE":4,"SUB_CLASS":6406,"Name":"الوحدة الصحية بقطاع ب","اسم_المحور":"محور دهشور","اسم_المحافظة":"محافظة الجيزة","GlobalID":"{B2E9F546-EF45-49E5-8170-4B7DD67D8E6D}"},"geometry":{"type":"Point","coordinates":[30.892596,29.889676]}},{"type":"Feature","properties":{"source_layer":"Landmarks","source_feature_count":1,"LDMK_TYPE":2,"SUB_CLASS":6200,"Name":"مسجد حصه صالح (الفيروز)","اسم_المحور":"محور دهشور","اسم_المحافظة":"محافظة الجيزة","GlobalID":"{DA9F7537-66B2-4B77-9477-ECB0ADDAD0BF}"},"geometry":{"type":"Point","coordinates":[30.891651,29.888328]}},{"type":"Feature","properties":{"source_layer":"Landmarks","source_feature_count":1,"LDMK_TYPE":1,"SUB_CLASS":6104,"Name":"مدرسة نور الايمان للتعليم الاساسي","اسم_المحور":"محور دهشور","اسم_المحافظة":"محافظة الجيزة","GlobalID":"{BD20159F-DE7D-4AF5-B37C-7BF57EDAF235}"},"geometry":{"type":"Point","coordinates":[30.88731,29.884103]}},{"type":"Feature","properties":{"source_layer":"Landmarks","source_feature_count":1,"LDMK_TYPE":1,"SUB_CLASS":6104,"Name":"مدرسه نور الحياه","اسم_المحور":"محور دهشور","اسم_المحافظة":"محافظة الجيزة","GlobalID":"{4059157D-D2D4-478E-8D52-EA119B74BB0C}"},"geometry":{"type":"Point","coordinates":[30.886457,29.885037]}},{"type":"Feature","properties":{"source_layer":"Landmarks","source_feature_count":1,"LDMK_TYPE":2,"SUB_CLASS":6200,"Name":"مسجد حي اللوتس زهراء اكتوبر الجديده","اسم_المحور":"محور دهشور","اسم_المحافظة":"محافظة الجيزة","GlobalID":"{32C01ACE-1253-459C-9EAF-8C6B2F1F3508}"},"geometry":{"type":"Point","coordinates":[30.888182,29.883049]}},{"type":"Feature","properties":{"source_layer":"Landmarks","source_feature_count":1,"LDMK_TYPE":2,"SUB_CLASS":6200,"Name":"مسجد عباد الرحمن","اسم_المحور":"محور دهشور","اسم_المحافظة":"محافظة الجيزة","GlobalID":"{EAB55A25-F9A0-4A16-A4B4-977D872A43DC}"},"geometry":{"type":"Point","coordinates":[30.897381,29.885056]}},{"type":"Feature","properties":{"source_layer":"Landmarks","source_feature_count":1,"LDMK_TYPE":11,"SUB_CLASS":7110,"Name":"Watanya Gas Station","اسم_المحور":"محور دهشور","اسم_المحافظة":"محافظة الجيزة","GlobalID":"{B6DBEDE3-3CF0-4AF2-A62A-55E5B4271705}"},"geometry":{"type":"Point","coordinates":[30.902409,29.895787]}},{"type":"Feature","properties":{"source_layer":"Landmarks","source_feature_count":1,"LDMK_TYPE":8,"SUB_CLASS":6815,"Name":"ملعب قطاع ج","اسم_المحور":"محور دهشور","اسم_المحافظة":"محافظة الجيزة","GlobalID":"{543538C1-A909-4461-88E4-C58B6FA892E6}"},"geometry":{"type":"Point","coordinates":[30.88636,29.885734]}},{"type":"Feature","properties":{"source_layer":"Landmarks","source_feature_count":1,"LDMK_TYPE":1,"SUB_CLASS":6114,"Name":"حضانة قطاع ج","اسم_المحور":"محور دهشور","اسم_المحافظة":"محافظة الجيزة","GlobalID":"{C3AD488D-28AD-47D8-9D00-49B3A45F63C6}"},"geometry":{"type":"Point","coordinates":[30.885847,29.88603]}},{"type":"Feature","properties":{"source_layer":"Landmarks","source_feature_count":1,"LDMK_TYPE":5,"SUB_CLASS":6503,"Name":"Sector C Mall","اسم_المحور":"محور دهشور","اسم_المحافظة":"محافظة الجيزة","GlobalID":"{49E76C55-B99F-4572-ABA8-195B6EA218BF}"},"geometry":{"type":"Point","coordinates":[30.886221,29.886314]}},{"type":"Feature","properties":{"source_layer":"Landmarks","source_feature_count":1,"LDMK_TYPE":4,"SUB_CLASS":6409,"Name":"وحدة صحية قطاع ج","اسم_المحور":"محور دهشور","اسم_المحافظة":"محافظة الجيزة","GlobalID":"{60909C96-BD92-42B8-A396-EA19F0AF59C4}"},"geometry":{"type":"Point","coordinates":[30.885534,29.886291]}},{"type":"Feature","properties":{"source_layer":"Landmarks","source_feature_count":1,"LDMK_TYPE":1,"SUB_CLASS":6114,"Name":"حضانة الجيل الرابع","اسم_المحور":"محور دهشور","اسم_المحافظة":"محافظة الجيزة","GlobalID":"{C717F0E8-A321-4DAC-90FA-FBA1B87BA013}"},"geometry":{"type":"Point","coordinates":[30.900039,29.892785]}},{"type":"Feature","properties":{"source_layer":"Landmarks","source_feature_count":1,"LDMK_TYPE":1,"SUB_CLASS":6114,"Name":"نيابة اكتوبر تانى والواحات","اسم_المحور":"محور دهشور","اسم_المحافظة":"محافظة الجيزة","GlobalID":"{B8E1E79E-FBEA-4C41-B50B-7934060A0767}"},"geometry":{"type":"Point","coordinates":[31.035667,29.908694]}},{"type":"Feature","properties":{"source_layer":"Landmarks","source_feature_count":1,"LDMK_TYPE":1,"SUB_CLASS":6114,"Name":"ملعب ثلاثي بعمارات 266","اسم_المحور":"محور دهشور","اسم_المحافظة":"محافظة الجيزة","GlobalID":"{D59B3C26-AD7D-42D8-A3F2-1A4D3934D56D}"},"geometry":{"type":"Point","coordinates":[31.036001,29.908347]}},{"type":"Feature","properties":{"source_layer":"Landmarks","source_feature_count":1,"LDMK_TYPE":1,"SUB_CLASS":6114,"Name":"حضانة براعم الامل","اسم_المحور":"محور دهشور","اسم_المحافظة":"محافظة الجيزة","GlobalID":"{15107A1F-791A-41B4-9F4F-C86FB8192E9C}"},"geometry":{"type":"Point","coordinates":[31.029943,29.912052]}},{"type":"Feature","properties":{"source_layer":"Landmarks","source_feature_count":1,"LDMK_TYPE":1,"SUB_CLASS":6104,"Name":"مدرسة التقوي الثانوية","اسم_المحور":"محور دهشور","اسم_المحافظة":"محافظة الجيزة","GlobalID":"{246BA25E-8331-42C1-A56B-0C1EDDE8B6B0}"},"geometry":{"type":"Point","coordinates":[31.042486,29.903024]}},{"type":"Feature","properties":{"source_layer":"Landmarks","source_feature_count":1,"LDMK_TYPE":5,"SUB_CLASS":6503,"Name":"مول الفتح(حدائق أكتوبر )","اسم_المحور":"محور دهشور","اسم_المحافظة":"محافظة الجيزة","GlobalID":"{2C9785FD-53ED-42E9-A6B4-D9B77E8530AA}"},"geometry":{"type":"Point","coordinates":[31.025891,29.919514]}},{"type":"Feature","properties":{"source_layer":"Landmarks","source_feature_count":1,"LDMK_TYPE":2,"SUB_CLASS":6200,"Name":"مسجد الحمد","اسم_المحور":"محور دهشور","اسم_المحافظة":"محافظة الجيزة","GlobalID":"{E25BB039-7B08-42E8-B812-B5FDB00E51DF}"},"geometry":{"type":"Point","coordinates":[31.028178,29.921053]}},{"type":"Feature","properties":{"source_layer":"Landmarks","source_feature_count":1,"LDMK_TYPE":11,"SUB_CLASS":7115,"Name":"محطة صرف 247","اسم_المحور":"محور دهشور","اسم_المحافظة":"محافظة الجيزة","GlobalID":"{5F9F23C3-FEB6-4FCB-AC26-920C9CE8567D}"},"geometry":{"type":"Point","coordinates":[31.03391,29.925522]}},{"type":"Feature","properties":{"source_layer":"Landmarks","source_feature_count":1,"LDMK_TYPE":2,"SUB_CLASS":6200,"Name":"مسجد فيض القدير","اسم_المحور":"محور دهشور","اسم_المحافظة":"محافظة الجيزة","GlobalID":"{7C1D90E5-CF75-4DEB-9665-5CFBE5F808B3}"},"geometry":{"type":"Point","coordinates":[31.035913,29.924912]}},{"type":"Feature","properties":{"source_layer":"Landmarks","source_feature_count":1,"LDMK_TYPE":2,"SUB_CLASS":6200,"Name":"جامع الحقباني","اسم_المحور":"محور دهشور","اسم_المحافظة":"محافظة الجيزة","GlobalID":"{426815CD-625A-45B4-9455-718ED849DD75}"},"geometry":{"type":"Point","coordinates":[31.073873,29.873477]}},{"type":"Feature","properties":{"source_layer":"Landmarks","source_feature_count":1,"LDMK_TYPE":13,"SUB_CLASS":7300,"Name":"قسم شرطة حدائق أكتوبر وسجل مدنى","اسم_المحور":"محور دهشور","اسم_المحافظة":"محافظة الجيزة","GlobalID":"{DCAA5C1C-59C9-49C2-8033-06E96790C7AB}"},"geometry":{"type":"Point","coordinates":[31.072852,29.87388]}},{"type":"Feature","properties":{"source_layer":"Landmarks","source_feature_count":1,"LDMK_TYPE":8,"SUB_CLASS":6814,"Name":"نادي دريم بلازا","اسم_المحور":"محور دهشور","اسم_المحافظة":"محافظة الجيزة","GlobalID":"{C8E92242-773E-4EB7-84D1-C9F7B97FD7CC}"},"geometry":{"type":"Point","coordinates":[31.066488,29.879262]}},{"type":"Feature","properties":{"source_layer":"Landmarks","source_feature_count":1,"LDMK_TYPE":1,"SUB_CLASS":6104,"Name":"مدرسة دار الأرقم للتعليم الأساسي","اسم_المحور":"محور دهشور","اسم_المحافظة":"محافظة الجيزة","GlobalID":"{1CB63500-0CD9-4BED-9709-A06774EA2B6D}"},"geometry":{"type":"Point","coordinates":[31.065792,29.877958]}},{"type":"Feature","properties":{"source_layer":"Landmarks","source_feature_count":1,"LDMK_TYPE":2,"SUB_CLASS":6200,"Name":"مسجد الفاروق( عمر بن الخطاب ) ","اسم_المحور":"محور دهشور","اسم_المحافظة":"محافظة الجيزة","GlobalID":"{DDC2644A-01E6-441B-AE1E-D7D922F2CF7B}"},"geometry":{"type":"Point","coordinates":[31.065679,29.877468]}},{"type":"Feature","properties":{"source_layer":"Landmarks","source_feature_count":1,"LDMK_TYPE":4,"SUB_CLASS":6410,"Name":"حضانة الرؤى","اسم_المحور":"محور دهشور","اسم_المحافظة":"محافظة الجيزة","GlobalID":"{F32A5038-15E0-44AD-B28D-B3D5F03F9022}"},"geometry":{"type":"Point","coordinates":[31.062228,29.880006]}},{"type":"Feature","properties":{"source_layer":"Landmarks","source_feature_count":1,"LDMK_TYPE":1,"SUB_CLASS":6104,"Name":"مدرسة تجريبى","اسم_المحور":"محور دهشور","اسم_المحافظة":"محافظة الجيزة","GlobalID":"{341A3EB6-2A88-4478-BCCC-42519FB9381F}"},"geometry":{"type":"Point","coordinates":[31.054483,29.884249]}},{"type":"Feature","properties":{"source_layer":"Landmarks","source_feature_count":1,"LDMK_TYPE":1,"SUB_CLASS":6104,"Name":"مدرسة الدكتور مصطفي محمود الثانوية","اسم_المحور":"محور دهشور","اسم_المحافظة":"محافظة الجيزة","GlobalID":"{763F9B15-4CD4-4A9B-B566-4EEBA4842828}"},"geometry":{"type":"Point","coordinates":[31.056368,29.884449]}},{"type":"Feature","properties":{"source_layer":"Landmarks","source_feature_count":1,"LDMK_TYPE":2,"SUB_CLASS":6200,"Name":"مسجد نعمة الخالق ","اسم_المحور":"محور دهشور","اسم_المحافظة":"محافظة الجيزة","GlobalID":"{D0730015-799B-48AC-9A07-9D7D9B217700}"},"geometry":{"type":"Point","coordinates":[31.051296,29.884855]}},{"type":"Feature","properties":{"source_layer":"Landmarks","source_feature_count":1,"LDMK_TYPE":8,"SUB_CLASS":6814,"Name":"النادي الرياضي","اسم_المحور":"محور دهشور","اسم_المحافظة":"محافظة الجيزة","GlobalID":"{FD784D70-6AF1-4FDC-A172-0A79E330B763}"},"geometry":{"type":"Point","coordinates":[31.055138,29.885238]}},{"type":"Feature","properties":{"source_layer":"Landmarks","source_feature_count":1,"LDMK_TYPE":13,"SUB_CLASS":7308,"Name":"نيابة اسرة اكتوبر والواحات","اسم_المحور":"محور دهشور","اسم_المحافظة":"محافظة الجيزة","GlobalID":"{7E88B49D-CAE9-40F3-8E1B-EAB94AACB523}"},"geometry":{"type":"Point","coordinates":[31.060016,29.886273]}},{"type":"Feature","properties":{"source_layer":"Landmarks","source_feature_count":1,"LDMK_TYPE":2,"SUB_CLASS":6200,"Name":"مسجد الفتح","اسم_المحور":"محور دهشور","اسم_المحافظة":"محافظة الجيزة","GlobalID":"{E093CF11-7AFE-4C53-9369-D72C72153179}"},"geometry":{"type":"Point","coordinates":[31.025222,29.919614]}},{"type":"Feature","properties":{"source_layer":"Landmarks","source_feature_count":1,"LDMK_TYPE":2,"SUB_CLASS":6200,"Name":"مسجد الكامليا","اسم_المحور":"محور دهشور","اسم_المحافظة":"محافظة الجيزة","GlobalID":"{861B6EC0-5B07-4EF9-ACE5-2EA3308D6177}"},"geometry":{"type":"Point","coordinates":[31.042809,29.925645]}},{"type":"Feature","properties":{"source_layer":"Landmarks","source_feature_count":1,"LDMK_TYPE":5,"SUB_CLASS":6503,"Name":"توب مول - Top Mall","اسم_المحور":"محور دهشور","اسم_المحافظة":"محافظة الجيزة","GlobalID":"{BE7A486E-27F3-484A-8E2C-F20277D978D1}"},"geometry":{"type":"Point","coordinates":[31.039041,29.92255]}},{"type":"Feature","properties":{"source_layer":"Landmarks","source_feature_count":1,"LDMK_TYPE":1,"SUB_CLASS":6104,"Name":"مدرسة الكوثر للتعليم الاساسي","اسم_المحور":"محور دهشور","اسم_المحافظة":"محافظة الجيزة","GlobalID":"{65707989-D7F5-406A-8F6D-2E820A18BC30}"},"geometry":{"type":"Point","coordinates":[31.034776,29.919648]}},{"type":"Feature","properties":{"source_layer":"Landmarks","source_feature_count":1,"LDMK_TYPE":2,"SUB_CLASS":6200,"Name":"مسجد الشربتلي - حدائق أكتوبر","اسم_المحور":"محور دهشور","اسم_المحافظة":"محافظة الجيزة","GlobalID":"{2E4E5AE9-170D-40C1-9ABC-9123400595D6}"},"geometry":{"type":"Point","coordinates":[31.053105,29.903762]}},{"type":"Feature","properties":{"source_layer":"Landmarks","source_feature_count":1,"LDMK_TYPE":5,"SUB_CLASS":6503,"Name":"Kaya mall كايا مول","اسم_المحور":"محور دهشور","اسم_المحافظة":"محافظة الجيزة","GlobalID":"{25E270D0-2DD5-42DF-BC0A-01C63625D2CB}"},"geometry":{"type":"Point","coordinates":[31.080767,29.892168]}},{"type":"Feature","properties":{"source_layer":"Landmarks","source_feature_count":1,"LDMK_TYPE":8,"SUB_CLASS":6814,"Name":"Kenz Compound Club - نادي كنز كمبوند","اسم_المحور":"محور دهشور","اسم_المحافظة":"محافظة الجيزة","GlobalID":"{EA10276B-AB9C-4AF7-A5D4-D21D259C1AC5}"},"geometry":{"type":"Point","coordinates":[31.0797,29.89091]}},{"type":"Feature","properties":{"source_layer":"Landmarks","source_feature_count":1,"LDMK_TYPE":1,"SUB_CLASS":6104,"Name":"مدرسة مجدي يعقوب للتعليم الاساسي","اسم_المحور":"محور دهشور","اسم_المحافظة":"محافظة الجيزة","GlobalID":"{C9E26753-746E-44A1-9690-5DEAFF4CF388}"},"geometry":{"type":"Point","coordinates":[31.066341,29.880563]}},{"type":"Feature","properties":{"source_layer":"Landmarks","source_feature_count":1,"LDMK_TYPE":1,"SUB_CLASS":6104,"Name":"مدرسة احمد عرابى تعليم اساسى","اسم_المحور":"محور دهشور","اسم_المحافظة":"محافظة الجيزة","GlobalID":"{43DAADE3-1841-49AD-9AFC-F771783350A7}"},"geometry":{"type":"Point","coordinates":[31.053944,29.880997]}},{"type":"Feature","properties":{"source_layer":"Landmarks","source_feature_count":1,"LDMK_TYPE":1,"SUB_CLASS":6104,"Name":"المدرسة الجديدة مشروع ١١٨٥","اسم_المحور":"محور دهشور","اسم_المحافظة":"محافظة الجيزة","GlobalID":"{97357E27-0B0E-4977-ABD1-E471D9470697}"},"geometry":{"type":"Point","coordinates":[31.048145,29.890482]}},{"type":"Feature","properties":{"source_layer":"Landmarks","source_feature_count":1,"LDMK_TYPE":8,"SUB_CLASS":6814,"Name":"Grand Heights Clubhouse","اسم_المحور":"محور دهشور","اسم_المحافظة":"محافظة الجيزة","GlobalID":"{C67F893D-D060-465F-AE78-4C8EC864184F}"},"geometry":{"type":"Point","coordinates":[30.907746,30.006758]}},{"type":"Feature","properties":{"source_layer":"Landmarks","source_feature_count":1,"LDMK_TYPE":1,"SUB_CLASS":6104,"Name":"مدرسة ثانوية عامة","اسم_المحور":"محور دهشور","اسم_المحافظة":"محافظة الجيزة","GlobalID":"{8AEAEAD0-1661-4A83-A412-59F46C5C7049}"},"geometry":{"type":"Point","coordinates":[30.898336,29.97708]}},{"type":"Feature","properties":{"source_layer":"Landmarks","source_feature_count":1,"LDMK_TYPE":2,"SUB_CLASS":6200,"Name":"مسجد الكويت","اسم_المحور":"محور دهشور","اسم_المحافظة":"محافظة الجيزة","GlobalID":"{BA9E3A23-0B60-4862-91FB-E2BC21C2DA5A}"},"geometry":{"type":"Point","coordinates":[30.886486,29.972787]}},{"type":"Feature","properties":{"source_layer":"Landmarks","source_feature_count":1,"LDMK_TYPE":2,"SUB_CLASS":6200,"Name":"مسجد الغفور الرحيم","اسم_المحور":"محور دهشور","اسم_المحافظة":"محافظة الجيزة","GlobalID":"{D430D04B-630A-4942-B496-C96D857A0D4D}"},"geometry":{"type":"Point","coordinates":[30.882238,29.977722]}},{"type":"Feature","properties":{"source_layer":"Landmarks","source_feature_count":1,"LDMK_TYPE":2,"SUB_CLASS":6200,"Name":"Mosque El Nour","اسم_المحور":"محور دهشور","اسم_المحافظة":"محافظة الجيزة","GlobalID":"{FB87870A-1704-42F5-9EB6-645C7F1ECB55}"},"geometry":{"type":"Point","coordinates":[30.886052,29.98329]}},{"type":"Feature","properties":{"source_layer":"Landmarks","source_feature_count":1,"LDMK_TYPE":1,"SUB_CLASS":6105,"Name":"مدرسه تجريبي","اسم_المحور":"محور دهشور","اسم_المحافظة":"محافظة الجيزة","GlobalID":"{B29DE012-BFDC-4115-943C-3CA8425C746B}"},"geometry":{"type":"Point","coordinates":[30.97041,29.911726]}},{"type":"Feature","properties":{"source_layer":"Landmarks","source_feature_count":1,"LDMK_TYPE":1,"SUB_CLASS":6104,"Name":"مدرسه زهراء الحدائق","اسم_المحور":"محور دهشور","اسم_المحافظة":"محافظة الجيزة","GlobalID":"{A843D6A1-4E5C-4FA4-87B8-E01EF50052C3}"},"geometry":{"type":"Point","coordinates":[30.967944,29.907472]}},{"type":"Feature","properties":{"source_layer":"Landmarks","source_feature_count":1,"LDMK_TYPE":1,"SUB_CLASS":6114,"Name":"اطفال الغد (المركز التعليمي)","اسم_المحور":"محور دهشور","اسم_المحافظة":"محافظة الجيزة","GlobalID":"{84BC82A6-064A-44B0-AF1E-3C8789D262AA}"},"geometry":{"type":"Point","coordinates":[30.967279,29.907829]}},{"type":"Feature","properties":{"source_layer":"Landmarks","source_feature_count":1,"LDMK_TYPE":2,"SUB_CLASS":6200,"Name":"مسجد عمرو بن العاص","اسم_المحور":"محور دهشور","اسم_المحافظة":"محافظة الجيزة","GlobalID":"{E5AEDCE0-3A38-4884-8525-B8A9326ACFC4}"},"geometry":{"type":"Point","coordinates":[30.956418,29.910891]}},{"type":"Feature","properties":{"source_layer":"Landmarks","source_feature_count":1,"LDMK_TYPE":2,"SUB_CLASS":6200,"Name":"مسجد شركه السكر","اسم_المحور":"محور دهشور","اسم_المحافظة":"محافظة الجيزة","GlobalID":"{B7FDA791-F56C-4B91-A082-9B57EF174D03}"},"geometry":{"type":"Point","coordinates":[31.043578,29.92298]}},{"type":"Feature","properties":{"source_layer":"Landmarks","source_feature_count":1,"LDMK_TYPE":2,"SUB_CLASS":6200,"Name":"مسجد عباد الرحمن","اسم_المحور":"محور دهشور","اسم_المحافظة":"محافظة الجيزة","GlobalID":"{20A2EF51-6632-48A1-81CA-D2176F66C81D}"},"geometry":{"type":"Point","coordinates":[31.049502,29.920343]}},{"type":"Feature","properties":{"source_layer":"Landmarks","source_feature_count":1,"LDMK_TYPE":1,"SUB_CLASS":6104,"Name":"مدرسه فاطمه الزهراء للتعليم الاساسي","اسم_المحور":"محور دهشور","اسم_المحافظة":"محافظة الجيزة","GlobalID":"{B6E161C8-06A8-4380-AC75-04AFD15B68BE}"},"geometry":{"type":"Point","coordinates":[30.992181,29.927287]}},{"type":"Feature","properties":{"source_layer":"Landmarks","source_feature_count":1,"LDMK_TYPE":1,"SUB_CLASS":6104,"Name":"مدرسه","اسم_المحور":"محور دهشور","اسم_المحافظة":"محافظة الجيزة","GlobalID":"{38976CA3-64A3-4596-A669-EF4A37520D5E}"},"geometry":{"type":"Point","coordinates":[30.994669,29.924383]}},{"type":"Feature","properties":{"source_layer":"Landmarks","source_feature_count":1,"LDMK_TYPE":1,"SUB_CLASS":6104,"Name":"مدرسه","اسم_المحور":"محور دهشور","اسم_المحافظة":"محافظة الجيزة","GlobalID":"{3D8CD48A-A970-45A3-B723-0B43E844AD62}"},"geometry":{"type":"Point","coordinates":[30.983143,29.929516]}},{"type":"Feature","properties":{"source_layer":"Landmarks","source_feature_count":1,"LDMK_TYPE":1,"SUB_CLASS":6104,"Name":"مدرسه","اسم_المحور":"محور دهشور","اسم_المحافظة":"محافظة الجيزة","GlobalID":"{430A852B-742F-46B6-B833-A6331316E095}"},"geometry":{"type":"Point","coordinates":[30.983023,29.929227]}},{"type":"Feature","properties":{"source_layer":"Landmarks","source_feature_count":1,"LDMK_TYPE":1,"SUB_CLASS":6104,"Name":"مدرسه حمزه بن عبد المطلب","اسم_المحور":"محور دهشور","اسم_المحافظة":"محافظة الجيزة","GlobalID":"{03CDAB83-20F3-4459-A420-45DC872606C2}"},"geometry":{"type":"Point","coordinates":[31.001061,29.943554]}},{"type":"Feature","properties":{"source_layer":"Landmarks","source_feature_count":1,"LDMK_TYPE":2,"SUB_CLASS":6200,"Name":"مسجد","اسم_المحور":"محور دهشور","اسم_المحافظة":"محافظة الجيزة","GlobalID":"{91A85AE6-2267-4BDC-86A2-32BB4CE5BC1F}"},"geometry":{"type":"Point","coordinates":[31.00705,29.940848]}},{"type":"Feature","properties":{"source_layer":"Landmarks","source_feature_count":1,"LDMK_TYPE":1,"SUB_CLASS":6114,"Name":"حضانه عماد المستقبل","اسم_المحور":"محور دهشور","اسم_المحافظة":"محافظة الجيزة","GlobalID":"{0AFF8812-7C3E-41BC-8F93-7AA7B0ACED7B}"},"geometry":{"type":"Point","coordinates":[30.97257,29.94952]}},{"type":"Feature","properties":{"source_layer":"Landmarks","source_feature_count":1,"LDMK_TYPE":13,"SUB_CLASS":7300,"Name":"نيابه اول وثالث اكتوبر الجديده","اسم_المحور":"محور دهشور","اسم_المحافظة":"محافظة الجيزة","GlobalID":"{DFDB730C-E752-409B-90E8-55CF167C6803}"},"geometry":{"type":"Point","coordinates":[30.972959,29.949765]}},{"type":"Feature","properties":{"source_layer":"Landmarks","source_feature_count":1,"LDMK_TYPE":5,"SUB_CLASS":6503,"Name":"تاون مول","اسم_المحور":"محور دهشور","اسم_المحافظة":"محافظة الجيزة","GlobalID":"{7565D98D-7725-4D24-96B8-4FC8C27F1C93}"},"geometry":{"type":"Point","coordinates":[30.971477,29.951373]}},{"type":"Feature","properties":{"source_layer":"Landmarks","source_feature_count":1,"LDMK_TYPE":2,"SUB_CLASS":6200,"Name":"مسجد سكن مصر","اسم_المحور":"محور دهشور","اسم_المحافظة":"محافظة الجيزة","GlobalID":"{D1113540-CF8D-4797-9B83-EE56C8818924}"},"geometry":{"type":"Point","coordinates":[30.971002,29.951702]}},{"type":"Feature","properties":{"source_layer":"Landmarks","source_feature_count":1,"LDMK_TYPE":1,"SUB_CLASS":6104,"Name":"مدرسه عبد المنعم رياض للتعليم الاساسي","اسم_المحور":"محور دهشور","اسم_المحافظة":"محافظة الجيزة","GlobalID":"{C79A79D2-6BA9-4A89-8233-09DCDF66B386}"},"geometry":{"type":"Point","coordinates":[30.971,29.952189]}},{"type":"Feature","properties":{"source_layer":"Landmarks","source_feature_count":1,"LDMK_TYPE":5,"SUB_CLASS":6500,"Name":"سوق تجارى الشماليات","اسم_المحور":"محور دهشور","اسم_المحافظة":"محافظة الجيزة","GlobalID":"{5122B654-7A74-414D-BBE8-15078D5E3252}"},"geometry":{"type":"Point","coordinates":[30.893401,29.977476]}},{"type":"Feature","properties":{"source_layer":"Landmarks","source_feature_count":1,"LDMK_TYPE":2,"SUB_CLASS":6200,"Name":"المسجد الشرقي","اسم_المحور":"محور دهشور","اسم_المحافظة":"محافظة الجيزة","GlobalID":"{CE7547B5-92E2-432A-BD56-AB4FC5AA6309}"},"geometry":{"type":"Point","coordinates":[30.918255,29.993178]}},{"type":"Feature","properties":{"source_layer":"Landmarks","source_feature_count":1,"LDMK_TYPE":2,"SUB_CLASS":6200,"Name":"مسجد الرحمن","اسم_المحور":"محور دهشور","اسم_المحافظة":"محافظة الجيزة","GlobalID":"{4D3D0065-C8FD-431C-9F0E-BFE63800963D}"},"geometry":{"type":"Point","coordinates":[30.913673,29.989792]}},{"type":"Feature","properties":{"source_layer":"Landmarks","source_feature_count":1,"LDMK_TYPE":13,"SUB_CLASS":7308,"Name":"الاداره العامه للتدريب  (موسيقات الشرطه)","اسم_المحور":"محور دهشور","اسم_المحافظة":"محافظة الجيزة","GlobalID":"{3D571B70-18F8-4E03-83D0-EDB7F3392F3F}"},"geometry":{"type":"Point","coordinates":[30.945404,29.932222]}},{"type":"Feature","properties":{"source_layer":"Landmarks","source_feature_count":1,"LDMK_TYPE":2,"SUB_CLASS":6200,"Name":"مسجد","اسم_المحور":"محور دهشور","اسم_المحافظة":"محافظة الجيزة","GlobalID":"{E2D963FC-F4D4-49A1-8338-AD75E641253F}"},"geometry":{"type":"Point","coordinates":[30.944476,29.930361]}},{"type":"Feature","properties":{"source_layer":"Landmarks","source_feature_count":1,"LDMK_TYPE":13,"SUB_CLASS":7300,"Name":"قسم شرطه زهراء اكتوبر الجديده","اسم_المحور":"محور دهشور","اسم_المحافظة":"محافظة الجيزة","GlobalID":"{F6D92F77-C709-4B10-9998-7C1B36B7C2AE}"},"geometry":{"type":"Point","coordinates":[30.897973,29.893914]}},{"type":"Feature","properties":{"source_layer":"Landmarks","source_feature_count":1,"LDMK_TYPE":11,"SUB_CLASS":7115,"Name":"سجل مدني زهراء اكتوبر الجديده","اسم_المحور":"محور دهشور","اسم_المحافظة":"محافظة الجيزة","GlobalID":"{CF1C57B8-DC7A-4427-A173-A7958B00962F}"},"geometry":{"type":"Point","coordinates":[30.898355,29.894113]}},{"type":"Feature","properties":{"source_layer":"Landmarks","source_feature_count":1,"LDMK_TYPE":11,"SUB_CLASS":7115,"Name":"محطه صرف ","اسم_المحور":"محور دهشور","اسم_المحافظة":"محافظة الجيزة","GlobalID":"{DE222686-D088-4388-97C9-FD3BCAD9189C}"},"geometry":{"type":"Point","coordinates":[31.010091,29.92949]}},{"type":"Feature","properties":{"source_layer":"Landmarks","source_feature_count":1,"LDMK_TYPE":11,"SUB_CLASS":7115,"Name":"محطه صرف صحي","اسم_المحور":"محور دهشور","اسم_المحافظة":"محافظة الجيزة","GlobalID":"{7FF83CCA-F21F-4DE0-B21D-DBDD8CE8F6CD}"},"geometry":{"type":"Point","coordinates":[30.913449,29.900666]}},{"type":"Feature","properties":{"source_layer":"Landmarks","source_feature_count":1,"LDMK_TYPE":13,"SUB_CLASS":7308,"Name":"جهاز مدينه حدائق اكتوبر","اسم_المحور":"محور دهشور","اسم_المحافظة":"محافظة الجيزة","GlobalID":"{AF4C7F55-794A-4040-AA5E-A7C274B853EB}"},"geometry":{"type":"Point","coordinates":[31.030806,29.923478]}},{"type":"Feature","properties":{"source_layer":"Landmarks","source_feature_count":1,"LDMK_TYPE":5,"SUB_CLASS":6503,"Name":"مول ","اسم_المحور":"محور دهشور","اسم_المحافظة":"محافظة الجيزة","GlobalID":"{62E841E0-D7C5-40AF-941F-ACBB0AE7CA73}"},"geometry":{"type":"Point","coordinates":[31.030747,29.923976]}},{"type":"Feature","properties":{"source_layer":"Landmarks","source_feature_count":1,"LDMK_TYPE":2,"SUB_CLASS":6200,"Name":"مسجد بالميرا","اسم_المحور":"محور دهشور","اسم_المحافظة":"محافظة الجيزة","GlobalID":"{102207F0-5B6F-461F-83BC-71EF2C03A983}"},"geometry":{"type":"Point","coordinates":[30.90052,29.988107]}},{"type":"Feature","properties":{"source_layer":"Landmarks","source_feature_count":1,"LDMK_TYPE":2,"SUB_CLASS":6200,"Name":"مسجد المغفره","اسم_المحور":"محور دهشور","اسم_المحافظة":"محافظة الجيزة","GlobalID":"{88551DB9-20B2-4D05-8632-5C421AD8F6A7}"},"geometry":{"type":"Point","coordinates":[30.921864,29.905218]}},{"type":"Feature","properties":{"source_layer":"Landmarks","source_feature_count":1,"LDMK_TYPE":1,"SUB_CLASS":6104,"Name":"مدرسه الفاروق عمر للتعليم الاساسي","اسم_المحور":"محور دهشور","اسم_المحافظة":"محافظة الجيزة","GlobalID":"{C7C8B9BE-3344-4260-81DF-5227EBAC5512}"},"geometry":{"type":"Point","coordinates":[30.937996,29.950766]}},{"type":"Feature","properties":{"source_layer":"Landmarks","source_feature_count":1,"LDMK_TYPE":2,"SUB_CLASS":6200,"Name":"جامعه أكتوبر التكنولوجيه","اسم_المحور":"محور دهشور","اسم_المحافظة":"محافظة الجيزة","GlobalID":"{F96E623E-FBE0-4DF3-BE57-7187D2262FF8}"},"geometry":{"type":"Point","coordinates":[30.960865,29.954676]}},{"type":"Feature","properties":{"source_layer":"Landmarks","source_feature_count":1,"LDMK_TYPE":11,"SUB_CLASS":7115,"Name":"محطه غاز أكتوبر","اسم_المحور":"محور دهشور","اسم_المحافظة":"محافظة الجيزة","GlobalID":"{B44C47FC-50F4-4573-BB68-D1FFD096BF20}"},"geometry":{"type":"Point","coordinates":[30.912655,29.931863]}},{"type":"Feature","properties":{"source_layer":"Landmarks","source_feature_count":1,"LDMK_TYPE":2,"SUB_CLASS":6200,"Name":"مسجد التقوي","اسم_المحور":"محور دهشور","اسم_المحافظة":"محافظة الجيزة","GlobalID":"{C67F89C2-ADD1-4ABD-8EB7-F116A0679D23}"},"geometry":{"type":"Point","coordinates":[30.982478,29.942929]}},{"type":"Feature","properties":{"source_layer":"Landmarks","source_feature_count":1,"LDMK_TYPE":1,"SUB_CLASS":6114,"Name":"مؤسسه انا المصري لاطفال بلا ماوي","اسم_المحور":"محور دهشور","اسم_المحافظة":"محافظة الجيزة","GlobalID":"{221D0DC8-CC8E-4EE2-8E9A-241E1FE4EB72}"},"geometry":{"type":"Point","coordinates":[30.982297,29.948349]}}]}