{"type":"FeatureCollection","features":[{"type":"Feature","properties":{"landuse_value":0,"landuse_code":0,"landuse_label":null,"source_feature_count":50,"area_km2":35.116799},"geometry":{"type":"MultiPolygon","coordinates":[[[[30.807406,29.979004],[30.807813,29.977427],[30.80302,29.974073],[30.802795,29.97559],[30.798045,29.973869],[30.797557,29.97848],[30.793884,29.978419],[30.793124,29.982455],[30.808063,29.98281],[30.808636,29.979203],[30.807406,29.979004]]],[[[30.810861,29.979551],[30.811761,29.978497],[30.812499,29.978872],[30.81418,29.976227],[30.819099,29.977969],[30.821141,29.975844],[30.818093,29.974757],[30.819533,29.972999],[30.816056,29.970962],[30.81584,29.973937],[30.813174,29.974071],[30.813102,29.974395],[30.812708,29.974331],[30.812673,29.973948],[30.811939,29.97342],[30.812017,29.97283],[30.810769,29.972752],[30.810774,29.972523],[30.810073,29.972473],[30.810146,29.972169],[30.809421,29.972195],[30.80946,29.971451],[30.808408,29.9711],[30.808178,29.971445],[30.806863,29.970854],[30.805463,29.970658],[30.805411,29.970047],[30.804362,29.969895],[30.803626,29.972442],[30.80567,29.973221],[30.805145,29.974167],[30.806775,29.974862],[30.805727,29.975973],[30.810861,29.979551]]],[[[30.829929,29.980649],[30.832236,29.977995],[30.827057,29.97435],[30.826224,29.975108],[30.823458,29.97354],[30.818923,29.978214],[30.822922,29.979822],[30.824652,29.980093],[30.826221,29.978092],[30.829929,29.980649]]],[[[30.832866,29.979016],[30.831938,29.978338],[30.831408,29.978948],[30.832375,29.979641],[30.832866,29.979016]]],[[[30.834363,29.995535],[30.835506,29.995357],[30.836483,29.994811],[30.837146,29.993982],[30.837394,29.992994],[30.837189,29.991999],[30.836563,29.991149],[30.83561,29.990571],[30.834475,29.990355],[30.833332,29.990534],[30.832355,29.991079],[30.831692,29.991909],[30.831444,29.992896],[30.831649,29.993891],[30.832275,29.994742],[30.833229,29.995319],[30.834363,29.995535]]],[[[30.829006,29.989953],[30.828834,29.989818],[30.827464,29.991585],[30.829105,29.992717],[30.831971,29.990458],[30.831206,29.989853],[30.829006,29.989953]]],[[[30.828717,29.985663],[30.827359,29.985616],[30.827126,29.98682],[30.830751,29.986803],[30.830836,29.986017],[30.828717,29.985663]]],[[[30.825258,29.990043],[30.826824,29.988539],[30.828652,29.989073],[30.829281,29.988069],[30.829278,29.987644],[30.829463,29.987652],[30.829444,29.987237],[30.82893,29.987008],[30.828491,29.986998],[30.828499,29.987125],[30.827578,29.98712],[30.827576,29.986977],[30.827125,29.986967],[30.827126,29.98682],[30.826098,29.986576],[30.825289,29.9865],[30.824783,29.986309],[30.823376,29.98621],[30.82091,29.984623],[30.819879,29.986048],[30.825258,29.990043]]],[[[30.837439,29.987458],[30.838698,29.987816],[30.838967,29.987176],[30.839481,29.987357],[30.840923,29.984411],[30.837752,29.982927],[30.837176,29.984219],[30.83869,29.984854],[30.838076,29.985989],[30.835467,29.984734],[30.834445,29.98634],[30.833871,29.986483],[30.833361,29.987735],[30.832463,29.987682],[30.832249,29.98745],[30.831527,29.987381],[30.831476,29.987666],[30.830708,29.987692],[30.829473,29.989027],[30.831369,29.98973],[30.832669,29.989328],[30.832731,29.989174],[30.836247,29.990208],[30.837159,29.987626],[30.837349,29.987614],[30.837439,29.987458]]],[[[30.845876,29.996097],[30.847325,29.99655],[30.848276,29.994708],[30.846632,29.994255],[30.845876,29.996097]]],[[[30.846931,29.99326],[30.844628,29.992579],[30.843658,29.994676],[30.843278,29.996007],[30.845459,29.996615],[30.846931,29.99326]]],[[[30.870357,30.040759],[30.869124,30.040955],[30.868128,30.041525],[30.867459,30.042383],[30.867216,30.043398],[30.867437,30.044417],[30.868089,30.045285],[30.869072,30.045871],[30.870237,30.046087],[30.871458,30.045889],[30.872452,30.045323],[30.873112,30.044494],[30.873372,30.043479],[30.873162,30.042455],[30.872501,30.041565],[30.871501,30.040971],[30.870357,30.040759]]],[[[30.861464,30.042591],[30.862583,30.042416],[30.863539,30.041882],[30.864188,30.041071],[30.86443,30.040105],[30.864229,30.039132],[30.863616,30.0383],[30.862683,30.037736],[30.861573,30.037525],[30.860455,30.037699],[30.859499,30.038233],[30.85885,30.039045],[30.858607,30.04001],[30.858808,30.040983],[30.859421,30.041815],[30.860354,30.04238],[30.861464,30.042591]]],[[[30.857377,30.031737],[30.856512,30.032438],[30.855991,30.033421],[30.855933,30.034394],[30.856322,30.03552],[30.857111,30.036331],[30.858181,30.036802],[30.859336,30.036882],[30.860472,30.036567],[30.861404,30.035873],[30.862054,30.034811],[30.862157,30.033717],[30.86177,30.0327],[30.860963,30.03189],[30.859764,30.031393],[30.85857,30.031351],[30.857377,30.031737]]],[[[30.85647,30.03945],[30.851669,30.039219],[30.852117,30.045437],[30.865717,30.046],[30.865422,30.042954],[30.857216,30.042595],[30.857118,30.04095],[30.856526,30.040941],[30.85647,30.03945]]],[[[30.859954,29.985468],[30.854794,29.982039],[30.849515,29.988437],[30.854232,29.991551],[30.859954,29.985468]]],[[[30.849334,29.978419],[30.844054,29.97499],[30.838663,29.981271],[30.843989,29.984788],[30.849334,29.978419]]],[[[30.844054,29.97499],[30.838572,29.971444],[30.83316,29.977702],[30.838663,29.981271],[30.844054,29.97499]]],[[[30.827221,29.964213],[30.821617,29.960642],[30.816277,29.966751],[30.82185,29.970366],[30.827221,29.964213]]],[[[30.832825,29.967783],[30.827221,29.964213],[30.82185,29.970366],[30.827426,29.973983],[30.832825,29.967783]]],[[[30.821617,29.960642],[30.815854,29.95697],[30.810755,29.963168],[30.816277,29.966751],[30.821617,29.960642]]],[[[30.838572,29.971444],[30.832825,29.967783],[30.827426,29.973983],[30.83316,29.977702],[30.838572,29.971444]]],[[[30.854794,29.982039],[30.849334,29.978419],[30.843989,29.984788],[30.849515,29.988437],[30.854794,29.982039]]],[[[30.861882,29.958608],[30.847542,29.9496],[30.842599,29.95594],[30.837688,29.961936],[30.865134,29.979434],[30.869701,29.974248],[30.872688,29.971754],[30.877107,29.969582],[30.878048,29.969235],[30.868609,29.963192],[30.861882,29.958608]]],[[[30.976319,29.927824],[30.98846,29.922392],[30.989491,29.922677],[30.991152,29.917509],[31.001986,29.920357],[31.003998,29.914745],[30.997445,29.912823],[30.995847,29.912046],[30.995049,29.911425],[30.985678,29.902603],[30.981226,29.904797],[30.981605,29.908385],[30.981156,29.909321],[30.980318,29.909913],[30.981708,29.912145],[30.970946,29.917479],[30.973318,29.920495],[30.972052,29.921335],[30.976319,29.927824]]],[[[30.844058,29.99241],[30.846931,29.99326],[30.847397,29.992198],[30.84609,29.991794],[30.844162,29.991667],[30.844058,29.99241]]],[[[30.844628,29.992579],[30.842748,29.992122],[30.841567,29.994012],[30.843658,29.994676],[30.844628,29.992579]]],[[[30.832055,29.93592],[30.819606,29.928053],[30.810813,29.937288],[30.813247,29.938796],[30.817215,29.941583],[30.813004,29.946132],[30.822278,29.95207],[30.834886,29.937582],[30.832055,29.93592]]],[[[30.901623,30.012619],[30.89389,30.007656],[30.88845,30.013921],[30.897672,30.019888],[30.897775,30.016867],[30.901623,30.012619]]],[[[30.865134,29.979434],[30.860389,29.976462],[30.855139,29.982264],[30.859954,29.985468],[30.865134,29.979434]]],[[[30.844054,29.97499],[30.849334,29.978419],[30.854471,29.972675],[30.849029,29.969193],[30.844054,29.97499]]],[[[30.849029,29.969193],[30.84355,29.965688],[30.838572,29.971444],[30.844054,29.97499],[30.849029,29.969193]]],[[[30.821617,29.960642],[30.827221,29.964213],[30.832248,29.958453],[30.826658,29.954875],[30.821617,29.960642]]],[[[30.827221,29.964213],[30.832825,29.967783],[30.837834,29.962029],[30.832248,29.958453],[30.827221,29.964213]]],[[[30.826658,29.954875],[30.820709,29.951066],[30.815854,29.95697],[30.821617,29.960642],[30.826658,29.954875]]],[[[30.84355,29.965688],[30.837834,29.962029],[30.832825,29.967783],[30.838572,29.971444],[30.84355,29.965688]]],[[[30.860389,29.976462],[30.854471,29.972675],[30.849334,29.978419],[30.855139,29.982264],[30.860389,29.976462]]],[[[30.899061,30.001701],[30.893504,29.998144],[30.888403,30.004133],[30.89389,30.007656],[30.899061,30.001701]]],[[[30.89389,30.007656],[30.888403,30.004133],[30.883045,30.010422],[30.88845,30.013921],[30.89389,30.007656]]],[[[30.871152,29.983303],[30.865531,29.979671],[30.860384,29.985755],[30.86592,29.989439],[30.871152,29.983303]]],[[[30.876728,29.986935],[30.871152,29.983303],[30.86592,29.989439],[30.871449,29.993118],[30.876728,29.986935]]],[[[30.887901,29.994232],[30.882375,29.990631],[30.877026,29.996829],[30.882639,30.000433],[30.887901,29.994232]]],[[[30.871449,29.993118],[30.86592,29.989439],[30.860558,29.995726],[30.866098,29.999383],[30.871449,29.993118]]],[[[30.882375,29.990631],[30.876728,29.986935],[30.871449,29.993118],[30.877026,29.996829],[30.882375,29.990631]]],[[[30.877026,29.996829],[30.871449,29.993118],[30.866098,29.999383],[30.871656,30.00305],[30.877026,29.996829]]],[[[30.893504,29.998144],[30.887901,29.994232],[30.882639,30.000433],[30.888403,30.004133],[30.893504,29.998144]]],[[[30.882639,30.000433],[30.877026,29.996829],[30.871656,30.00305],[30.87731,30.00671],[30.882639,30.000433]]],[[[30.86592,29.989439],[30.860384,29.985755],[30.858427,29.988069],[30.855474,29.991115],[30.854889,29.991984],[30.860558,29.995726],[30.86592,29.989439]]],[[[30.888403,30.004133],[30.882639,30.000433],[30.87731,30.00671],[30.883045,30.010422],[30.888403,30.004133]]],[[[30.907404,30.007041],[30.899061,30.001701],[30.89389,30.007656],[30.901623,30.012619],[30.905313,30.008312],[30.906918,30.007601],[30.907404,30.007041]]]]}},{"type":"Feature","properties":{"landuse_value":1,"landuse_code":1,"landuse_label":null,"source_feature_count":64,"area_km2":38.641555},"geometry":{"type":"MultiPolygon","coordinates":[[[[30.86309,29.939529],[30.849057,29.930636],[30.838089,29.943534],[30.852691,29.952822],[30.86309,29.939529]]],[[[30.87765,29.969018],[30.888804,29.956482],[30.879463,29.950325],[30.868574,29.963168],[30.87765,29.969018]]],[[[30.86657,29.941824],[30.86309,29.939529],[30.852691,29.952822],[30.855549,29.954621],[30.86657,29.941824]]],[[[30.872562,29.945775],[30.86657,29.941824],[30.855549,29.954621],[30.861882,29.958608],[30.872562,29.945775]]],[[[30.879463,29.950325],[30.872562,29.945775],[30.861882,29.958608],[30.868574,29.963168],[30.879463,29.950325]]],[[[30.887699,29.964019],[30.893374,29.957522],[30.889991,29.955206],[30.888804,29.956482],[30.889656,29.957009],[30.886478,29.962138],[30.884704,29.961086],[30.87765,29.969018],[30.878048,29.969235],[30.884494,29.966498],[30.887699,29.964019]]],[[[30.884704,29.961086],[30.886478,29.962138],[30.889656,29.957009],[30.888804,29.956482],[30.884704,29.961086]]],[[[30.891733,29.942178],[30.88131,29.935405],[30.87339,29.944522],[30.883596,29.951091],[30.891733,29.942178]]],[[[30.864128,29.9243],[30.858241,29.920495],[30.850431,29.929486],[30.856414,29.933409],[30.864128,29.9243]]],[[[30.890209,29.955347],[30.897915,29.946225],[30.891733,29.942178],[30.883596,29.951091],[30.890209,29.955347]]],[[[30.872151,29.929486],[30.864128,29.9243],[30.856414,29.933409],[30.864129,29.938467],[30.872151,29.929486]]],[[[30.88131,29.935405],[30.872151,29.929486],[30.864129,29.938467],[30.87339,29.944522],[30.88131,29.935405]]],[[[30.897915,29.946225],[30.900121,29.943669],[30.87762,29.928903],[30.875344,29.93155],[30.897915,29.946225]]],[[[30.892085,29.953126],[30.893064,29.953489],[30.895426,29.955078],[30.898046,29.950448],[30.899914,29.947649],[30.901962,29.945081],[30.900001,29.943808],[30.892085,29.953126]]],[[[30.874492,29.926848],[30.866492,29.921591],[30.864128,29.9243],[30.872151,29.929486],[30.874492,29.926848]]],[[[30.866492,29.921591],[30.860689,29.917777],[30.858241,29.920495],[30.864128,29.9243],[30.866492,29.921591]]],[[[30.893046,29.896348],[30.889832,29.894317],[30.878347,29.907613],[30.881537,29.909747],[30.893046,29.896348]]],[[[30.925239,29.917667],[30.930851,29.91096],[30.921231,29.906532],[30.916642,29.911926],[30.925239,29.917667]]],[[[30.903907,29.898531],[30.900221,29.896828],[30.898145,29.899572],[30.901162,29.901588],[30.903907,29.898531]]],[[[30.910916,29.901768],[30.903907,29.898531],[30.901162,29.901588],[30.907511,29.905828],[30.910916,29.901768]]],[[[30.914884,29.903601],[30.910916,29.901768],[30.907511,29.905828],[30.910934,29.908114],[30.914884,29.903601]]],[[[30.918364,29.905208],[30.914105,29.910232],[30.916642,29.911926],[30.921231,29.906532],[30.918364,29.905208]]],[[[30.911911,29.931881],[30.912414,29.931273],[30.913503,29.931915],[30.914244,29.931318],[30.914703,29.930646],[30.912211,29.929177],[30.900182,29.943164],[30.902292,29.944519],[30.912907,29.932491],[30.911911,29.931881]]],[[[30.917231,29.912319],[30.910933,29.908114],[30.906238,29.913467],[30.912444,29.917577],[30.917231,29.912319]]],[[[30.910933,29.908114],[30.901162,29.901588],[30.896416,29.906959],[30.906238,29.913467],[30.910933,29.908114]]],[[[30.917231,29.912319],[30.912444,29.917577],[30.918649,29.921687],[30.923248,29.916337],[30.917231,29.912319]]],[[[30.912069,29.929342],[30.918649,29.921687],[30.912444,29.917577],[30.90594,29.925203],[30.912069,29.929342]]],[[[30.902203,29.940815],[30.895948,29.936918],[30.893748,29.939497],[30.899875,29.943521],[30.902203,29.940815]]],[[[30.904693,29.93792],[30.898598,29.933812],[30.895948,29.936918],[30.902203,29.940815],[30.904693,29.93792]]],[[[30.908225,29.933812],[30.901977,29.92985],[30.898598,29.933812],[30.904693,29.93792],[30.908225,29.933812]]],[[[30.912069,29.929342],[30.90594,29.925203],[30.901977,29.92985],[30.908225,29.933812],[30.912069,29.929342]]],[[[30.901977,29.92985],[30.912444,29.917577],[30.906245,29.913471],[30.895548,29.925869],[30.901977,29.92985]]],[[[30.895948,29.936918],[30.889439,29.932947],[30.88739,29.935321],[30.893748,29.939497],[30.895948,29.936918]]],[[[30.898598,29.933812],[30.892273,29.929664],[30.889439,29.932947],[30.895948,29.936918],[30.898598,29.933812]]],[[[30.901977,29.92985],[30.895548,29.925869],[30.892273,29.929664],[30.898598,29.933812],[30.901977,29.92985]]],[[[30.906245,29.913471],[30.896416,29.906959],[30.88582,29.919507],[30.895576,29.925836],[30.906245,29.913471]]],[[[30.883313,29.932643],[30.888008,29.926976],[30.882486,29.923455],[30.87779,29.929014],[30.883313,29.932643]]],[[[30.892273,29.929664],[30.895576,29.925836],[30.88582,29.919507],[30.882486,29.923455],[30.892273,29.929664]]],[[[30.88739,29.935321],[30.892256,29.929684],[30.888008,29.926976],[30.883313,29.932643],[30.88739,29.935321]]],[[[30.895524,29.897915],[30.880188,29.915822],[30.882666,29.917443],[30.898105,29.899547],[30.895524,29.897915]]],[[[30.87771,29.914202],[30.87448,29.912089],[30.866453,29.921565],[30.869603,29.923635],[30.87771,29.914202]]],[[[30.879243,29.921379],[30.874276,29.918198],[30.869603,29.923635],[30.874492,29.926848],[30.879243,29.921379]]],[[[30.87779,29.929014],[30.885821,29.919506],[30.882666,29.917443],[30.874492,29.926848],[30.87779,29.929014]]],[[[30.898105,29.899547],[30.882666,29.917443],[30.885821,29.919506],[30.896416,29.906959],[30.901162,29.901588],[30.898105,29.899547]]],[[[30.895524,29.897915],[30.893046,29.896348],[30.87771,29.914202],[30.880188,29.915822],[30.895524,29.897915]]],[[[30.881537,29.909747],[30.878347,29.907613],[30.87448,29.912089],[30.87771,29.914202],[30.881537,29.909747]]],[[[30.886951,29.892495],[30.88359,29.89037],[30.872477,29.903687],[30.875589,29.905769],[30.886951,29.892495]]],[[[30.871722,29.910285],[30.875589,29.905769],[30.872477,29.903687],[30.868648,29.908274],[30.871722,29.910285]]],[[[30.889832,29.894317],[30.886951,29.892495],[30.875589,29.905769],[30.878347,29.907613],[30.889832,29.894317]]],[[[30.876451,29.909807],[30.873648,29.908036],[30.873145,29.908623],[30.874505,29.909501],[30.873068,29.911166],[30.87448,29.912089],[30.876451,29.909807]]],[[[30.87448,29.912089],[30.871716,29.910282],[30.863611,29.919697],[30.866453,29.921565],[30.87448,29.912089]]],[[[30.871716,29.910282],[30.868648,29.908274],[30.860689,29.917777],[30.863611,29.919697],[30.871716,29.910282]]],[[[30.882666,29.917443],[30.87771,29.914202],[30.874276,29.918198],[30.879243,29.921379],[30.882666,29.917443]]],[[[30.914105,29.910232],[30.918364,29.905208],[30.914884,29.903601],[30.910934,29.908114],[30.914105,29.910232]]],[[[30.895426,29.955078],[30.893064,29.953489],[30.892085,29.953126],[30.890209,29.955347],[30.893374,29.957522],[30.895426,29.955078]]],[[[30.87762,29.928903],[30.876401,29.928102],[30.874111,29.930752],[30.875344,29.93155],[30.87762,29.928903]]],[[[30.876401,29.928102],[30.874492,29.926848],[30.872151,29.929486],[30.874111,29.930752],[30.876401,29.928102]]],[[[30.925239,29.917667],[30.923248,29.916337],[30.913059,29.92819],[30.915223,29.929612],[30.915657,29.928583],[30.925239,29.917667]]],[[[30.913503,29.931915],[30.912414,29.931273],[30.911911,29.931881],[30.912907,29.932491],[30.913503,29.931915]]],[[[30.897523,29.895582],[30.894789,29.894319],[30.893046,29.896348],[30.895524,29.897915],[30.897523,29.895582]]],[[[30.900221,29.896828],[30.897523,29.895582],[30.895524,29.897915],[30.898145,29.899572],[30.900221,29.896828]]],[[[30.878347,29.907613],[30.875589,29.905769],[30.873648,29.908036],[30.876451,29.909807],[30.878347,29.907613]]],[[[30.874505,29.909501],[30.873145,29.908623],[30.871722,29.910285],[30.873068,29.911166],[30.874505,29.909501]]],[[[30.915223,29.929612],[30.913059,29.92819],[30.912211,29.929177],[30.914703,29.930646],[30.915223,29.929612]]]]}},{"type":"Feature","properties":{"landuse_value":3,"landuse_code":3,"landuse_label":null,"source_feature_count":116,"area_km2":92.622818},"geometry":{"type":"MultiPolygon","coordinates":[[[[30.888312,29.969336],[30.887041,29.969575],[30.886068,29.970243],[30.878746,29.97871],[30.878415,29.979342],[30.878371,29.979976],[30.878619,29.980647],[30.879156,29.981196],[30.890808,29.988504],[30.90066,29.97694],[30.889277,29.969502],[30.888312,29.969336]]],[[[30.907147,29.995565],[30.905271,29.99428],[30.903852,29.996024],[30.90463,29.99659],[30.904432,29.996878],[30.905565,29.997504],[30.907147,29.995565]]],[[[30.909184,29.99357],[30.907486,29.992544],[30.907407,29.992994],[30.906225,29.994479],[30.9063,29.994672],[30.907637,29.995457],[30.909184,29.99357]]],[[[30.909184,29.99357],[30.910804,29.991592],[30.909159,29.990575],[30.907486,29.992544],[30.909184,29.99357]]],[[[30.892119,29.992525],[30.893821,29.99045],[30.88874,29.987167],[30.88803,29.988016],[30.887975,29.988754],[30.887539,29.988588],[30.886969,29.988993],[30.88944,29.990656],[30.889435,29.990914],[30.888637,29.991142],[30.887406,29.990732],[30.885744,29.990803],[30.885022,29.990629],[30.884395,29.990312],[30.883714,29.991086],[30.884036,29.991405],[30.883875,29.991609],[30.889872,29.995516],[30.892276,29.992622],[30.892119,29.992525]]],[[[30.905613,29.997927],[30.912528,30.00231],[30.913261,30.001451],[30.906356,29.99702],[30.905613,29.997927]]],[[[30.90027,29.986475],[30.898166,29.988957],[30.900345,29.990273],[30.902249,29.988077],[30.902204,29.987635],[30.90027,29.986475]]],[[[30.926796,29.964037],[30.925853,29.965284],[30.924972,29.967043],[30.922419,29.969979],[30.92055,29.971649],[30.919872,29.972507],[30.923733,29.974959],[30.925637,29.975629],[30.927858,29.977097],[30.934216,29.9699],[30.93141,29.968036],[30.930137,29.966381],[30.929024,29.965348],[30.927995,29.964644],[30.926796,29.964037]]],[[[30.879022,29.981096],[30.878448,29.980296],[30.875948,29.981044],[30.874726,29.980578],[30.873866,29.980542],[30.873722,29.978714],[30.871302,29.977213],[30.871203,29.976993],[30.867709,29.981047],[30.877267,29.987283],[30.881053,29.985581],[30.882963,29.983519],[30.879022,29.981096]]],[[[30.893407,29.990188],[30.903402,29.978732],[30.90066,29.97694],[30.890808,29.988504],[30.893407,29.990188]]],[[[30.896016,29.989271],[30.898122,29.986807],[30.899063,29.987402],[30.899843,29.986455],[30.899817,29.98624],[30.899429,29.985915],[30.897962,29.984988],[30.894886,29.988526],[30.896016,29.989271]]],[[[30.917786,29.99615],[30.910736,29.991676],[30.907637,29.995457],[30.907995,29.998132],[30.913261,30.001451],[30.917786,29.99615]]],[[[30.914297,29.968388],[30.911811,29.966649],[30.908557,29.967018],[30.895777,29.959081],[30.889681,29.966605],[30.889885,29.96865],[30.889995,29.968757],[30.904465,29.978086],[30.908691,29.980521],[30.909467,29.980661],[30.910417,29.980621],[30.911327,29.980352],[30.918784,29.9718],[30.915867,29.969883],[30.914297,29.968388]]],[[[30.895777,29.959081],[30.893861,29.95788],[30.887275,29.96536],[30.885243,29.966852],[30.889277,29.969502],[30.890016,29.968736],[30.889885,29.96865],[30.889681,29.966605],[30.895777,29.959081]]],[[[30.91217,29.9669],[30.91801,29.959474],[30.908754,29.953319],[30.901414,29.962614],[30.908557,29.967018],[30.911811,29.966649],[30.91217,29.9669]]],[[[30.926796,29.964037],[30.923534,29.961963],[30.921242,29.96144],[30.91801,29.959474],[30.914515,29.963918],[30.919423,29.966891],[30.922769,29.969584],[30.925049,29.966942],[30.925853,29.965284],[30.926796,29.964037]]],[[[30.908754,29.953319],[30.900525,29.94805],[30.893861,29.95788],[30.901414,29.962614],[30.908754,29.953319]]],[[[30.922769,29.969584],[30.919423,29.966891],[30.914515,29.963918],[30.91217,29.9669],[30.914297,29.968388],[30.915867,29.969883],[30.919872,29.972507],[30.92055,29.971649],[30.922769,29.969584]]],[[[30.932711,29.963693],[30.929212,29.96109],[30.926796,29.964037],[30.928149,29.964737],[30.929297,29.965571],[30.930279,29.966541],[30.93141,29.968036],[30.932051,29.968523],[30.936312,29.971244],[30.938585,29.968486],[30.93354,29.965353],[30.932711,29.963693]]],[[[30.944546,29.972383],[30.938585,29.968486],[30.936312,29.971244],[30.942482,29.975199],[30.944546,29.972383]]],[[[30.912045,29.951247],[30.907542,29.94815],[30.905828,29.947115],[30.903439,29.949916],[30.909775,29.953973],[30.912045,29.951247]]],[[[30.929212,29.96109],[30.925206,29.958777],[30.923399,29.958677],[30.920764,29.956846],[30.918493,29.959797],[30.921242,29.96144],[30.923534,29.961963],[30.926796,29.964037],[30.929212,29.96109]]],[[[30.920764,29.956846],[30.912045,29.951247],[30.909775,29.953973],[30.918493,29.959797],[30.920764,29.956846]]],[[[30.949963,29.979994],[30.934216,29.9699],[30.927858,29.977097],[30.928351,29.979631],[30.929601,29.980833],[30.942223,29.989015],[30.94698,29.983718],[30.949963,29.979994]]],[[[30.915418,29.978488],[30.921706,29.982409],[30.921988,29.984646],[30.92568,29.987125],[30.930652,29.981525],[30.929601,29.980833],[30.928351,29.979631],[30.927858,29.977097],[30.925637,29.975629],[30.923733,29.974959],[30.920542,29.972897],[30.915418,29.978488]]],[[[30.888308,29.969336],[30.889277,29.969502],[30.885243,29.966852],[30.882988,29.968156],[30.881759,29.968595],[30.882421,29.969394],[30.881766,29.969784],[30.880641,29.971103],[30.88368,29.973022],[30.886349,29.969983],[30.887253,29.969496],[30.888308,29.969336]]],[[[30.93357,29.912087],[30.931626,29.911316],[30.920949,29.923482],[30.929995,29.929024],[30.930314,29.929507],[30.930219,29.931462],[30.939393,29.942597],[30.939817,29.943347],[30.940725,29.945789],[30.942577,29.947924],[30.949408,29.945167],[30.936735,29.915125],[30.935975,29.91399],[30.934979,29.913003],[30.93357,29.912087]]],[[[30.949228,29.966519],[30.945203,29.963675],[30.944613,29.964437],[30.942856,29.965807],[30.947213,29.969051],[30.949228,29.966519]]],[[[30.939773,29.963511],[30.940764,29.962068],[30.941084,29.961035],[30.942864,29.959012],[30.943462,29.958141],[30.938468,29.955003],[30.938114,29.954119],[30.937043,29.953415],[30.930372,29.961937],[30.932711,29.963693],[30.93354,29.965353],[30.936656,29.967233],[30.939773,29.963511]]],[[[30.947213,29.969051],[30.939773,29.963511],[30.936656,29.967233],[30.944555,29.972389],[30.947213,29.969051]]],[[[30.947537,29.960656],[30.943462,29.958141],[30.942864,29.959012],[30.946877,29.961509],[30.947537,29.960656]]],[[[30.945203,29.963675],[30.941224,29.960862],[30.941084,29.961035],[30.940764,29.962068],[30.939773,29.963511],[30.942856,29.965807],[30.944613,29.964437],[30.945203,29.963675]]],[[[30.949228,29.966519],[30.951023,29.964087],[30.946877,29.961509],[30.945203,29.963675],[30.949228,29.966519]]],[[[30.946877,29.961509],[30.942864,29.959012],[30.941224,29.960862],[30.945203,29.963675],[30.946877,29.961509]]],[[[30.931624,29.960337],[30.930494,29.959638],[30.929212,29.96109],[30.930372,29.961937],[30.931624,29.960337]]],[[[30.954927,29.958498],[30.949392,29.955013],[30.946883,29.955045],[30.946135,29.955428],[30.943462,29.958141],[30.950531,29.962409],[30.950916,29.962893],[30.95102,29.964211],[30.954439,29.959531],[30.954452,29.958923],[30.954927,29.958498]]],[[[30.927189,29.937477],[30.922205,29.943406],[30.924217,29.944687],[30.92604,29.94665],[30.928056,29.947963],[30.930441,29.945192],[30.929349,29.939401],[30.928786,29.938467],[30.927189,29.937477]]],[[[30.946135,29.955428],[30.943816,29.95389],[30.942953,29.952564],[30.939311,29.950367],[30.936741,29.953216],[30.938114,29.954119],[30.938468,29.955003],[30.943462,29.958141],[30.946135,29.955428]]],[[[30.935561,29.952464],[30.938082,29.949625],[30.930441,29.945192],[30.928056,29.947963],[30.935561,29.952464]]],[[[30.928056,29.947963],[30.92604,29.94665],[30.924217,29.944687],[30.920835,29.942534],[30.91927,29.942676],[30.912053,29.951252],[30.92037,29.956593],[30.928056,29.947963]]],[[[30.929212,29.96109],[30.933194,29.956581],[30.933344,29.955705],[30.935972,29.95271],[30.928056,29.947963],[30.92037,29.956593],[30.923399,29.958677],[30.925206,29.958777],[30.929212,29.96109]]],[[[30.904418,29.946264],[30.907542,29.94815],[30.910076,29.949895],[30.91395,29.944108],[30.912471,29.94348],[30.908941,29.941064],[30.904418,29.946264]]],[[[30.915199,29.94075],[30.912169,29.937353],[30.908941,29.941064],[30.912471,29.94348],[30.91395,29.944108],[30.915907,29.941184],[30.915199,29.94075]]],[[[30.91696,29.945421],[30.91395,29.944108],[30.911612,29.947602],[30.913876,29.949086],[30.91696,29.945421]]],[[[30.91395,29.944108],[30.91696,29.945421],[30.91927,29.942676],[30.917635,29.942244],[30.915907,29.941184],[30.91395,29.944108]]],[[[30.913876,29.949086],[30.911612,29.947602],[30.910076,29.949895],[30.912053,29.951252],[30.913876,29.949086]]],[[[30.921969,29.934237],[30.919795,29.932888],[30.914099,29.939517],[30.915199,29.94075],[30.915764,29.941096],[30.921969,29.934237]]],[[[30.927189,29.937477],[30.924482,29.935797],[30.919204,29.942659],[30.920835,29.942534],[30.922205,29.943406],[30.927189,29.937477]]],[[[30.924482,29.935797],[30.921969,29.934237],[30.915764,29.941096],[30.917635,29.942244],[30.919204,29.942659],[30.924482,29.935797]]],[[[30.942577,29.947924],[30.94073,29.945797],[30.939817,29.943347],[30.939393,29.942597],[30.930219,29.931462],[30.930314,29.929507],[30.929995,29.929024],[30.926031,29.926579],[30.920291,29.933196],[30.928786,29.938467],[30.929349,29.939401],[30.930251,29.943831],[30.93036,29.945146],[30.938195,29.949693],[30.942577,29.947924]]],[[[30.949392,29.955013],[30.952935,29.950433],[30.95094,29.947986],[30.949408,29.945167],[30.938195,29.949693],[30.942953,29.952564],[30.943816,29.95389],[30.946135,29.955428],[30.946883,29.955045],[30.949392,29.955013]]],[[[30.926031,29.926579],[30.920949,29.923482],[30.916292,29.928779],[30.915543,29.930249],[30.920291,29.933196],[30.926031,29.926579]]],[[[30.954927,29.958498],[30.955492,29.957815],[30.95645,29.95846],[30.958661,29.958093],[30.960552,29.95595],[30.955493,29.952628],[30.952935,29.950433],[30.949392,29.955013],[30.954927,29.958498]]],[[[30.951377,29.905597],[30.94812,29.901808],[30.94794,29.901787],[30.947435,29.90207],[30.946812,29.901402],[30.946168,29.901177],[30.945477,29.901124],[30.936506,29.902392],[30.923183,29.904586],[30.922625,29.904798],[30.922189,29.905136],[30.921231,29.906532],[30.93107,29.91106],[30.934076,29.907365],[30.934778,29.906878],[30.93588,29.906415],[30.936758,29.906188],[30.93799,29.906063],[30.944613,29.905929],[30.951377,29.905597]]],[[[30.910292,29.884637],[30.920987,29.889439],[30.925521,29.881908],[30.914038,29.878511],[30.910292,29.884637]]],[[[30.937289,29.916579],[30.945929,29.913718],[30.945836,29.906388],[30.938031,29.906603],[30.936884,29.90672],[30.936085,29.906927],[30.935151,29.907316],[30.934513,29.907754],[30.931626,29.911316],[30.933785,29.9122],[30.935335,29.913313],[30.936626,29.914927],[30.937289,29.916579]]],[[[30.948638,29.927729],[30.943288,29.914593],[30.937289,29.916579],[30.942789,29.929433],[30.948638,29.927729]]],[[[30.923319,29.903826],[30.943604,29.900611],[30.946696,29.899987],[30.945356,29.898012],[30.934855,29.885015],[30.933874,29.884361],[30.925521,29.881908],[30.91354,29.901804],[30.916752,29.903254],[30.918676,29.903817],[30.920994,29.90405],[30.923319,29.903826]]],[[[31.020789,29.868684],[31.020004,29.86681],[31.013264,29.866959],[31.002915,29.872962],[31.004807,29.875091],[31.020789,29.868684]]],[[[31.036837,29.919039],[31.050984,29.917077],[31.047275,29.901719],[31.046951,29.901377],[31.046501,29.901173],[31.046164,29.901129],[31.035007,29.909764],[31.037674,29.912349],[31.036495,29.914838],[31.036302,29.915673],[31.03632,29.916902],[31.036837,29.919039]]],[[[31.057781,29.896465],[31.061953,29.893077],[31.063043,29.892447],[31.073942,29.889511],[31.078746,29.888488],[31.079473,29.888694],[31.080064,29.889117],[31.080383,29.889573],[31.080774,29.890535],[31.08166,29.890265],[31.075615,29.875243],[31.04865,29.896458],[31.049129,29.898502],[31.053006,29.895449],[31.054181,29.894927],[31.055311,29.894858],[31.056309,29.895113],[31.057151,29.895644],[31.057781,29.896465]]],[[[30.975497,29.947069],[30.98146,29.940447],[30.98057,29.938705],[30.979878,29.93797],[30.969004,29.92989],[30.968156,29.929854],[30.955626,29.933948],[30.975497,29.947069]]],[[[30.949954,29.931634],[30.948646,29.928606],[30.943124,29.930215],[30.94443,29.933314],[30.949954,29.931634]]],[[[30.912211,29.899679],[30.914499,29.89604],[30.914666,29.896117],[30.914859,29.895846],[30.911234,29.894139],[30.911301,29.89402],[30.905959,29.891722],[30.914038,29.878511],[30.905831,29.876083],[30.894649,29.894254],[30.912985,29.902724],[30.914226,29.900664],[30.912211,29.899679]]],[[[30.894649,29.894254],[30.905831,29.876083],[30.895517,29.873032],[30.891633,29.879573],[30.887318,29.877513],[30.886953,29.877476],[30.886627,29.877623],[30.881967,29.885527],[30.887761,29.888317],[30.886477,29.890478],[30.894649,29.894254]]],[[[30.923315,29.90456],[30.92051,29.904617],[30.918803,29.904456],[30.918507,29.904986],[30.9214,29.906333],[30.92227,29.905056],[30.922742,29.904738],[30.923315,29.90456]]],[[[30.996945,29.942121],[31.004897,29.936111],[31.00235,29.933562],[30.995745,29.931903],[30.992998,29.927962],[30.987135,29.930978],[30.991792,29.937657],[30.991762,29.938163],[30.99133,29.938665],[30.990249,29.938462],[30.989833,29.940606],[30.993119,29.93948],[30.993894,29.939468],[30.994642,29.93989],[30.996155,29.942071],[30.996542,29.942185],[30.996945,29.942121]]],[[[31.075615,29.875243],[31.074492,29.872422],[31.045458,29.883498],[31.04865,29.896458],[31.075615,29.875243]]],[[[31.046519,29.900855],[31.045153,29.899515],[31.024102,29.916293],[31.022462,29.917299],[31.020608,29.918039],[31.021769,29.918725],[31.024147,29.917914],[31.025362,29.917202],[31.046519,29.900855]]],[[[30.989339,29.929808],[30.996041,29.926425],[30.996874,29.92625],[31.009692,29.929429],[31.011404,29.931163],[31.012421,29.930387],[31.010367,29.928493],[30.98846,29.922392],[30.976319,29.927824],[30.975578,29.928255],[30.975272,29.927789],[30.974523,29.92743],[30.973677,29.927322],[30.972915,29.927454],[30.971938,29.928304],[30.970038,29.930625],[30.977413,29.936141],[30.989339,29.929808]]],[[[30.971391,29.9444],[30.955626,29.933948],[30.954793,29.934295],[30.95418,29.934873],[30.953959,29.935494],[30.954105,29.936451],[30.954802,29.937812],[30.955705,29.938923],[30.957028,29.939934],[30.958517,29.940805],[30.965224,29.945229],[30.966037,29.944311],[30.969552,29.946463],[30.971391,29.9444]]],[[[30.964233,29.914654],[30.965865,29.913807],[30.967442,29.916295],[30.980632,29.909755],[30.981292,29.909147],[30.981614,29.908322],[30.981226,29.904797],[30.979745,29.905183],[30.977446,29.905299],[30.977496,29.905378],[30.949266,29.906198],[30.945836,29.906388],[30.945929,29.913718],[30.953866,29.91109],[30.955489,29.914805],[30.958028,29.913937],[30.959129,29.916365],[30.964233,29.914654]]],[[[31.010367,29.928493],[31.018316,29.920067],[31.020954,29.919724],[31.003998,29.914745],[31.001986,29.920357],[30.991152,29.917509],[30.989491,29.922677],[31.010367,29.928493]]],[[[31.066388,29.912112],[31.060625,29.906721],[31.057142,29.906985],[31.057629,29.910132],[31.058136,29.911015],[31.06269,29.915083],[31.066388,29.912112]]],[[[30.988192,29.941167],[30.989833,29.940606],[30.990249,29.938462],[30.99133,29.938665],[30.991734,29.938222],[30.991817,29.937783],[30.987135,29.930978],[30.977413,29.936141],[30.980295,29.938375],[30.980882,29.939176],[30.98146,29.940447],[30.987217,29.941341],[30.988192,29.941167]]],[[[31.057736,29.910451],[31.057142,29.906985],[31.051212,29.907437],[31.054524,29.921645],[31.06269,29.915083],[31.058053,29.910931],[31.057736,29.910451]]],[[[31.084648,29.897684],[31.082621,29.892653],[31.076252,29.894715],[31.069849,29.899882],[31.075278,29.905025],[31.084648,29.897684]]],[[[31.065551,29.900352],[31.065573,29.898609],[31.06009,29.898465],[31.059121,29.897977],[31.057781,29.896465],[31.055864,29.897914],[31.055488,29.898404],[31.055264,29.899059],[31.055285,29.899728],[31.056656,29.905088],[31.059916,29.904733],[31.060651,29.904482],[31.065265,29.900767],[31.065551,29.900352]]],[[[31.069849,29.899882],[31.075991,29.894883],[31.076539,29.894582],[31.077317,29.894368],[31.07623,29.891824],[31.080774,29.890535],[31.080282,29.889392],[31.079731,29.88884],[31.079193,29.888583],[31.078516,29.888474],[31.073942,29.889511],[31.063442,29.892293],[31.062037,29.893016],[31.057781,29.896465],[31.059121,29.897977],[31.059971,29.898431],[31.060709,29.898548],[31.068286,29.898664],[31.068961,29.898954],[31.069849,29.899882]]],[[[31.082621,29.892653],[31.08166,29.890265],[31.07623,29.891824],[31.077317,29.894368],[31.082621,29.892653]]],[[[31.068766,29.910197],[31.063222,29.905161],[31.061878,29.906237],[31.060625,29.906721],[31.066388,29.912112],[31.068766,29.910197]]],[[[31.071436,29.901386],[31.069849,29.899882],[31.063222,29.905161],[31.066141,29.907812],[31.069742,29.904913],[31.069011,29.90422],[31.070377,29.902205],[31.071436,29.901386]]],[[[31.075278,29.905025],[31.071436,29.901386],[31.070377,29.902205],[31.069011,29.90422],[31.069742,29.904913],[31.066141,29.907812],[31.068766,29.910197],[31.075278,29.905025]]],[[[31.05432,29.904827],[31.050669,29.905109],[31.051212,29.907437],[31.054916,29.907155],[31.05432,29.904827]]],[[[31.050669,29.905109],[31.056546,29.90466],[31.05554,29.900725],[31.050548,29.900957],[31.049995,29.901325],[31.049867,29.90167],[31.050669,29.905109]]],[[[31.053313,29.895255],[31.049129,29.898502],[31.049867,29.90167],[31.050071,29.901229],[31.050548,29.900957],[31.05554,29.900725],[31.055244,29.899394],[31.055488,29.898404],[31.055957,29.897828],[31.057781,29.896465],[31.0574,29.895895],[31.056869,29.895422],[31.056223,29.895078],[31.055499,29.894882],[31.054742,29.894846],[31.053999,29.894973],[31.053313,29.895255]]],[[[31.037674,29.912349],[31.035007,29.909764],[31.025362,29.917202],[31.024147,29.917914],[31.021071,29.918981],[31.036286,29.928177],[31.038526,29.925279],[31.038148,29.92485],[31.037918,29.924348],[31.036277,29.916525],[31.036302,29.915673],[31.036495,29.914838],[31.037674,29.912349]]],[[[31.052486,29.923299],[31.050984,29.917077],[31.040916,29.918474],[31.041448,29.92205],[31.04193,29.922999],[31.042519,29.92351],[31.04795,29.927006],[31.052486,29.923299]]],[[[31.043203,29.930611],[31.04795,29.927006],[31.044352,29.924682],[31.042298,29.926352],[31.041545,29.926592],[31.040754,29.926479],[31.038526,29.925279],[31.036286,29.928177],[31.038191,29.929389],[31.039366,29.929284],[31.040007,29.929346],[31.041559,29.930575],[31.042054,29.930712],[31.043203,29.930611]]],[[[31.004897,29.936111],[31.011404,29.931163],[31.009692,29.929429],[30.997018,29.926258],[30.996105,29.926396],[30.992998,29.927962],[30.995745,29.931903],[31.00235,29.933562],[31.004897,29.936111]]],[[[30.936133,29.993916],[30.940892,29.988161],[30.930652,29.981525],[30.923092,29.99004],[30.929957,29.994377],[30.931237,29.992867],[30.93317,29.992588],[30.934546,29.993494],[30.9354,29.993372],[30.936133,29.993916]]],[[[31.037346,29.928818],[31.022063,29.91958],[31.018316,29.920067],[31.010367,29.928493],[31.012421,29.930387],[31.013073,29.930136],[31.016472,29.930159],[31.017365,29.930479],[31.018254,29.931246],[31.018903,29.932538],[31.019532,29.933349],[31.020462,29.934095],[31.021113,29.93441],[31.021776,29.934539],[31.030036,29.93496],[31.037346,29.928818]]],[[[30.995703,29.947336],[30.995344,29.947776],[30.995358,29.948087],[30.995841,29.948651],[30.996611,29.949072],[30.997362,29.949252],[30.998142,29.949253],[30.998894,29.949075],[30.999666,29.948657],[31.000005,29.948969],[31.001659,29.947672],[31.002004,29.948011],[31.0055,29.945267],[31.008427,29.945207],[31.009273,29.944958],[31.014478,29.940903],[31.00771,29.933972],[30.996934,29.942125],[30.996861,29.94442],[30.99601,29.945796],[30.995703,29.947336]]],[[[30.904946,29.984784],[30.900429,29.982152],[30.897962,29.984988],[30.899839,29.986276],[30.902419,29.987764],[30.904946,29.984784]]],[[[30.915088,29.986365],[30.9129,29.984936],[30.912296,29.985699],[30.911645,29.985919],[30.911201,29.985828],[30.909746,29.984934],[30.909505,29.984906],[30.90615,29.988714],[30.910804,29.991592],[30.915088,29.986365]]],[[[30.9083,29.991586],[30.905426,29.989713],[30.904759,29.990612],[30.904909,29.990894],[30.907486,29.992544],[30.9083,29.991586]]],[[[30.904478,29.990951],[30.904261,29.991069],[30.902737,29.992919],[30.903143,29.993623],[30.903911,29.993692],[30.904142,29.993156],[30.905406,29.991684],[30.905314,29.991375],[30.904722,29.990986],[30.904478,29.990951]]],[[[30.895983,30.05722],[30.904639,30.05583],[30.904909,30.054479],[30.89319,30.054311],[30.893028,30.056791],[30.893972,30.056787],[30.894648,30.057027],[30.894906,30.057241],[30.895983,30.05722]]],[[[30.939311,29.950367],[30.938082,29.949625],[30.937288,29.95052],[30.938487,29.95128],[30.939311,29.950367]]],[[[30.933767,29.9576],[30.932804,29.957023],[30.931758,29.958208],[30.932796,29.958841],[30.933767,29.9576]]],[[[30.949474,29.961791],[30.947537,29.960656],[30.946877,29.961509],[30.948718,29.962654],[30.949474,29.961791]]],[[[30.922351,29.990874],[30.915088,29.986365],[30.910736,29.991676],[30.917786,29.99615],[30.922351,29.990874]]],[[[30.912074,30.002022],[30.903505,29.996591],[30.902616,29.997541],[30.900115,29.997117],[30.899608,29.996781],[30.899772,29.995735],[30.900344,29.994586],[30.893821,29.99045],[30.892119,29.992525],[30.895442,29.994593],[30.89528,29.995792],[30.895701,29.99704],[30.894156,29.998562],[30.907404,30.007041],[30.908235,30.006183],[30.908495,30.006142],[30.912074,30.002022]]],[[[31.041497,29.922229],[31.041349,29.921208],[31.037405,29.921828],[31.037847,29.924],[31.041497,29.922229]]],[[[31.04193,29.922999],[31.039089,29.925633],[31.041042,29.926563],[31.041645,29.926581],[31.042298,29.926352],[31.044352,29.924682],[31.042409,29.923436],[31.04193,29.922999]]],[[[30.963208,29.952881],[30.961759,29.951885],[30.959503,29.955264],[30.960653,29.956016],[30.961499,29.954974],[30.961491,29.954783],[30.963208,29.952881]]],[[[30.919795,29.932888],[30.917364,29.931379],[30.912169,29.937353],[30.914099,29.939517],[30.919795,29.932888]]],[[[30.980579,29.950887],[30.98436,29.946735],[30.988368,29.947508],[30.988801,29.945588],[30.988307,29.943444],[30.98868,29.941],[30.987866,29.94129],[30.987292,29.941347],[30.98146,29.940447],[30.978896,29.943294],[30.981663,29.94512],[30.978015,29.94915],[30.980579,29.950887]]],[[[30.975889,29.947324],[30.971391,29.9444],[30.964796,29.951796],[30.969299,29.954724],[30.975889,29.947324]]],[[[30.92568,29.987125],[30.921988,29.984646],[30.920055,29.984889],[30.918766,29.98421],[30.917108,29.985951],[30.923092,29.99004],[30.92568,29.987125]]],[[[30.918766,29.98421],[30.916348,29.982537],[30.918188,29.980215],[30.915418,29.978488],[30.913003,29.981162],[30.912837,29.982146],[30.913133,29.983106],[30.913566,29.983654],[30.917108,29.985951],[30.918766,29.98421]]],[[[30.918188,29.980215],[30.916348,29.982537],[30.918766,29.98421],[30.920055,29.984889],[30.921988,29.984646],[30.921706,29.982409],[30.918188,29.980215]]],[[[30.936133,29.993916],[30.9354,29.993372],[30.934546,29.993494],[30.93317,29.992588],[30.931237,29.992867],[30.929957,29.994377],[30.932129,29.995738],[30.932772,29.995942],[30.933455,29.995977],[30.934247,29.995795],[30.93482,29.99547],[30.936133,29.993916]]],[[[30.900429,29.982152],[30.904946,29.984784],[30.906368,29.98301],[30.906271,29.982764],[30.904886,29.981869],[30.904596,29.981463],[30.904635,29.98086],[30.905314,29.979981],[30.903402,29.978732],[30.900429,29.982152]]],[[[30.920987,29.889439],[30.910292,29.884637],[30.908632,29.887352],[30.919267,29.892295],[30.920987,29.889439]]],[[[30.888031,30.066667],[30.888055,30.064068],[30.887611,30.063655],[30.885037,30.063721],[30.883699,30.063881],[30.882445,30.063786],[30.880988,30.063297],[30.879774,30.06252],[30.878993,30.063433],[30.877549,30.064209],[30.877855,30.064339],[30.878114,30.064869],[30.878429,30.065169],[30.878857,30.065333],[30.880296,30.065459],[30.881295,30.066518],[30.881666,30.066691],[30.888031,30.066667]]]]}},{"type":"Feature","properties":{"landuse_value":2,"landuse_code":2,"landuse_label":null,"source_feature_count":32,"area_km2":191.482061},"geometry":{"type":"MultiPolygon","coordinates":[[[[30.894789,29.894319],[30.884328,29.889485],[30.88359,29.89037],[30.893046,29.896348],[30.894789,29.894319]]],[[[30.907995,29.998132],[30.906356,29.99702],[30.905613,29.997927],[30.903505,29.996591],[30.902616,29.997541],[30.900115,29.997117],[30.899608,29.996781],[30.899772,29.995735],[30.900344,29.994586],[30.893407,29.990188],[30.894886,29.988526],[30.896016,29.989271],[30.898122,29.986807],[30.899063,29.987402],[30.899825,29.986488],[30.899839,29.986276],[30.900188,29.986485],[30.898166,29.988957],[30.900345,29.990273],[30.902249,29.988077],[30.902204,29.987635],[30.902419,29.987764],[30.902654,29.987519],[30.906349,29.983068],[30.906295,29.982785],[30.904886,29.981869],[30.904596,29.981463],[30.904635,29.98086],[30.905314,29.979981],[30.9129,29.984936],[30.912296,29.985699],[30.911645,29.985919],[30.911201,29.985828],[30.909724,29.984923],[30.909436,29.984932],[30.90615,29.988714],[30.909159,29.990575],[30.9083,29.991586],[30.905426,29.989713],[30.904779,29.990497],[30.904909,29.990894],[30.907486,29.992544],[30.907407,29.992994],[30.906225,29.994505],[30.9063,29.994672],[30.907637,29.995457],[30.907995,29.998132]],[[30.907147,29.995565],[30.905271,29.99428],[30.903852,29.996024],[30.90463,29.99659],[30.904432,29.996878],[30.905565,29.997504],[30.907147,29.995565]],[[30.905362,29.991419],[30.904514,29.990947],[30.904285,29.991044],[30.902737,29.992919],[30.903143,29.993623],[30.903911,29.993692],[30.904142,29.993156],[30.90539,29.991715],[30.905362,29.991419]]],[[[30.913003,29.981162],[30.920542,29.972897],[30.918784,29.9718],[30.911327,29.980352],[30.910417,29.980621],[30.909467,29.980661],[30.908691,29.980521],[30.904465,29.978086],[30.889995,29.968757],[30.889277,29.969502],[30.915691,29.986759],[30.922351,29.990874],[30.923092,29.99004],[30.913503,29.983592],[30.913133,29.983106],[30.912885,29.982477],[30.91284,29.981812],[30.913003,29.981162]]],[[[30.905828,29.947115],[30.90267,29.945209],[30.900525,29.94805],[30.903439,29.949916],[30.905828,29.947115]]],[[[30.867709,29.981047],[30.871203,29.976993],[30.871302,29.977213],[30.873722,29.978714],[30.873788,29.980445],[30.873891,29.980552],[30.874726,29.980578],[30.875635,29.980987],[30.876007,29.981041],[30.878448,29.980296],[30.878382,29.979486],[30.878677,29.9788],[30.88368,29.973022],[30.880641,29.971103],[30.881766,29.969784],[30.882421,29.969394],[30.881759,29.968595],[30.879422,29.969531],[30.877464,29.970096],[30.875529,29.970829],[30.873339,29.971963],[30.869995,29.974511],[30.865531,29.979671],[30.867709,29.981047]]],[[[30.949474,29.961791],[30.948718,29.962654],[30.951023,29.964087],[30.950916,29.962893],[30.950531,29.962409],[30.949474,29.961791]]],[[[30.917364,29.931379],[30.915543,29.930249],[30.915303,29.93084],[30.91088,29.936006],[30.912514,29.936956],[30.917364,29.931379]]],[[[30.912514,29.936956],[30.91088,29.936006],[30.90267,29.945209],[30.904418,29.946264],[30.912514,29.936956]]],[[[30.849925,30.067425],[30.846049,30.067412],[30.846135,30.018259],[30.847124,30.008293],[30.849433,30.001199],[30.850246,29.99935],[30.851837,29.996512],[30.854889,29.991984],[30.871656,30.00305],[30.897672,30.019888],[30.897673,30.041321],[30.897566,30.041396],[30.897566,30.043045],[30.899449,30.044497],[30.900416,30.045486],[30.901271,30.045557],[30.902525,30.045405],[30.904302,30.045433],[30.907043,30.046623],[30.906887,30.055686],[30.896618,30.057765],[30.894669,30.057876],[30.893268,30.057667],[30.89194,30.057222],[30.891321,30.056917],[30.889267,30.055275],[30.888466,30.054915],[30.887593,30.054714],[30.883452,30.05469],[30.881042,30.05637],[30.876684,30.055488],[30.873936,30.054657],[30.871263,30.053658],[30.869149,30.053202],[30.867467,30.053019],[30.865773,30.052988],[30.864084,30.05311],[30.862418,30.053383],[30.859892,30.054111],[30.857534,30.055186],[30.855408,30.056579],[30.853419,30.058418],[30.85195,30.060349],[30.850781,30.06266],[30.850101,30.065115],[30.849925,30.067425]],[[30.870293,30.040758],[30.869124,30.040955],[30.868128,30.041525],[30.867459,30.042383],[30.867216,30.043398],[30.867437,30.044417],[30.868089,30.045285],[30.869072,30.045871],[30.87029,30.046087],[30.871456,30.04589],[30.872452,30.045323],[30.873149,30.044419],[30.873372,30.043424],[30.873142,30.042412],[30.872471,30.041539],[30.871482,30.040964],[30.870293,30.040758]],[[30.861464,30.042591],[30.862583,30.042416],[30.863539,30.041882],[30.864188,30.041071],[30.86443,30.040105],[30.864229,30.039132],[30.863616,30.0383],[30.862683,30.037736],[30.861573,30.037525],[30.860455,30.037699],[30.859499,30.038233],[30.85885,30.039045],[30.858607,30.04001],[30.858808,30.040983],[30.859421,30.041815],[30.860354,30.04238],[30.861464,30.042591]],[[30.857216,30.042595],[30.857118,30.04095],[30.856526,30.040941],[30.85647,30.03945],[30.851669,30.039219],[30.852117,30.045437],[30.865717,30.046],[30.865422,30.042954],[30.857216,30.042595]],[[30.859337,30.031332],[30.858072,30.031454],[30.857036,30.031952],[30.856277,30.032763],[30.855923,30.033779],[30.856045,30.034912],[30.856569,30.035851],[30.857473,30.036544],[30.858723,30.036888],[30.859998,30.036751],[30.861039,30.036215],[30.861835,30.03529],[30.862165,30.034305],[30.862039,30.033238],[30.861449,30.032297],[30.860489,30.031626],[30.859337,30.031332]],[[30.895697,30.057234],[30.904639,30.05583],[30.904909,30.054479],[30.89319,30.054311],[30.893028,30.056791],[30.893972,30.056787],[30.894648,30.057027],[30.894906,30.057241],[30.895697,30.057234]]],[[[30.945356,29.898012],[30.935365,29.885525],[30.934697,29.884886],[30.933899,29.884373],[30.901627,29.874839],[30.912489,29.856735],[30.918283,29.864285],[30.922092,29.863213],[30.925791,29.862384],[30.928921,29.861877],[30.933273,29.861417],[30.947593,29.860845],[30.965945,29.860326],[31.032108,29.828999],[31.034743,29.827896],[31.038448,29.826542],[31.04168,29.825572],[31.044311,29.824978],[31.069291,29.863049],[31.071044,29.866496],[31.06728,29.867881],[31.058667,29.868046],[31.05714,29.868236],[31.04533,29.873733],[30.990089,29.899919],[30.980084,29.904538],[30.978407,29.904809],[30.951377,29.905597],[30.948146,29.901832],[30.947923,29.901794],[30.945356,29.898012]],[[31.013264,29.866959],[31.002915,29.872962],[31.004807,29.875091],[31.020789,29.868684],[31.020004,29.86681],[31.013264,29.866959]]],[[[31.073775,29.870621],[31.071659,29.866857],[31.067412,29.868419],[31.058718,29.868586],[31.057338,29.868758],[31.055945,29.869339],[31.043428,29.875253],[31.045458,29.883498],[31.074492,29.872422],[31.073775,29.870621]]],[[[30.970035,29.928989],[30.964233,29.914654],[30.959129,29.916365],[30.958028,29.913937],[30.955489,29.914805],[30.953866,29.91109],[30.943288,29.914593],[30.948638,29.927729],[30.95262,29.926569],[30.955626,29.933948],[30.968542,29.9298],[30.968547,29.929396],[30.970035,29.928989]]],[[[30.970038,29.930625],[30.971938,29.928304],[30.972915,29.927454],[30.973677,29.927322],[30.974523,29.92743],[30.975272,29.927789],[30.975578,29.928255],[30.976319,29.927824],[30.972052,29.921335],[30.973318,29.920495],[30.970946,29.917479],[30.981708,29.912145],[30.980318,29.909913],[30.967442,29.916295],[30.965865,29.913807],[30.964233,29.914654],[30.970035,29.928989],[30.968547,29.929396],[30.968542,29.9298],[30.969144,29.929956],[30.970038,29.930625]]],[[[31.060625,29.906721],[31.061405,29.906485],[31.062095,29.906089],[31.069849,29.899882],[31.069009,29.898993],[31.068218,29.898654],[31.065573,29.898609],[31.065606,29.900114],[31.065397,29.900625],[31.060813,29.904378],[31.059987,29.904722],[31.056656,29.905088],[31.057142,29.906985],[31.060625,29.906721]]],[[[31.024102,29.916293],[31.045153,29.899515],[31.046519,29.900855],[31.049198,29.898797],[31.043428,29.875253],[30.985678,29.902603],[30.995049,29.911425],[30.996615,29.912483],[30.997733,29.912913],[30.998771,29.913138],[31.020954,29.919724],[31.022063,29.91958],[31.021071,29.918981],[31.021769,29.918725],[31.020608,29.918039],[31.022462,29.917299],[31.024102,29.916293]]],[[[30.892311,29.992644],[30.889872,29.995516],[30.894156,29.998562],[30.895701,29.99704],[30.89528,29.995792],[30.895442,29.994593],[30.892311,29.992644]]],[[[30.937043,29.953415],[30.935972,29.95271],[30.933344,29.955705],[30.933194,29.956581],[30.932804,29.957023],[30.933767,29.9576],[30.937043,29.953415]]],[[[30.938487,29.95128],[30.937288,29.95052],[30.935561,29.952464],[30.936741,29.953216],[30.938487,29.95128]]],[[[30.969299,29.954724],[30.964796,29.951796],[30.969552,29.946463],[30.966037,29.944311],[30.965224,29.945229],[30.958517,29.940805],[30.957028,29.939934],[30.955921,29.939107],[30.955297,29.938481],[30.954658,29.937578],[30.954145,29.936552],[30.953959,29.935494],[30.954054,29.93507],[30.9545,29.934518],[30.955009,29.934171],[30.955626,29.933948],[30.95262,29.926569],[30.942789,29.929433],[30.943124,29.930215],[30.948646,29.928606],[30.949954,29.931634],[30.94443,29.933314],[30.94991,29.946243],[30.951453,29.948705],[30.95343,29.950923],[30.955522,29.952649],[30.959503,29.955264],[30.961759,29.951885],[30.963208,29.952881],[30.961491,29.954783],[30.961499,29.954974],[30.960653,29.956016],[30.965386,29.959112],[30.969299,29.954724]]],[[[30.883714,29.991086],[30.884395,29.990312],[30.885497,29.990764],[30.886243,29.990827],[30.887406,29.990732],[30.88858,29.991139],[30.889343,29.990973],[30.88944,29.990656],[30.886969,29.988993],[30.887539,29.988588],[30.887975,29.988754],[30.88803,29.988016],[30.88874,29.987167],[30.882963,29.983519],[30.881053,29.985581],[30.877267,29.987283],[30.883875,29.991609],[30.884036,29.991405],[30.883714,29.991086]]],[[[30.840398,29.940819],[30.834886,29.937582],[30.822278,29.95207],[30.837688,29.961936],[30.842599,29.95594],[30.847542,29.9496],[30.838089,29.943534],[30.840398,29.940819]]],[[[30.85029,29.99775],[30.84867,30.000906],[30.848418,30.001883],[30.847568,30.003966],[30.846432,30.007896],[30.845559,30.012639],[30.845354,30.023247],[30.845412,30.060658],[30.845283,30.06739],[30.793926,30.065924],[30.793994,30.035127],[30.786837,30.035007],[30.788084,29.982335],[30.808063,29.98281],[30.808636,29.979203],[30.807406,29.979004],[30.807813,29.977427],[30.810861,29.979551],[30.811761,29.978497],[30.812499,29.978872],[30.81418,29.976227],[30.819099,29.977969],[30.818923,29.978214],[30.822922,29.979822],[30.823892,29.980019],[30.824652,29.980093],[30.826221,29.978092],[30.829929,29.980649],[30.831408,29.978948],[30.832375,29.979641],[30.832866,29.979016],[30.831938,29.978338],[30.832236,29.977995],[30.827057,29.97435],[30.826224,29.975108],[30.823458,29.97354],[30.821141,29.975844],[30.818093,29.974757],[30.819533,29.972999],[30.816056,29.970962],[30.81584,29.973937],[30.813174,29.974071],[30.813102,29.974395],[30.812708,29.974331],[30.812673,29.973948],[30.811939,29.97342],[30.812017,29.97283],[30.810769,29.972752],[30.810774,29.972523],[30.810073,29.972473],[30.810146,29.972169],[30.809421,29.972195],[30.80946,29.971451],[30.808408,29.9711],[30.809991,29.96883],[30.81318,29.964741],[30.838663,29.981271],[30.854232,29.991551],[30.851992,29.994803],[30.85029,29.99775]],[[30.843278,29.996007],[30.845459,29.996615],[30.847397,29.992198],[30.84609,29.991794],[30.844162,29.991667],[30.844058,29.99241],[30.842748,29.992122],[30.841567,29.994012],[30.843658,29.994676],[30.843278,29.996007]],[[30.845876,29.996097],[30.847325,29.99655],[30.848276,29.994708],[30.846632,29.994255],[30.845876,29.996097]],[[30.834363,29.995535],[30.835506,29.995357],[30.836483,29.994811],[30.837146,29.993982],[30.837394,29.992994],[30.837189,29.991999],[30.836563,29.991149],[30.83561,29.990571],[30.834475,29.990355],[30.833332,29.990534],[30.832355,29.991079],[30.831692,29.991909],[30.831444,29.992896],[30.831649,29.993891],[30.832275,29.994742],[30.833229,29.995319],[30.834363,29.995535]],[[30.831971,29.990458],[30.831206,29.989853],[30.829006,29.989953],[30.828834,29.989818],[30.827464,29.991585],[30.829105,29.992717],[30.831971,29.990458]],[[30.836247,29.990208],[30.837159,29.987626],[30.837349,29.987614],[30.837439,29.987458],[30.838698,29.987816],[30.838967,29.987176],[30.839481,29.987357],[30.840923,29.984411],[30.837752,29.982927],[30.837176,29.984219],[30.83869,29.984854],[30.838076,29.985989],[30.835467,29.984734],[30.834445,29.98634],[30.833871,29.986483],[30.833361,29.987735],[30.832463,29.987682],[30.832249,29.98745],[30.831527,29.987381],[30.831476,29.987666],[30.830708,29.987692],[30.829473,29.989027],[30.831369,29.98973],[30.832669,29.989328],[30.832731,29.989174],[30.836247,29.990208]],[[30.827126,29.98682],[30.825289,29.9865],[30.824783,29.986309],[30.823376,29.98621],[30.82091,29.984623],[30.819879,29.986048],[30.825258,29.990043],[30.826824,29.988539],[30.828652,29.989073],[30.829281,29.988069],[30.829278,29.987644],[30.829463,29.987652],[30.829444,29.987237],[30.82893,29.987008],[30.828491,29.986998],[30.828499,29.987125],[30.827578,29.98712],[30.827576,29.986977],[30.827125,29.986967],[30.827126,29.98682],[30.830751,29.986803],[30.830836,29.986017],[30.828443,29.985617],[30.827359,29.985616],[30.827126,29.98682]]],[[[31.054524,29.921645],[31.049198,29.898797],[31.046164,29.901129],[31.046812,29.901292],[31.047275,29.901719],[31.052486,29.923299],[31.054524,29.921645]]],[[[30.914226,29.900664],[30.919267,29.892295],[30.908632,29.887352],[30.905959,29.891722],[30.911301,29.89402],[30.911234,29.894139],[30.914859,29.895846],[30.914666,29.896117],[30.914499,29.89604],[30.912211,29.899679],[30.914226,29.900664]]],[[[31.056546,29.90466],[31.05432,29.904827],[31.054916,29.907155],[31.057142,29.906985],[31.056546,29.90466]]],[[[31.04193,29.922999],[31.041497,29.922229],[31.037847,29.924],[31.038148,29.92485],[31.038526,29.925279],[31.039089,29.925633],[31.04193,29.922999]]],[[[31.041349,29.921208],[31.040916,29.918474],[31.036837,29.919039],[31.037405,29.921828],[31.041349,29.921208]]],[[[31.015799,29.938922],[31.018962,29.936495],[31.020462,29.934095],[31.019299,29.933092],[31.018254,29.931246],[31.017281,29.930435],[31.016472,29.930159],[31.012837,29.930178],[31.012467,29.930353],[31.00771,29.933972],[31.013133,29.939502],[31.015715,29.938353],[31.015799,29.938922]]],[[[30.930494,29.959638],[30.931624,29.960337],[30.932796,29.958841],[30.931758,29.958208],[30.930494,29.959638]]],[[[30.992494,29.94705],[30.995346,29.945637],[30.99601,29.945796],[30.996861,29.94442],[30.996934,29.942125],[30.996537,29.942184],[30.996155,29.942071],[30.994642,29.93989],[30.99423,29.939586],[30.993717,29.939437],[30.993061,29.939496],[30.98868,29.941],[30.98835,29.942899],[30.988348,29.943863],[30.988795,29.945356],[30.988669,29.946419],[30.99082,29.947168],[30.992494,29.94705]]],[[[30.978015,29.94915],[30.981663,29.94512],[30.978896,29.943294],[30.975497,29.947069],[30.975889,29.947324],[30.975675,29.947565],[30.978015,29.94915]]],[[[30.897507,30.067948],[30.859719,30.067458],[30.849925,30.067425],[30.84993,30.066793],[30.850224,30.064492],[30.850943,30.062263],[30.852068,30.060165],[30.85357,30.058253],[30.855408,30.056579],[30.857534,30.055186],[30.859892,30.054111],[30.862654,30.053335],[30.864324,30.053083],[30.866015,30.052983],[30.867709,30.053036],[30.869387,30.053241],[30.871263,30.053658],[30.873936,30.054657],[30.876684,30.055488],[30.881042,30.05637],[30.883452,30.05469],[30.887593,30.054714],[30.888466,30.054915],[30.889267,30.055275],[30.891321,30.056917],[30.89194,30.057222],[30.893268,30.057667],[30.894669,30.057876],[30.896618,30.057765],[30.906887,30.055686],[30.906745,30.063919],[30.897565,30.063774],[30.897507,30.067948]],[[30.888031,30.066667],[30.888055,30.064068],[30.887611,30.063655],[30.885037,30.063721],[30.883699,30.063881],[30.882445,30.063786],[30.880988,30.063297],[30.879774,30.06252],[30.878993,30.063433],[30.877549,30.064209],[30.877855,30.064339],[30.878114,30.064869],[30.878429,30.065169],[30.878857,30.065333],[30.880296,30.065459],[30.881295,30.066518],[30.881666,30.066691],[30.888031,30.066667]]]]}}]}