{"type":"FeatureCollection","features":[{"type":"Feature","properties":{"landuse_value":2,"landuse_code":2,"landuse_label":null,"source_feature_count":54,"area_km2":242.106927},"geometry":{"type":"MultiPolygon","coordinates":[[[[30.90715,30.04672],[30.90441,30.045531],[30.902633,30.045502],[30.901378,30.045654],[30.900524,30.045583],[30.899557,30.044594],[30.897674,30.043143],[30.897672,30.019888],[30.871656,30.00305],[30.838663,29.981271],[30.816277,29.966751],[30.821617,29.960642],[30.818499,29.958655],[30.815163,29.962258],[30.809331,29.969743],[30.805923,29.975008],[30.803672,29.978973],[30.801769,29.982661],[30.788084,29.982335],[30.786837,30.035007],[30.793994,30.035127],[30.793911,30.066921],[30.897615,30.068045],[30.897673,30.063871],[30.906852,30.064016],[30.90715,30.04672]]],[[[30.87765,29.969018],[30.888804,29.956482],[30.879463,29.950325],[30.868574,29.963168],[30.87765,29.969018]]],[[[30.864128,29.9243],[30.858241,29.920495],[30.850431,29.929486],[30.856414,29.933409],[30.864128,29.9243]]],[[[30.904418,29.946264],[30.900121,29.943669],[30.892085,29.953126],[30.893064,29.953489],[30.895426,29.955078],[30.893374,29.957522],[30.894567,29.958323],[30.904418,29.946264]]],[[[30.914474,29.930511],[30.912211,29.929177],[30.899875,29.943521],[30.902254,29.944957],[30.914474,29.930511]]],[[[30.894789,29.894319],[30.884328,29.889485],[30.88359,29.89037],[30.893046,29.896348],[30.894789,29.894319]]],[[[30.882235,29.898005],[30.879038,29.895825],[30.873912,29.901967],[30.877087,29.904019],[30.882235,29.898005]]],[[[30.871722,29.910285],[30.875589,29.905769],[30.872477,29.903687],[30.868648,29.908274],[30.871722,29.910285]]],[[[30.885011,29.899898],[30.882235,29.898005],[30.877087,29.904019],[30.879888,29.905829],[30.885011,29.899898]]],[[[30.87448,29.912089],[30.878347,29.907613],[30.876943,29.906675],[30.876202,29.907534],[30.874836,29.906647],[30.874228,29.907358],[30.875617,29.908212],[30.87508,29.908834],[30.873688,29.907988],[30.87248,29.9094],[30.873837,29.910276],[30.873068,29.911166],[30.87448,29.912089]]],[[[30.87448,29.912089],[30.871716,29.910282],[30.863611,29.919697],[30.866453,29.921565],[30.87448,29.912089]]],[[[30.871716,29.910282],[30.868648,29.908274],[30.860689,29.917777],[30.863611,29.919697],[30.871716,29.910282]]],[[[30.913003,29.981162],[30.920542,29.972897],[30.918784,29.9718],[30.911327,29.980352],[30.910417,29.980621],[30.909467,29.980661],[30.908691,29.980521],[30.904465,29.978086],[30.890016,29.968736],[30.889277,29.969502],[30.915691,29.986759],[30.922351,29.990874],[30.923092,29.99004],[30.913503,29.983592],[30.913133,29.983106],[30.912885,29.982477],[30.91284,29.981812],[30.913003,29.981162]]],[[[30.949474,29.961791],[30.948718,29.962654],[30.951023,29.964087],[30.950916,29.962893],[30.950531,29.962409],[30.949474,29.961791]]],[[[30.917364,29.931379],[30.914988,29.929905],[30.910174,29.935596],[30.912514,29.936956],[30.917364,29.931379]]],[[[30.912514,29.936956],[30.910174,29.935596],[30.902254,29.944957],[30.904418,29.946264],[30.912514,29.936956]]],[[[30.987135,29.930978],[30.996041,29.926425],[30.996802,29.92625],[31.009692,29.929429],[31.011404,29.931163],[31.012421,29.930387],[31.010367,29.928493],[30.98846,29.922392],[30.976319,29.927824],[30.972052,29.921335],[30.973318,29.920495],[30.970946,29.917479],[30.981708,29.912145],[30.977446,29.905299],[30.945834,29.906226],[30.945929,29.913718],[30.953866,29.91109],[30.955489,29.914805],[30.958028,29.913937],[30.959129,29.916365],[30.964233,29.914654],[30.970035,29.928989],[30.968547,29.929396],[30.968542,29.9298],[30.969144,29.929956],[30.977413,29.936141],[30.987135,29.930978]]],[[[30.955626,29.933948],[30.95262,29.926569],[30.942789,29.929433],[30.949563,29.945523],[30.950468,29.947246],[30.951453,29.948705],[30.953091,29.950592],[30.955126,29.952359],[30.965386,29.959112],[30.975889,29.947324],[30.955626,29.933948]]],[[[30.970035,29.928989],[30.964233,29.914654],[30.959129,29.916365],[30.958028,29.913937],[30.955489,29.914805],[30.953866,29.91109],[30.943288,29.914593],[30.948638,29.927729],[30.95262,29.926569],[30.955626,29.933948],[30.968542,29.9298],[30.968547,29.929396],[30.970035,29.928989]]],[[[30.838089,29.943534],[30.852691,29.952822],[30.86309,29.939529],[30.849057,29.930636],[30.838089,29.943534]]],[[[30.914038,29.878511],[30.896642,29.873363],[30.886477,29.890478],[30.912985,29.902724],[30.919267,29.892295],[30.908632,29.887352],[30.914038,29.878511]]],[[[31.003857,29.944494],[31.008087,29.944327],[31.009254,29.943955],[31.021546,29.934513],[31.020583,29.934172],[31.019532,29.933349],[31.018903,29.932538],[31.018305,29.931318],[31.017603,29.930624],[31.016472,29.930159],[31.013134,29.930133],[31.012564,29.93029],[30.996934,29.942125],[30.996861,29.94442],[30.995992,29.945841],[30.995704,29.947458],[30.997334,29.948331],[30.997836,29.94841],[30.998402,29.948328],[30.998898,29.948077],[31.003317,29.944712],[31.003857,29.944494]]],[[[30.926487,29.984802],[30.926174,29.982458],[30.923325,29.980612],[30.921983,29.982251],[30.921547,29.9825],[30.921138,29.98251],[30.91821,29.980548],[30.916952,29.982094],[30.916907,29.982564],[30.917117,29.982998],[30.918796,29.984144],[30.917252,29.986044],[30.923092,29.99004],[30.92719,29.985425],[30.926747,29.985174],[30.926487,29.984802]]],[[[30.922351,29.990874],[30.915088,29.986365],[30.910736,29.991676],[30.917786,29.99615],[30.922351,29.990874]]],[[[30.936506,29.902392],[30.922863,29.904684],[30.92227,29.905056],[30.921231,29.906532],[30.912985,29.902724],[30.91354,29.901804],[30.916617,29.9032],[30.918283,29.903732],[30.92045,29.904036],[30.92277,29.903921],[30.943604,29.900611],[30.945356,29.898012],[30.935365,29.885525],[30.934697,29.884886],[30.933899,29.884373],[30.901627,29.874839],[30.912489,29.856735],[30.918283,29.864285],[30.922092,29.863213],[30.925791,29.862384],[30.928921,29.861877],[30.933273,29.861417],[30.947593,29.860845],[30.965945,29.860326],[31.032108,29.828999],[31.034743,29.827896],[31.038448,29.826542],[31.04168,29.825572],[31.044311,29.824978],[31.069291,29.863049],[30.990449,29.900317],[30.981797,29.904552],[30.980581,29.905006],[30.97889,29.905262],[30.949131,29.906134],[30.949032,29.903977],[30.94693,29.901466],[30.946302,29.901209],[30.945616,29.90112],[30.936506,29.902392]],[[31.013264,29.866959],[31.002915,29.872962],[31.004807,29.875091],[31.020789,29.868684],[31.020004,29.86681],[31.013264,29.866959]]],[[[30.877087,29.904019],[30.873912,29.901967],[30.872477,29.903687],[30.875589,29.905769],[30.877087,29.904019]]],[[[30.882235,29.898005],[30.886951,29.892495],[30.88359,29.89037],[30.879038,29.895825],[30.882235,29.898005]]],[[[30.879888,29.905829],[30.877087,29.904019],[30.875589,29.905769],[30.878347,29.907613],[30.879888,29.905829]]],[[[30.887463,29.89706],[30.884595,29.895249],[30.882235,29.898005],[30.885011,29.899898],[30.887463,29.89706]]],[[[30.866492,29.921591],[30.860689,29.917777],[30.858241,29.920495],[30.864128,29.9243],[30.866492,29.921591]]],[[[30.87216,29.94373],[30.850431,29.929486],[30.849057,29.930636],[30.86309,29.939529],[30.888804,29.956482],[30.889991,29.955206],[30.87216,29.94373]]],[[[30.937043,29.953415],[30.935972,29.95271],[30.933344,29.955705],[30.933194,29.956581],[30.931758,29.958208],[30.932796,29.958841],[30.937043,29.953415]]],[[[30.939311,29.950367],[30.938082,29.949625],[30.935561,29.952464],[30.936741,29.953216],[30.939311,29.950367]]],[[[30.926796,29.964037],[30.925853,29.965284],[30.924972,29.967043],[30.922419,29.969979],[30.92055,29.971649],[30.919872,29.972507],[30.923733,29.974959],[30.925637,29.975629],[30.927858,29.977097],[30.934216,29.9699],[30.93141,29.968036],[30.930137,29.966381],[30.929024,29.965348],[30.927995,29.964644],[30.926796,29.964037]]],[[[31.054524,29.921645],[31.04865,29.896458],[31.075615,29.875243],[31.073775,29.870621],[31.071522,29.866614],[31.07117,29.866744],[31.069291,29.863049],[30.985678,29.902603],[30.995049,29.911425],[30.996615,29.912483],[30.997733,29.912913],[30.998771,29.913138],[31.020954,29.919724],[31.022063,29.91958],[31.021071,29.918981],[31.024147,29.917914],[31.025362,29.917202],[31.046164,29.901129],[31.046582,29.901196],[31.047016,29.901426],[31.047275,29.901719],[31.052486,29.923299],[31.054524,29.921645]]],[[[31.04193,29.922999],[31.041497,29.922229],[31.037847,29.924],[31.038148,29.92485],[31.038526,29.925279],[31.039089,29.925633],[31.04193,29.922999]]],[[[31.041349,29.921208],[31.040916,29.918474],[31.036837,29.919039],[31.037405,29.921828],[31.041349,29.921208]]],[[[31.044514,29.929616],[31.041552,29.927779],[31.042298,29.926352],[31.041645,29.926581],[31.040944,29.92654],[31.038526,29.925279],[31.036286,29.928177],[31.038191,29.929389],[31.039366,29.929284],[31.040007,29.929346],[31.041559,29.930575],[31.042054,29.930712],[31.043203,29.930611],[31.044514,29.929616]]],[[[31.052486,29.923299],[31.050984,29.917077],[31.040916,29.918474],[31.041448,29.92205],[31.04193,29.922999],[31.042519,29.92351],[31.04795,29.927006],[31.052486,29.923299]]],[[[31.037674,29.912349],[31.035007,29.909764],[31.025362,29.917202],[31.024147,29.917914],[31.021071,29.918981],[31.036286,29.928177],[31.038526,29.925279],[31.038148,29.92485],[31.037918,29.924348],[31.036277,29.916525],[31.036302,29.915673],[31.036495,29.914838],[31.037674,29.912349]]],[[[30.936072,29.99399],[30.935255,29.993476],[30.934763,29.993576],[30.934268,29.993489],[30.933077,29.992745],[30.932356,29.993116],[30.931537,29.992969],[30.930189,29.994523],[30.932129,29.995738],[30.932772,29.995942],[30.933455,29.995977],[30.934247,29.995795],[30.93482,29.99547],[30.936072,29.99399]]],[[[30.879022,29.981096],[30.878448,29.980296],[30.875948,29.981044],[30.874726,29.980578],[30.873415,29.980464],[30.872762,29.980686],[30.872302,29.981072],[30.872019,29.981648],[30.872012,29.982186],[30.872187,29.982631],[30.872539,29.983028],[30.873466,29.983409],[30.87335,29.984034],[30.874574,29.984501],[30.874088,29.985222],[30.889872,29.995516],[30.893496,29.998139],[30.907404,30.007041],[30.908235,30.006183],[30.908495,30.006142],[30.912074,30.002022],[30.879022,29.981096]]],[[[30.909159,29.990575],[30.90615,29.988714],[30.909436,29.984932],[30.909724,29.984923],[30.911201,29.985828],[30.911645,29.985919],[30.912296,29.985699],[30.9129,29.984936],[30.905314,29.979981],[30.904635,29.98086],[30.904596,29.981463],[30.904849,29.981838],[30.906271,29.982764],[30.906373,29.98298],[30.904871,29.984876],[30.900429,29.982152],[30.897962,29.984988],[30.899839,29.986276],[30.899825,29.986488],[30.899063,29.987402],[30.898122,29.986807],[30.896016,29.989271],[30.894886,29.988526],[30.893407,29.990188],[30.912528,30.00231],[30.913261,30.001451],[30.907995,29.998132],[30.907637,29.995457],[30.909184,29.99357],[30.907486,29.992544],[30.909159,29.990575]]],[[[30.862777,29.962719],[30.875894,29.971189],[30.87765,29.969018],[30.868609,29.963192],[30.861882,29.958608],[30.838089,29.943534],[30.840398,29.940819],[30.834886,29.937582],[30.822278,29.95207],[30.854471,29.972675],[30.862777,29.962719]]],[[[30.889832,29.894317],[30.886951,29.892495],[30.884595,29.895249],[30.887463,29.89706],[30.889832,29.894317]]],[[[30.875815,29.98104],[30.878448,29.980296],[30.878379,29.979502],[30.878705,29.978762],[30.886231,29.970083],[30.886938,29.969621],[30.887717,29.969381],[30.88854,29.969348],[30.889277,29.969502],[30.890016,29.968736],[30.889885,29.96865],[30.889681,29.966605],[30.895777,29.959081],[30.889991,29.955206],[30.877852,29.968778],[30.871203,29.976993],[30.871302,29.977213],[30.873722,29.978714],[30.873843,29.980528],[30.874726,29.980578],[30.875815,29.98104]]],[[[30.980579,29.950887],[30.98436,29.946735],[30.988368,29.947508],[30.988669,29.946419],[30.99082,29.947168],[30.992494,29.94705],[30.995346,29.945637],[30.99601,29.945796],[30.996861,29.94442],[30.996934,29.942125],[30.996537,29.942184],[30.996155,29.942071],[30.994642,29.93989],[30.99423,29.939586],[30.993717,29.939437],[30.993061,29.939496],[30.987585,29.941341],[30.98146,29.940447],[30.975497,29.947069],[30.975889,29.947324],[30.975675,29.947565],[30.980579,29.950887]]],[[[30.875617,29.908212],[30.874228,29.907358],[30.873688,29.907988],[30.87508,29.908834],[30.875617,29.908212]]],[[[30.876202,29.907534],[30.876943,29.906675],[30.875589,29.905769],[30.874836,29.906647],[30.876202,29.907534]]],[[[30.873837,29.910276],[30.87248,29.9094],[30.871722,29.910285],[30.873068,29.911166],[30.873837,29.910276]]],[[[31.086968,29.895865],[31.062657,29.915052],[31.056312,29.920198],[31.071692,29.912905],[31.077151,29.912243],[31.082565,29.911135],[31.087741,29.909591],[31.093248,29.90743],[31.086968,29.895865]]],[[[31.057142,29.906985],[31.056546,29.90466],[31.05432,29.904827],[31.054916,29.907155],[31.057142,29.906985]]],[[[31.066388,29.912112],[31.075278,29.905025],[31.071436,29.901386],[31.070377,29.902205],[31.069011,29.90422],[31.069742,29.904913],[31.066141,29.907812],[31.063222,29.905161],[31.069849,29.899882],[31.069009,29.898993],[31.068491,29.898712],[31.065573,29.898609],[31.065606,29.900114],[31.065397,29.900625],[31.060813,29.904378],[31.059987,29.904722],[31.056656,29.905088],[31.057142,29.906985],[31.060625,29.906721],[31.066388,29.912112]]],[[[30.932796,29.958841],[30.931758,29.958208],[30.930494,29.959638],[30.931624,29.960337],[30.932796,29.958841]]]]}},{"type":"Feature","properties":{"landuse_value":1,"landuse_code":1,"landuse_label":null,"source_feature_count":46,"area_km2":28.183665},"geometry":{"type":"MultiPolygon","coordinates":[[[[30.86657,29.941824],[30.86309,29.939529],[30.852691,29.952822],[30.855549,29.954621],[30.86657,29.941824]]],[[[30.879463,29.950325],[30.872562,29.945775],[30.861882,29.958608],[30.868574,29.963168],[30.879463,29.950325]]],[[[30.890209,29.955347],[30.897915,29.946225],[30.891733,29.942178],[30.883596,29.951091],[30.890209,29.955347]]],[[[30.872151,29.929486],[30.864128,29.9243],[30.856414,29.933409],[30.864129,29.938467],[30.872151,29.929486]]],[[[30.88131,29.935405],[30.872151,29.929486],[30.864129,29.938467],[30.87339,29.944522],[30.88131,29.935405]]],[[[30.897915,29.946225],[30.900121,29.943669],[30.87762,29.928903],[30.875344,29.93155],[30.897915,29.946225]]],[[[30.893046,29.896348],[30.889832,29.894317],[30.878347,29.907613],[30.881537,29.909747],[30.893046,29.896348]]],[[[30.931358,29.911193],[30.921231,29.906532],[30.916642,29.911926],[30.925527,29.917859],[30.931358,29.911193]]],[[[30.910916,29.901768],[30.903907,29.898531],[30.901162,29.901588],[30.907511,29.905828],[30.910916,29.901768]]],[[[30.914884,29.903601],[30.910916,29.901768],[30.907511,29.905828],[30.910934,29.908114],[30.914884,29.903601]]],[[[30.914105,29.910232],[30.918364,29.905208],[30.914884,29.903601],[30.910934,29.908114],[30.914105,29.910232]]],[[[30.921231,29.906532],[30.918364,29.905208],[30.914105,29.910232],[30.916642,29.911926],[30.921231,29.906532]]],[[[30.917231,29.912319],[30.912444,29.917577],[30.918649,29.921687],[30.923248,29.916337],[30.917231,29.912319]]],[[[30.912069,29.929342],[30.918649,29.921687],[30.912444,29.917577],[30.90594,29.925203],[30.912069,29.929342]]],[[[30.902203,29.940815],[30.895948,29.936918],[30.893748,29.939497],[30.899875,29.943521],[30.902203,29.940815]]],[[[30.904693,29.93792],[30.898598,29.933812],[30.895948,29.936918],[30.902203,29.940815],[30.904693,29.93792]]],[[[30.908225,29.933812],[30.901977,29.92985],[30.898598,29.933812],[30.904693,29.93792],[30.908225,29.933812]]],[[[30.912069,29.929342],[30.90594,29.925203],[30.901977,29.92985],[30.908225,29.933812],[30.912069,29.929342]]],[[[30.901977,29.92985],[30.912444,29.917577],[30.906245,29.913471],[30.895548,29.925869],[30.901977,29.92985]]],[[[30.895948,29.936918],[30.889439,29.932947],[30.88739,29.935321],[30.893748,29.939497],[30.895948,29.936918]]],[[[30.898598,29.933812],[30.892273,29.929664],[30.889439,29.932947],[30.895948,29.936918],[30.898598,29.933812]]],[[[30.901977,29.92985],[30.895548,29.925869],[30.892273,29.929664],[30.898598,29.933812],[30.901977,29.92985]]],[[[30.906245,29.913471],[30.896416,29.906959],[30.88582,29.919507],[30.895576,29.925836],[30.906245,29.913471]]],[[[30.883313,29.932643],[30.888008,29.926976],[30.882486,29.923455],[30.87779,29.929014],[30.883313,29.932643]]],[[[30.892273,29.929664],[30.895576,29.925836],[30.88582,29.919507],[30.882486,29.923455],[30.892273,29.929664]]],[[[30.88739,29.935321],[30.892256,29.929684],[30.888008,29.926976],[30.883313,29.932643],[30.88739,29.935321]]],[[[30.895524,29.897915],[30.880188,29.915822],[30.882666,29.917443],[30.898105,29.899547],[30.895524,29.897915]]],[[[30.869603,29.923635],[30.87771,29.914202],[30.87448,29.912089],[30.866453,29.921565],[30.869603,29.923635]]],[[[30.879243,29.921379],[30.874276,29.918198],[30.869603,29.923635],[30.874492,29.926848],[30.879243,29.921379]]],[[[30.87779,29.929014],[30.885821,29.919506],[30.882666,29.917443],[30.874492,29.926848],[30.87779,29.929014]]],[[[30.898105,29.899547],[30.882666,29.917443],[30.885821,29.919506],[30.896416,29.906959],[30.901162,29.901588],[30.898105,29.899547]]],[[[30.895524,29.897915],[30.893046,29.896348],[30.87771,29.914202],[30.880188,29.915822],[30.895524,29.897915]]],[[[30.881537,29.909747],[30.878347,29.907613],[30.87448,29.912089],[30.87771,29.914202],[30.881537,29.909747]]],[[[30.882666,29.917443],[30.87771,29.914202],[30.874276,29.918198],[30.879243,29.921379],[30.882666,29.917443]]],[[[30.917231,29.912319],[30.910933,29.908114],[30.906238,29.913467],[30.912444,29.917577],[30.917231,29.912319]]],[[[30.910933,29.908114],[30.901162,29.901588],[30.896416,29.906959],[30.906238,29.913467],[30.910933,29.908114]]],[[[30.872562,29.945775],[30.86657,29.941824],[30.855549,29.954621],[30.861882,29.958608],[30.872562,29.945775]]],[[[30.891733,29.942178],[30.88131,29.935405],[30.87339,29.944522],[30.883596,29.951091],[30.891733,29.942178]]],[[[30.900221,29.896828],[30.897523,29.895582],[30.895524,29.897915],[30.898145,29.899572],[30.900221,29.896828]]],[[[30.897523,29.895582],[30.894789,29.894319],[30.893046,29.896348],[30.895524,29.897915],[30.897523,29.895582]]],[[[30.903907,29.898531],[30.900221,29.896828],[30.898145,29.899572],[30.901162,29.901588],[30.903907,29.898531]]],[[[30.874492,29.926848],[30.866492,29.921591],[30.864128,29.9243],[30.872151,29.929486],[30.874492,29.926848]]],[[[30.87762,29.928903],[30.876401,29.928102],[30.874111,29.930752],[30.875344,29.93155],[30.87762,29.928903]]],[[[30.876401,29.928102],[30.874492,29.926848],[30.872151,29.929486],[30.874111,29.930752],[30.876401,29.928102]]],[[[30.914474,29.930511],[30.915223,29.929612],[30.913059,29.92819],[30.912211,29.929177],[30.914474,29.930511]]],[[[30.925527,29.917859],[30.923248,29.916337],[30.913059,29.92819],[30.915212,29.92964],[30.925527,29.917859]]]]}},{"type":"Feature","properties":{"landuse_value":3,"landuse_code":3,"landuse_label":null,"source_feature_count":65,"area_km2":63.23635},"geometry":{"type":"MultiPolygon","coordinates":[[[[30.893407,29.990188],[30.903402,29.978732],[30.90066,29.97694],[30.890808,29.988504],[30.893407,29.990188]]],[[[30.917786,29.99615],[30.910736,29.991676],[30.907637,29.995457],[30.907995,29.998132],[30.913261,30.001451],[30.917786,29.99615]]],[[[30.918784,29.9718],[30.915867,29.969883],[30.914297,29.968388],[30.911811,29.966649],[30.908557,29.967018],[30.895777,29.959081],[30.889681,29.966605],[30.889885,29.96865],[30.904465,29.978086],[30.908691,29.980521],[30.909074,29.98061],[30.910265,29.980643],[30.911327,29.980352],[30.918784,29.9718]]],[[[30.91217,29.9669],[30.91801,29.959474],[30.908754,29.953319],[30.901414,29.962614],[30.908557,29.967018],[30.911811,29.966649],[30.91217,29.9669]]],[[[30.926796,29.964037],[30.923534,29.961963],[30.921242,29.96144],[30.91801,29.959474],[30.914515,29.963918],[30.919423,29.966891],[30.922769,29.969584],[30.925049,29.966942],[30.925853,29.965284],[30.926796,29.964037]]],[[[30.902124,29.949073],[30.894567,29.958323],[30.901414,29.962614],[30.908754,29.953319],[30.902124,29.949073]]],[[[30.932711,29.963693],[30.929212,29.96109],[30.926796,29.964037],[30.928149,29.964737],[30.929297,29.965571],[30.930279,29.966541],[30.93141,29.968036],[30.932051,29.968523],[30.936312,29.971244],[30.938585,29.968486],[30.93354,29.965353],[30.932711,29.963693]]],[[[30.944546,29.972383],[30.938585,29.968486],[30.936312,29.971244],[30.942482,29.975199],[30.944546,29.972383]]],[[[30.907542,29.94815],[30.904418,29.946264],[30.902124,29.949073],[30.909775,29.953973],[30.912045,29.951247],[30.907542,29.94815]]],[[[30.929212,29.96109],[30.925206,29.958777],[30.923399,29.958677],[30.920764,29.956846],[30.918493,29.959797],[30.921242,29.96144],[30.923534,29.961963],[30.926796,29.964037],[30.929212,29.96109]]],[[[30.920764,29.956846],[30.912045,29.951247],[30.909775,29.953973],[30.918493,29.959797],[30.920764,29.956846]]],[[[30.949963,29.979994],[30.934216,29.9699],[30.927858,29.977097],[30.928351,29.979631],[30.929601,29.980833],[30.942223,29.989015],[30.94698,29.983718],[30.949963,29.979994]]],[[[30.917151,29.981783],[30.91821,29.980548],[30.921138,29.98251],[30.921489,29.982512],[30.921983,29.982251],[30.923325,29.980612],[30.926174,29.982458],[30.926487,29.984802],[30.926747,29.985174],[30.92719,29.985425],[30.930652,29.981525],[30.929601,29.980833],[30.928351,29.979631],[30.927858,29.977097],[30.925637,29.975629],[30.923733,29.974959],[30.920542,29.972897],[30.913003,29.981162],[30.912896,29.981482],[30.912905,29.982558],[30.913503,29.983592],[30.917252,29.986044],[30.918796,29.984144],[30.91705,29.98291],[30.916895,29.982353],[30.917151,29.981783]]],[[[30.933351,29.911979],[30.931358,29.911193],[30.920726,29.923346],[30.929995,29.929024],[30.930314,29.929507],[30.930219,29.931462],[30.939393,29.942597],[30.939817,29.943347],[30.94073,29.945797],[30.942577,29.947924],[30.949408,29.945167],[30.936735,29.915125],[30.935975,29.91399],[30.934793,29.912856],[30.933351,29.911979]]],[[[30.949228,29.966519],[30.945203,29.963675],[30.944613,29.964437],[30.942856,29.965807],[30.947213,29.969051],[30.949228,29.966519]]],[[[30.939773,29.963511],[30.940764,29.962068],[30.941084,29.961035],[30.942864,29.959012],[30.943462,29.958141],[30.938468,29.955003],[30.938114,29.954119],[30.937043,29.953415],[30.930372,29.961937],[30.932711,29.963693],[30.93354,29.965353],[30.936656,29.967233],[30.939773,29.963511]]],[[[30.947213,29.969051],[30.939773,29.963511],[30.936656,29.967233],[30.944555,29.972389],[30.947213,29.969051]]],[[[30.947537,29.960656],[30.943462,29.958141],[30.942864,29.959012],[30.946877,29.961509],[30.947537,29.960656]]],[[[30.939773,29.963511],[30.942856,29.965807],[30.944613,29.964437],[30.945203,29.963675],[30.941224,29.960862],[30.940764,29.962068],[30.939773,29.963511]]],[[[30.949228,29.966519],[30.951023,29.964087],[30.946877,29.961509],[30.945203,29.963675],[30.949228,29.966519]]],[[[30.946877,29.961509],[30.942864,29.959012],[30.941224,29.960862],[30.945203,29.963675],[30.946877,29.961509]]],[[[30.931624,29.960337],[30.930494,29.959638],[30.929212,29.96109],[30.930372,29.961937],[30.931624,29.960337]]],[[[30.927189,29.937477],[30.922205,29.943406],[30.924217,29.944687],[30.92604,29.94665],[30.928056,29.947963],[30.930441,29.945192],[30.929349,29.939401],[30.928786,29.938467],[30.927189,29.937477]]],[[[30.946135,29.955428],[30.943816,29.95389],[30.942953,29.952564],[30.939311,29.950367],[30.936741,29.953216],[30.938114,29.954119],[30.938468,29.955003],[30.943462,29.958141],[30.946135,29.955428]]],[[[30.935561,29.952464],[30.938082,29.949625],[30.930441,29.945192],[30.928056,29.947963],[30.935561,29.952464]]],[[[30.928056,29.947963],[30.92604,29.94665],[30.924217,29.944687],[30.920835,29.942534],[30.91927,29.942676],[30.912053,29.951252],[30.92037,29.956593],[30.928056,29.947963]]],[[[30.929212,29.96109],[30.933194,29.956581],[30.933344,29.955705],[30.935972,29.95271],[30.928056,29.947963],[30.92037,29.956593],[30.923399,29.958677],[30.925206,29.958777],[30.929212,29.96109]]],[[[30.912471,29.94348],[30.908941,29.941064],[30.904418,29.946264],[30.907542,29.94815],[30.910076,29.949895],[30.91395,29.944108],[30.912471,29.94348]]],[[[30.915199,29.94075],[30.912169,29.937353],[30.908941,29.941064],[30.912471,29.94348],[30.91395,29.944108],[30.915907,29.941184],[30.915199,29.94075]]],[[[30.91696,29.945421],[30.91395,29.944108],[30.911612,29.947602],[30.913876,29.949086],[30.91696,29.945421]]],[[[30.917635,29.942244],[30.915907,29.941184],[30.91395,29.944108],[30.91696,29.945421],[30.91927,29.942676],[30.917635,29.942244]]],[[[30.913876,29.949086],[30.911612,29.947602],[30.910076,29.949895],[30.912053,29.951252],[30.913876,29.949086]]],[[[30.919795,29.932888],[30.917364,29.931379],[30.912169,29.937353],[30.914099,29.939517],[30.919795,29.932888]]],[[[30.921969,29.934237],[30.919795,29.932888],[30.914099,29.939517],[30.915199,29.94075],[30.915764,29.941096],[30.921969,29.934237]]],[[[30.927189,29.937477],[30.924482,29.935797],[30.919204,29.942659],[30.920835,29.942534],[30.922205,29.943406],[30.927189,29.937477]]],[[[30.924482,29.935797],[30.921969,29.934237],[30.915764,29.941096],[30.917635,29.942244],[30.919204,29.942659],[30.924482,29.935797]]],[[[30.942577,29.947924],[30.94073,29.945797],[30.939817,29.943347],[30.939393,29.942597],[30.930219,29.931462],[30.930314,29.929507],[30.929995,29.929024],[30.926031,29.926579],[30.920291,29.933196],[30.928786,29.938467],[30.929349,29.939401],[30.930251,29.943831],[30.93036,29.945146],[30.938195,29.949693],[30.942577,29.947924]]],[[[30.949392,29.955013],[30.952935,29.950433],[30.95094,29.947986],[30.949408,29.945167],[30.938195,29.949693],[30.942953,29.952564],[30.943816,29.95389],[30.946135,29.955428],[30.946883,29.955045],[30.949392,29.955013]]],[[[30.926031,29.926579],[30.920726,29.923346],[30.914988,29.929905],[30.920291,29.933196],[30.926031,29.926579]]],[[[30.954927,29.958498],[30.955492,29.957815],[30.95645,29.95846],[30.958661,29.958093],[30.960552,29.95595],[30.955493,29.952628],[30.952935,29.950433],[30.949392,29.955013],[30.954927,29.958498]]],[[[30.936922,29.906439],[30.949131,29.906134],[30.949032,29.903977],[30.94693,29.901466],[30.946168,29.901177],[30.945338,29.901134],[30.936506,29.902392],[30.923183,29.904586],[30.922625,29.904798],[30.922189,29.905136],[30.921231,29.906532],[30.931358,29.911193],[30.934209,29.9078],[30.934847,29.907229],[30.936179,29.906589],[30.936922,29.906439]]],[[[30.925521,29.881908],[30.914038,29.878511],[30.908632,29.887352],[30.919267,29.892295],[30.925521,29.881908]]],[[[30.945929,29.913718],[30.945834,29.906226],[30.937226,29.906412],[30.936034,29.906633],[30.935217,29.906993],[30.934405,29.907596],[30.931358,29.911193],[30.933785,29.9122],[30.935335,29.913313],[30.936626,29.914927],[30.937289,29.916579],[30.945929,29.913718]]],[[[30.937289,29.916579],[30.942789,29.929433],[30.948638,29.927729],[30.943288,29.914593],[30.937289,29.916579]]],[[[30.954927,29.958498],[30.949392,29.955013],[30.946883,29.955045],[30.946135,29.955428],[30.943462,29.958141],[30.950531,29.962409],[30.950916,29.962893],[30.95102,29.964211],[30.954439,29.959531],[30.954452,29.958923],[30.954927,29.958498]]],[[[30.933874,29.884361],[30.925521,29.881908],[30.91354,29.901804],[30.916484,29.903145],[30.917811,29.903609],[30.91967,29.903974],[30.921595,29.904036],[30.943604,29.900611],[30.945356,29.898012],[30.935205,29.885347],[30.933874,29.884361]]],[[[31.020789,29.868684],[31.020004,29.86681],[31.013264,29.866959],[31.002915,29.872962],[31.004807,29.875091],[31.020789,29.868684]]],[[[30.975497,29.947069],[30.98146,29.940447],[30.98057,29.938705],[30.979878,29.93797],[30.969004,29.92989],[30.968156,29.929854],[30.955626,29.933948],[30.975497,29.947069]]],[[[31.037346,29.928818],[31.022063,29.91958],[31.018316,29.920067],[31.010367,29.928493],[31.012421,29.930387],[31.013073,29.930136],[31.016472,29.930159],[31.017365,29.930479],[31.018254,29.931246],[31.018903,29.932538],[31.019532,29.933349],[31.020462,29.934095],[31.021113,29.93441],[31.021776,29.934539],[31.030036,29.93496],[31.037346,29.928818]]],[[[30.996934,29.942125],[31.011404,29.931163],[31.009692,29.929429],[30.997018,29.926258],[30.996444,29.92629],[30.989339,29.929808],[30.977413,29.936141],[30.980295,29.938375],[30.980882,29.939176],[30.98146,29.940447],[30.987585,29.941341],[30.993061,29.939496],[30.993717,29.939437],[30.99423,29.939586],[30.994642,29.93989],[30.996155,29.942071],[30.996537,29.942184],[30.996934,29.942125]]],[[[31.036837,29.919039],[31.050984,29.917077],[31.047275,29.901719],[31.046951,29.901377],[31.046501,29.901173],[31.046164,29.901129],[31.035007,29.909764],[31.037674,29.912349],[31.036495,29.914838],[31.036302,29.915673],[31.03632,29.916902],[31.036837,29.919039]]],[[[31.054524,29.921645],[31.066388,29.912112],[31.060625,29.906721],[31.054916,29.907155],[31.05432,29.904827],[31.056546,29.90466],[31.056656,29.905088],[31.059916,29.904733],[31.060457,29.904579],[31.065356,29.900675],[31.065606,29.900114],[31.065573,29.898609],[31.06842,29.898692],[31.069009,29.898993],[31.069849,29.899882],[31.063222,29.905161],[31.066141,29.907812],[31.069742,29.904913],[31.069011,29.90422],[31.070377,29.902205],[31.071436,29.901386],[31.075278,29.905025],[31.084648,29.897684],[31.075615,29.875243],[31.04865,29.896458],[31.054524,29.921645]]],[[[30.930189,29.994523],[30.931537,29.992969],[30.932356,29.993116],[30.933077,29.992745],[30.934268,29.993489],[30.934763,29.993576],[30.935255,29.993476],[30.936072,29.99399],[30.940892,29.988161],[30.930652,29.981525],[30.923092,29.99004],[30.930189,29.994523]]],[[[30.922769,29.969584],[30.919423,29.966891],[30.914515,29.963918],[30.91217,29.9669],[30.914297,29.968388],[30.915867,29.969883],[30.919872,29.972507],[30.92055,29.971649],[30.922769,29.969584]]],[[[30.905314,29.979981],[30.903402,29.978732],[30.900429,29.982152],[30.904871,29.984876],[30.906373,29.98298],[30.906271,29.982764],[30.904849,29.981838],[30.904596,29.981463],[30.904635,29.98086],[30.905314,29.979981]]],[[[30.888312,29.969336],[30.887041,29.969575],[30.886068,29.970243],[30.878746,29.97871],[30.878415,29.979342],[30.878371,29.979976],[30.878619,29.980647],[30.879156,29.981196],[30.890808,29.988504],[30.90066,29.97694],[30.889277,29.969502],[30.888312,29.969336]]],[[[30.915088,29.986365],[30.9129,29.984936],[30.912296,29.985699],[30.911645,29.985919],[30.911201,29.985828],[30.909746,29.984934],[30.909505,29.984906],[30.90615,29.988714],[30.910804,29.991592],[30.915088,29.986365]]],[[[30.909184,29.99357],[30.910804,29.991592],[30.909159,29.990575],[30.907486,29.992544],[30.909184,29.99357]]],[[[30.896016,29.989271],[30.898122,29.986807],[30.899063,29.987402],[30.899843,29.986455],[30.899817,29.98624],[30.899429,29.985915],[30.897962,29.984988],[30.894886,29.988526],[30.896016,29.989271]]],[[[30.895426,29.955078],[30.893064,29.953489],[30.892085,29.953126],[30.890209,29.955347],[30.893374,29.957522],[30.895426,29.955078]]],[[[31.04193,29.922999],[31.039089,29.925633],[31.041042,29.926563],[31.041645,29.926581],[31.042298,29.926352],[31.044352,29.924682],[31.042409,29.923436],[31.04193,29.922999]]],[[[31.041497,29.922229],[31.041349,29.921208],[31.037405,29.921828],[31.037847,29.924],[31.041497,29.922229]]],[[[31.04795,29.927006],[31.044352,29.924682],[31.042298,29.926352],[31.041552,29.927779],[31.044516,29.929617],[31.04795,29.927006]]],[[[30.873788,29.980445],[30.873722,29.978714],[30.871302,29.977213],[30.871203,29.976993],[30.867709,29.981047],[30.874088,29.985222],[30.874574,29.984501],[30.87335,29.984034],[30.873466,29.983409],[30.872917,29.983258],[30.872456,29.982957],[30.872136,29.982541],[30.87199,29.982007],[30.872106,29.981389],[30.872511,29.980861],[30.873118,29.980532],[30.873788,29.980445]]],[[[30.949474,29.961791],[30.947537,29.960656],[30.946877,29.961509],[30.948718,29.962654],[30.949474,29.961791]]]]}},{"type":"Feature","properties":{"landuse_value":0,"landuse_code":0,"landuse_label":null,"source_feature_count":31,"area_km2":25.431325},"geometry":{"type":"MultiPolygon","coordinates":[[[[30.844054,29.97499],[30.838572,29.971444],[30.83316,29.977702],[30.838663,29.981271],[30.844054,29.97499]]],[[[30.827221,29.964213],[30.821617,29.960642],[30.816277,29.966751],[30.82185,29.970366],[30.827221,29.964213]]],[[[30.832825,29.967783],[30.827221,29.964213],[30.82185,29.970366],[30.827426,29.973983],[30.832825,29.967783]]],[[[30.854471,29.972675],[30.849029,29.969193],[30.844054,29.97499],[30.849334,29.978419],[30.854471,29.972675]]],[[[30.860389,29.976462],[30.854471,29.972675],[30.849334,29.978419],[30.855139,29.982264],[30.860389,29.976462]]],[[[30.849029,29.969193],[30.84355,29.965688],[30.838572,29.971444],[30.844054,29.97499],[30.849029,29.969193]]],[[[30.832248,29.958453],[30.826658,29.954875],[30.821617,29.960642],[30.827221,29.964213],[30.832248,29.958453]]],[[[30.837834,29.962029],[30.832248,29.958453],[30.827221,29.964213],[30.832825,29.967783],[30.837834,29.962029]]],[[[30.826658,29.954875],[30.820709,29.951066],[30.815854,29.95697],[30.821617,29.960642],[30.826658,29.954875]]],[[[30.84355,29.965688],[30.837834,29.962029],[30.832825,29.967783],[30.838572,29.971444],[30.84355,29.965688]]],[[[31.010367,29.928493],[31.018316,29.920067],[31.020954,29.919724],[30.998771,29.913138],[30.997733,29.912913],[30.996615,29.912483],[30.995049,29.911425],[30.985678,29.902603],[30.980906,29.904909],[30.979404,29.905226],[30.977446,29.905299],[30.981708,29.912145],[30.970946,29.917479],[30.973318,29.920495],[30.972052,29.921335],[30.976319,29.927824],[30.98846,29.922392],[31.010367,29.928493]]],[[[30.838572,29.971444],[30.832825,29.967783],[30.827426,29.973983],[30.83316,29.977702],[30.838572,29.971444]]],[[[30.901623,30.012619],[30.89389,30.007656],[30.88845,30.013921],[30.897672,30.019888],[30.897775,30.016867],[30.901623,30.012619]]],[[[30.860384,29.985755],[30.854794,29.982039],[30.849515,29.988437],[30.854889,29.991984],[30.855474,29.991115],[30.858427,29.988069],[30.860384,29.985755]]],[[[30.865524,29.979679],[30.860389,29.976462],[30.855139,29.982264],[30.860384,29.985755],[30.865524,29.979679]]],[[[30.871152,29.983303],[30.865524,29.979679],[30.860384,29.985755],[30.86592,29.989439],[30.871152,29.983303]]],[[[30.876728,29.986935],[30.871152,29.983303],[30.86592,29.989439],[30.871449,29.993118],[30.876728,29.986935]]],[[[30.854794,29.982039],[30.849334,29.978419],[30.843989,29.984788],[30.849515,29.988437],[30.854794,29.982039]]],[[[30.871449,29.993118],[30.86592,29.989439],[30.860558,29.995726],[30.866098,29.999383],[30.871449,29.993118]]],[[[30.86592,29.989439],[30.860384,29.985755],[30.858427,29.988069],[30.855474,29.991115],[30.854889,29.991984],[30.860558,29.995726],[30.86592,29.989439]]],[[[30.876728,29.986935],[30.871449,29.993118],[30.877026,29.996829],[30.882375,29.990631],[30.876728,29.986935]]],[[[30.877026,29.996829],[30.871449,29.993118],[30.866098,29.999383],[30.871656,30.00305],[30.877026,29.996829]]],[[[30.899061,30.001701],[30.893504,29.998144],[30.888403,30.004133],[30.89389,30.007656],[30.899061,30.001701]]],[[[30.89389,30.007656],[30.888403,30.004133],[30.883045,30.010422],[30.88845,30.013921],[30.89389,30.007656]]],[[[30.887901,29.994232],[30.882375,29.990631],[30.877026,29.996829],[30.882639,30.000433],[30.887901,29.994232]]],[[[30.893504,29.998144],[30.887901,29.994232],[30.882639,30.000433],[30.888403,30.004133],[30.893504,29.998144]]],[[[30.882639,30.000433],[30.877026,29.996829],[30.871656,30.00305],[30.87731,30.00671],[30.882639,30.000433]]],[[[30.888403,30.004133],[30.882639,30.000433],[30.87731,30.00671],[30.883045,30.010422],[30.888403,30.004133]]],[[[30.907404,30.007041],[30.899061,30.001701],[30.89389,30.007656],[30.901623,30.012619],[30.905313,30.008312],[30.906918,30.007601],[30.907404,30.007041]]],[[[30.875894,29.971189],[30.862794,29.962699],[30.854471,29.972675],[30.867709,29.981047],[30.871203,29.976993],[30.875894,29.971189]]],[[[30.849334,29.978419],[30.844054,29.97499],[30.838663,29.981271],[30.843989,29.984788],[30.849334,29.978419]]]]}}]}