{"type":"FeatureCollection","features":[{"type":"Feature","properties":{"name":"Study area","source":"Dissolved verified land-cover extent"},"geometry":{"type":"MultiPolygon","coordinates":[[[[30.873912,29.901967],[30.872477,29.903687],[30.868648,29.908274],[30.860689,29.917777],[30.858241,29.920495],[30.850431,29.929486],[30.849057,29.930636],[30.84039782615542,29.94081889790731],[30.834886,29.937582],[30.822278,29.95207],[30.854471,29.972675],[30.849029,29.969193],[30.84355,29.965688],[30.837834,29.962029],[30.832248,29.958453],[30.826658,29.954875],[30.820709,29.951066],[30.815854,29.95697],[30.818498819628598,29.9586551948076],[30.815163,29.962258],[30.809331,29.969743],[30.805923,29.975008],[30.803672,29.978973],[30.801769,29.982661],[30.788084,29.982335],[30.786837,30.035007],[30.793994,30.035127],[30.793911,30.066921],[30.897615,30.068045],[30.897673,30.063871],[30.906852,30.064016],[30.90715,30.04672],[30.90441,30.045531],[30.902633,30.045502],[30.901378,30.045654],[30.900524,30.045583],[30.899557,30.044594],[30.897674,30.043143],[30.897672,30.019888],[30.897775,30.016867],[30.901623,30.012619],[30.905313,30.008312],[30.906918,30.007601],[30.907404,30.007041],[30.908235,30.006183],[30.908495,30.006142],[30.912073898632777,30.002022116689847],[30.912528,30.00231],[30.913261,30.001451],[30.917786,29.99615],[30.922351,29.990874],[30.923092,29.99004],[30.930189,29.994523],[30.932129,29.995738],[30.932772,29.995942],[30.933455,29.995977],[30.934247,29.995795],[30.93482,29.99547],[30.936072,29.99399],[30.940892,29.988161],[30.930652,29.981525],[30.929601,29.980833],[30.942223,29.989015],[30.94698,29.983718],[30.949963,29.979994],[30.94248220105592,29.975198725691147],[30.944545937864536,29.972383084773963],[30.944555,29.972389],[30.947213,29.969051],[30.949228,29.966519],[30.951011450257337,29.964102648453565],[30.95102,29.964211],[30.954439,29.959531],[30.954452,29.958923],[30.954927,29.958498],[30.955492,29.957815],[30.95645,29.95846],[30.958661,29.958093],[30.960552,29.95595],[30.955493,29.952628],[30.955355708264104,29.95251019102412],[30.965386,29.959112],[30.975889,29.947324],[30.975675,29.947565],[30.980579,29.950887],[30.98436,29.946735],[30.988368,29.947508],[30.988669,29.946419],[30.99082,29.947168],[30.992494,29.94705],[30.995346,29.945637],[30.99601,29.945796],[30.996861,29.94442],[30.995992,29.945841],[30.995704,29.947458],[30.997334,29.948331],[30.997836,29.94841],[30.998402,29.948328],[30.998898,29.948077],[31.003317,29.944712],[31.003857,29.944494],[31.008087,29.944327],[31.009254,29.943955],[31.021546,29.934513],[31.021428461357218,29.934471379359096],[31.021776,29.934539],[31.030036,29.93496],[31.037323382273932,29.928837003840425],[31.038191,29.929389],[31.039366,29.929284],[31.040007,29.929346],[31.041559,29.930575],[31.042054,29.930712],[31.043203,29.930611],[31.044514,29.929616],[31.041552,29.927779],[31.044516,29.929617],[31.04795,29.927006],[31.052486,29.923299],[31.054524,29.921645],[31.05634327627819,29.92018316918746],[31.071692,29.912905],[31.077151,29.912243],[31.082565,29.911135],[31.087741,29.909591],[31.093248,29.90743],[31.086968,29.895865],[31.066968854877242,29.911648949548365],[31.075278,29.905025],[31.084648,29.897684],[31.075615,29.875243],[31.073775,29.870621],[31.071522,29.866614],[31.07117,29.866744],[31.069291,29.863049],[31.044311,29.824978],[31.04168,29.825572],[31.038448,29.826542],[31.034743,29.827896],[31.032108,29.828999],[30.965945,29.860326],[30.947593,29.860845],[30.933273,29.861417],[30.928921,29.861877],[30.925791,29.862384],[30.922092,29.863213],[30.918283,29.864285],[30.912489,29.856735],[30.90162740172922,29.874838330426652],[30.896642,29.873363],[30.886477,29.890478],[30.909647115269305,29.90118198489467],[30.903907,29.898531],[30.900221,29.896828],[30.897523,29.895582],[30.894789,29.894319],[30.884328,29.889485],[30.88359,29.89037],[30.879038,29.895825],[30.873912,29.901967]],[[30.871722,29.910285],[30.872921266246703,29.911069958070836],[30.871716,29.910282],[30.868648,29.908274],[30.871722,29.910285]],[[30.872686370799062,29.909158778503084],[30.87248,29.9094],[30.871722,29.910285],[30.872686370799062,29.909158778503084]],[[30.863611,29.919697],[30.866453,29.921565],[30.869603,29.923635],[30.87771,29.914202],[30.880188,29.915822],[30.882666,29.917443],[30.874492,29.926848],[30.866492,29.921591],[30.860689,29.917777],[30.863611,29.919697]],[[30.87779,29.929014],[30.87846277397611,29.929456059887617],[30.87762,29.928903],[30.876401,29.928102],[30.874492,29.926848],[30.87779,29.929014]],[[30.885086778142696,29.920375254316923],[30.882486,29.923455],[30.87779,29.929014],[30.885086778142696,29.920375254316923]],[[30.892273,29.929664],[30.89225582925994,29.929683891157236],[30.888008,29.926976],[30.882486,29.923455],[30.892273,29.929664]],[[30.895576,29.925836],[30.90624465087488,29.913471404623873],[30.906244650884716,29.91347140463039],[30.895548,29.925869],[30.892273,29.929664],[30.895576,29.925836]],[[30.862777,29.962719],[30.86277720403397,29.962719131750227],[30.854471,29.972675],[30.862777,29.962719]],[[30.867709,29.981047],[30.871978788626176,29.983841539506866],[30.871152,29.983303],[30.865524,29.979679],[30.860389,29.976462],[30.854471,29.972675],[30.867709,29.981047]],[[30.899061,30.001701],[30.89748074294739,30.000689487612718],[30.907404,30.007041],[30.899061,30.001701]],[[30.913503,29.983592],[30.917252,29.986044],[30.923092,29.99004],[30.913503,29.983592]],[[30.913133,29.983106],[30.912942505504972,29.98262285065576],[30.913503,29.983592],[30.913133,29.983106]],[[30.988681300806025,29.901182257291552],[30.990449,29.900317],[31.069291,29.863049],[30.988681300806025,29.901182257291552]],[[30.893046,29.896348],[30.889832,29.894317],[30.886951,29.892495],[30.88359,29.89037],[30.893046,29.896348]],[[30.884595,29.895249],[30.882235,29.898005],[30.886951,29.892495],[30.884595,29.895249]],[[30.88171053982084,29.98279817791029],[30.890808,29.988504],[30.893407,29.990188],[30.91185834781652,30.001885465521255],[30.88171053982084,29.98279817791029]],[[30.903402,29.978732],[30.900429,29.982152],[30.897962,29.984988],[30.894886,29.988526],[30.893407,29.990188],[30.903402,29.978732]],[[30.90066,29.97694],[30.889277,29.969502],[30.91489089063276,29.986236266322766],[30.9129,29.984936],[30.905314,29.979981],[30.903402,29.978732],[30.90066,29.97694]],[[30.888411671738012,29.96935314560467],[30.88854,29.969348],[30.889277,29.969502],[30.888411671738012,29.96935314560467]],[[30.889885,29.96865],[30.904465,29.978086],[30.890016,29.968736],[30.889885,29.96865]],[[30.89459464788588,29.958289155125787],[30.904418,29.946264],[30.902124,29.949073],[30.894594649476957,29.958289156191363],[30.89459464788588,29.958289155125787]],[[30.901781042477936,29.944671515762217],[30.902254,29.944957],[30.904418,29.946264],[30.901781042477936,29.944671515762217]],[[30.914474,29.930511],[30.91520410295119,29.929634681504513],[30.915212,29.92964],[30.92464542504529,29.918865867139253],[30.920726,29.923346],[30.914988,29.929905],[30.910174,29.935596],[30.902254,29.944957],[30.914474,29.930511]],[[30.912514,29.936956],[30.917363702414658,29.931379342192464],[30.917363702423895,29.9313793421982],[30.912169,29.937353],[30.908941,29.941064],[30.904418,29.946264],[30.912514,29.936956]],[[30.897915,29.946225],[30.900120722357908,29.943669321692287],[30.9001207251915,29.943669323402684],[30.892125372113842,29.953078488914812],[30.897915,29.946225]],[[30.918649,29.921687],[30.923247897780353,29.916337118911745],[30.9232478977813,29.916337118912377],[30.917355717576566,29.923191570965255],[30.918649,29.921687]],[[30.914884,29.903601],[30.914593090916718,29.9034666158393],[30.917235351288095,29.904686810781598],[30.914884,29.903601]],[[30.912985110564346,29.902723816447693],[30.916356053959827,29.89712757820009],[30.91354,29.901804],[30.912985110693835,29.90272381650751],[30.912985110564346,29.902723816447693]],[[30.903192259103335,29.875301418824094],[30.9312513658882,29.883590819049893],[30.925521,29.881908],[30.914038,29.878511],[30.903192259103335,29.875301418824094]],[[30.876943,29.906675],[30.875589,29.905769],[30.878347,29.907613],[30.876943,29.906675]],[[30.879888,29.905829],[30.885011,29.899898],[30.885754060586457,29.89903796494928],[30.878347,29.907613],[30.879888,29.905829]],[[30.87260847164994,29.983056553072956],[30.873466,29.983409],[30.872917,29.983258],[30.87260847164994,29.983056553072956]],[[30.872324663366346,29.982786262376248],[30.872503610445722,29.982988086212934],[30.872456,29.982957],[30.872324663366346,29.982786262376248]],[[30.872100397120786,29.98241078125],[30.872167931034483,29.982582510344827],[30.872136,29.982541],[30.872100397120786,29.98241078125]],[[30.87201614104198,29.98186773134533],[30.87201322380478,29.982091941861317],[30.87199,29.982007],[30.87201614104198,29.98186773134533]],[[30.87221797678163,29.981243015455057],[30.872081115564683,29.981521573974362],[30.872106,29.981389],[30.87221797678163,29.981243015455057]],[[30.872630889853184,29.9807960185145],[30.872434323743498,29.98096096311959],[30.872511,29.980861],[30.872630889853184,29.9807960185145]],[[30.87327491566318,29.980511624384036],[30.87295481043418,29.98062045035775],[30.873118,29.980532],[30.87327491566318,29.980511624384036]],[[30.873722,29.978714],[30.873841203085824,29.9805010611379],[30.873550762645905,29.980475805447472],[30.873788,29.980445],[30.873722,29.978714]],[[30.87765,29.969018],[30.8777357881223,29.968921582580133],[30.871203,29.976993],[30.875894,29.971189],[30.87765,29.969018]],[[30.868609,29.963192],[30.861882,29.958608],[30.868574,29.963168],[30.87765,29.969018],[30.868609,29.963192]],[[30.86657,29.941824],[30.86309,29.939529],[30.888804,29.956482],[30.879463,29.950325],[30.872562,29.945775],[30.86657,29.941824]],[[30.889990593042953,29.955206437470256],[30.889990602992697,29.95520644387372],[30.880068471691224,29.966299875459814],[30.888804,29.956482],[30.889990593042953,29.955206437470256]],[[30.874111,29.930752],[30.87479267531402,29.931193181590096],[30.872151,29.929486],[30.874111,29.930752]],[[30.873353383391283,29.94449805943572],[30.87216,29.94373],[30.86503838613037,29.93906157218652],[30.873353383391283,29.94449805943572]],[[30.854794,29.982039],[30.849334,29.978419],[30.855139,29.982264],[30.860384,29.985755],[30.854794,29.982039]],[[30.898145,29.899572],[30.901162,29.901588],[30.898105,29.899547],[30.895524,29.897915],[30.898145,29.899572]],[[30.907511,29.905828],[30.910934,29.908114],[30.91354391485413,29.909857235465484],[30.910933,29.908114],[30.901162,29.901588],[30.907511,29.905828]],[[30.87588536877161,29.98102011607821],[30.878448,29.980296],[30.875948,29.981044],[30.87588536877161,29.98102011607821]],[[30.878435313067264,29.980150008339248],[30.878533116152802,29.980414628784395],[30.878448,29.980296],[30.878435313067264,29.980150008339248]],[[30.878922387127208,29.980957166727816],[30.87911704688022,29.981156176419447],[30.879022,29.981096],[30.878922387127208,29.980957166727816]],[[30.89001775599576,29.95522391902585],[30.890209,29.955347],[30.890494920075014,29.95554348535961],[30.89001775599576,29.95522391902585]],[[30.878379,29.979502],[30.878408551262318,29.979434920447492],[30.878392841742713,29.979661280343674],[30.878379,29.979502]],[[30.878705,29.978762],[30.87873975967028,29.978721915070636],[30.87863210496556,29.97892746725609],[30.878705,29.978762]],[[30.887003301388866,29.96960088147198],[30.88612794004065,29.970201848975176],[30.886231,29.970083],[30.886938,29.969621],[30.887003301388866,29.96960088147198]],[[30.887717,29.969381],[30.88816909319306,29.9693628723264],[30.887159845808906,29.969552652125625],[30.887717,29.969381]],[[30.89347311551426,29.998122436532537],[30.887901,29.994232],[30.882375,29.990631],[30.88048914601353,29.98939669570852],[30.889872,29.995516],[30.89347311551426,29.998122436532537]],[[30.91055885714405,29.931098071427183],[30.912069,29.929342],[30.912578841064388,29.92874886423284],[30.912211,29.929177],[30.91055885714405,29.931098071427183]],[[30.910804,29.991592],[30.91508797686181,29.9863650282314],[30.915087976864736,29.986365028233315],[30.910736,29.991676],[30.909674717079188,29.992970840504544],[30.910804,29.991592]],[[30.909159,29.990575],[30.90615,29.988714],[30.910804,29.991592],[30.909159,29.990575]],[[30.909436,29.984932],[30.90948339794601,29.98493051881419],[30.90615,29.988714],[30.909436,29.984932]],[[30.91284,29.981812],[30.912896863560622,29.98158524346991],[30.912904741288806,29.982527069639758],[30.912885,29.982477],[30.91284,29.981812]],[[30.915867,29.969883],[30.9189712230317,29.971916828023765],[30.918784,29.9718],[30.915867,29.969883]],[[30.91217,29.9669],[30.914297,29.968388],[30.911811,29.966649],[30.91217,29.9669]],[[30.930372,29.961937],[30.931624,29.960337],[30.932220590360085,29.95957548192945],[30.930372,29.961937]],[[30.932711,29.963693],[30.929212,29.96109],[30.930372,29.961937],[30.932711,29.963693]],[[30.93839158319047,29.968365886052673],[30.93354,29.965353],[30.936656,29.967233],[30.93839158319047,29.968365886052673]],[[30.941214649453165,29.96088651469452],[30.940764,29.962068],[30.941084,29.961035],[30.941214649453165,29.96088651469452]],[[30.93818547171191,29.94968747030939],[30.938195,29.949693],[30.942953,29.952564],[30.939311,29.950367],[30.93818547171191,29.94968747030939]],[[30.942577,29.947924],[30.949408,29.945167],[30.938195,29.949693],[30.942577,29.947924]],[[30.941494369645774,29.926407331168505],[30.942789,29.929433],[30.94943073074956,29.945208826359675],[30.949408,29.945167],[30.941494369645774,29.926407331168505]],[[30.948638,29.927729],[30.95262,29.926569],[30.942789,29.929433],[30.948638,29.927729]],[[30.945929,29.913718],[30.953866,29.91109],[30.943288,29.914593],[30.93734108546087,29.91656175683859],[30.93734108393623,29.916561753224357],[30.945929,29.913718]],[[30.94805282240646,29.906160934570075],[30.945834,29.906226],[30.942977914126065,29.906287713751457],[30.94805282240646,29.906160934570075]],[[30.946302,29.901209],[30.94693,29.901466],[30.94622657134534,29.901199214066672],[30.946302,29.901209]],[[30.945616,29.90112],[30.945980458757774,29.901167284007933],[30.94546763342061,29.901140715948294],[30.945616,29.90112]],[[30.922863,29.904684],[30.92297424924568,29.90466531032243],[30.922767696946003,29.90474378538969],[30.922863,29.904684]],[[30.92227,29.905056],[30.922386329846766,29.90498302410962],[30.922243338562154,29.905093875151355],[30.92227,29.905056]],[[30.917900791056386,29.95940137888419],[30.908758549410766,29.9533220252402],[30.909775,29.953973],[30.917900791056386,29.95940137888419]],[[30.919734673483546,29.956185006862526],[30.912045,29.951247],[30.911686546729786,29.951000468847912],[30.912053,29.951252],[30.919734673483546,29.956185006862526]],[[30.917635,29.942244],[30.915907,29.941184],[30.915199,29.94075],[30.915764,29.941096],[30.917635,29.942244]],[[30.91395,29.944108],[30.911612,29.947602],[30.91007701199155,29.94989348926001],[30.910077011543297,29.949893488951716],[30.91395,29.944108]],[[30.910041546145077,29.980636808583366],[30.909467,29.980661],[30.909204330499094,29.98061361117252],[30.910041546145077,29.980636808583366]],[[30.911327,29.980352],[30.910417,29.980621],[30.910332268624185,29.980624567636877],[30.911327,29.980352]],[[30.899825800226164,29.986475882289515],[30.899825,29.986488],[30.899063,29.987402],[30.899825800226164,29.986475882289515]],[[30.89981975662515,29.986262795169523],[30.899839,29.986276],[30.8998327671908,29.98637038253931],[30.89981975662515,29.986262795169523]],[[30.909724,29.984923],[30.90974100544275,29.98493341971949],[30.909666726473173,29.984924789797713],[30.909724,29.984923]],[[30.924482,29.935797],[30.922556058281746,29.934601429335267],[30.928786,29.938467],[30.927189,29.937477],[30.924482,29.935797]],[[30.930251,29.943831],[30.930303270795925,29.944461606391222],[30.929349,29.939401],[30.930251,29.943831]],[[30.93417588910245,29.91248068359421],[30.93356276167123,29.912107789865235],[30.933785,29.9122],[30.93417588910245,29.91248068359421]],[[30.935551606755094,29.913583800389407],[30.935073984787408,29.913125574237668],[30.935335,29.913313],[30.935551606755094,29.913583800389407]],[[30.936661277665678,29.915014901513878],[30.93648120913909,29.914745983385348],[30.936626,29.914927],[30.936661277665678,29.915014901513878]],[[30.931358,29.911193],[30.934209,29.9078],[30.934304891555527,29.907714178560806],[30.931358,29.911193]],[[30.936179,29.906589],[30.936922,29.906439],[30.93710503336419,29.906434427539022],[30.936120992888064,29.906616871285014],[30.936179,29.906589]],[[30.934847,29.907229],[30.934994888288493,29.90715794256409],[30.934592585598818,29.907456696901374],[30.934847,29.907229]],[[30.936741,29.953216],[30.938114,29.954119],[30.937043,29.953415],[30.936731251244915,29.953209787234048],[30.936741,29.953216]],[[30.91927,29.942676],[30.919205286545058,29.94265890139906],[30.920835,29.942534],[30.91927,29.942676]],[[30.922205,29.943406],[30.924217,29.944687],[30.920835,29.942534],[30.922205,29.943406]],[[30.930821612195945,29.95926736278465],[30.933194,29.956581],[30.931758,29.958208],[30.930821612195945,29.95926736278465]],[[30.918283,29.903732],[30.918036414084597,29.903653258279117],[30.918824003896944,29.903807895332108],[30.918283,29.903732]],[[30.92045,29.904036],[30.920108785194945,29.903988132302384],[30.92090095847651,29.90401364645483],[30.92045,29.904036]],[[30.92277,29.903921],[30.922130189992,29.903952714720226],[30.943604,29.900611],[30.92277,29.903921]],[[30.935365,29.885525],[30.945356,29.898012],[30.93529070380868,29.885453929242136],[30.935365,29.885525]],[[30.933899,29.884373],[30.934697,29.884886],[30.935089396599615,29.885261361417896],[30.93388436068981,29.884368675161646],[30.933899,29.884373]],[[30.916617,29.9032],[30.91653533813364,29.90316295093746],[30.91689705991651,29.903289430897708],[30.916617,29.9032]],[[30.947537,29.960656],[30.943462,29.958141],[30.950531,29.962409],[30.949474,29.961791],[30.947537,29.960656]],[[30.92362669638432,29.96859012550554],[30.924986053760197,29.967014940335776],[30.924972,29.967043],[30.92362669638432,29.96859012550554]],[[30.928074891827286,29.96469865874287],[30.928149,29.964737],[30.92844106328761,29.964949178381417],[30.928074891827286,29.96469865874287]],[[30.929146349562576,29.965461555344245],[30.929297,29.965571],[30.92980619299427,29.96607397067662],[30.929146349562576,29.965461555344245]],[[30.930200193493853,29.966463156506148],[30.930279,29.966541],[30.93141,29.968036],[30.930200193493853,29.966463156506148]],[[30.922419,29.969979],[30.92055,29.971649],[30.92273478777094,29.969615837878777],[30.922419,29.969979]],[[30.91708711034367,29.982936228043577],[30.91705,29.98291],[30.917016947887323,29.9827912256338],[30.91708711034367,29.982936228043577]],[[30.916918958790788,29.98243909707399],[30.916895,29.982353],[30.91693592700961,29.982261873455165],[30.916918958790788,29.98243909707399]],[[30.917084400032373,29.98193128899042],[30.917151,29.981783],[30.91821,29.980548],[30.917084400032373,29.98193128899042]],[[30.92151000042236,29.982500904635152],[30.921983,29.982251],[30.921547,29.9825],[30.92151000042236,29.982500904635152]],[[31.022062226115597,29.91958010058225],[31.018316,29.920067],[31.020954,29.919724],[31.02206222598497,29.919580100503303],[31.022062226115597,29.91958010058225]],[[31.03170773077407,29.92540987783098],[31.036286,29.928177],[31.036294494769624,29.928182404546344],[31.03170773077407,29.92540987783098]],[[31.036837,29.919039],[31.037405,29.921828],[31.037847,29.924],[31.038148,29.92485],[31.037918,29.924348],[31.03659141456719,29.91802388187638],[31.036837,29.919039]],[[31.05098356588208,29.917077060206356],[31.05098356588916,29.91707706023568],[31.040916,29.918474],[31.036837,29.919039],[31.05098356588208,29.917077060206356]],[[30.979404,29.905226],[30.97903755100119,29.905239662296687],[30.980104850734136,29.905078084099387],[30.979404,29.905226]],[[30.980906,29.904909],[30.980756031048863,29.904940651236693],[30.98112751801107,29.904801954624155],[30.980906,29.904909]],[[31.035007,29.909764],[31.025362,29.917202],[31.046164,29.901129],[31.035007,29.909764]],[[31.04676106415398,29.901290895749803],[31.046535181452047,29.901188495591594],[31.046582,29.901196],[31.04676106415398,29.901290895749803]],[[31.047275,29.901719],[31.04697868826108,29.90140622649781],[31.047016,29.901426],[31.047275,29.901719]],[[31.057142,29.906985],[31.056546,29.90466],[31.056656,29.905088],[31.057142,29.906985]],[[31.060625,29.906721],[31.054916,29.907155],[31.057142,29.906985],[31.060625,29.906721]],[[31.059987,29.904722],[31.05993430139888,29.904727790359654],[31.060056880441422,29.904692897249575],[31.059987,29.904722]],[[31.060813,29.904378],[31.06059562776657,29.90446852790351],[31.064602900634963,29.9012751428702],[31.060813,29.904378]],[[31.065397,29.900625],[31.0653675293558,29.900649128125586],[31.065606,29.900114],[31.065397,29.900625]],[[31.06845677202498,29.898710791815823],[31.065573,29.898609],[31.06842,29.898692],[31.06845677202498,29.898710791815823]],[[31.036302,29.915673],[31.036317291635548,29.916717078893914],[31.036277,29.916525],[31.036302,29.915673]],[[31.012421,29.930387],[31.01245130201751,29.930375334652766],[30.996934,29.942125],[31.011404,29.931163],[31.012421,29.930387]],[[31.013073,29.930136],[31.013121906787894,29.930136330937373],[31.01294699194221,29.93018450923697],[31.013073,29.930136]],[[31.017365,29.930479],[31.017469397181635,29.930569070459295],[31.016472,29.930159],[31.017365,29.930479]],[[31.018254,29.931246],[31.01827553487465,29.931288870659554],[31.018082498573843,29.93109803420263],[31.018254,29.931246]],[[31.020725187919467,29.93422234899329],[31.020583,29.934172],[31.020521328682804,29.93412370742716],[31.020725187919467,29.93422234899329]],[[30.980882,29.939176],[30.98146,29.940447],[30.980646350011625,29.93885444013511],[30.980882,29.939176]],[[30.996686956976518,29.926276455360195],[30.996802,29.92625],[30.996868281439607,29.926266346679327],[30.996686956976518,29.926276455360195]],[[30.968866837057927,29.92988417704491],[30.9683484195657,29.929862168755147],[30.968542,29.9298],[30.968866837057927,29.92988417704491]],[[30.976877142917882,29.93574019264084],[30.969065416953512,29.929935636286956],[30.969144,29.929956],[30.976877142917882,29.93574019264084]],[[30.987135,29.930978],[30.987154111333613,29.930968229743772],[30.977415068229476,29.936139901719162],[30.977415068166305,29.936139901672224],[30.987135,29.930978]],[[30.996284390306208,29.926369029824457],[30.9920281515753,29.928476482020844],[30.996041,29.926425],[30.996284390306208,29.926369029824457]],[[31.042409,29.923436],[31.04193,29.922999],[31.042503712050003,29.92349673660026],[31.042409,29.923436]],[[31.041497,29.922229],[31.041480259885688,29.922113515833026],[31.04193,29.922999],[31.041497,29.922229]],[[31.040421728813598,29.92626763276838],[31.041000659131562,29.926543313872173],[31.040944,29.92654],[31.040421728813598,29.92626763276838]],[[30.98042035873892,29.938546060221253],[30.980162894947426,29.938272597957162],[30.980295,29.938375],[30.98042035873892,29.938546060221253]],[[30.950826125596684,29.947776462178233],[30.95110047389142,29.948182831885866],[30.95094,29.947986],[30.950826125596684,29.947776462178233]],[[30.952657148952667,29.95009219723668],[30.953005475357603,29.95049347435885],[30.952935,29.950433],[30.952657148952667,29.95009219723668]]],[[[30.874276,29.918198],[30.869603,29.923635],[30.874492,29.926848],[30.879243,29.921379],[30.882666,29.917443],[30.87771,29.914202],[30.874276,29.918198]]]]}}]}