{
"type": "FeatureCollection",
"name": "Urban_Changes",
"xy_coordinate_resolution": 8.98315e-10,
"z_coordinate_resolution": 0.0001,
"features": [
{"type":"Feature","properties":{"نمط_العمران":"اسكان مخطط اقتصادى","اسم_المحور":"محور دهشور","اسم_المحافظة":"محافظة الجيزة","نوع_طبيعة_المنطقة":"قائمة","مساحة_التغير_كم2":2.4754269814110441,"نسبة_المساحه":6.9836764799625461,"مساحة_التغير_بالمتر":2475426.981411044,"GlobalID":"{BAEBD0B3-8298-4E59-9F3B-AB37CED1E795}","SHAPE_Length":6174.642411296878,"SHAPE_Area":2475412.7126043788},"geometry":{"type":"Polygon","coordinates":[[[30.9005187444,29.977031122],[30.8908034513,29.9883972004],[30.8794175447,29.9811150959],[30.8786382707,29.980164391],[30.8785901534,29.979235202],[30.8790572478,29.9783933662],[30.8863684325,29.9697758393],[30.8875233819,29.9691867636],[30.8892876399,29.969490727],[30.9005187444,29.977031122]]]}},
{"type":"Feature","properties":{"نمط_العمران":"كمبوند","اسم_المحور":"محور دهشور","اسم_المحافظة":"محافظة الجيزة","نوع_طبيعة_المنطقة":"قائمة","مساحة_التغير_كم2":0.60678033692019251,"نسبة_المساحه":1.7118491473490376,"مساحة_التغير_بالمتر":606780.33692019247,"GlobalID":"{3DF1118A-68BE-4190-9F33-B3C4785FD1CC}","SHAPE_Length":3077.6865411486297,"SHAPE_Area":606776.84685778234},"geometry":{"type":"Polygon","coordinates":[[[30.9177605708,29.9960630488],[30.9110967441,29.9918078717],[30.910964922,29.991352795],[30.9153712324,29.9865308224],[30.922096187,29.9907772725],[30.9177605708,29.9960630488]]]}},
{"type":"Feature","properties":{"نمط_العمران":"كمبوند","اسم_المحور":"محور دهشور","اسم_المحافظة":"محافظة الجيزة","نوع_طبيعة_المنطقة":"قائمة","مساحة_التغير_كم2":0.65040068099015569,"نسبة_المساحه":1.8349108951674402,"مساحة_التغير_بالمتر":650400.68099015567,"GlobalID":"{95A8E429-2604-489C-98AD-E03FA0BD3086}","SHAPE_Length":4269.6629359088465,"SHAPE_Area":650385.31395778735},"geometry":{"type":"Polygon","coordinates":[[[30.9082532172,30.0064905126],[30.9076974936,30.0071751064],[30.8945613858,29.9985631041],[30.8941722434,29.997953081],[30.8953541446,29.9974242468],[30.8949908578,29.997078777],[30.8958499293,29.9963031991],[30.8954206769,29.9947781816],[30.8995226025,29.997315822],[30.9024255441,29.9977455774],[30.9054881323,29.9996799822],[30.9062479507,30.000988262],[30.9062921281,30.0044259381],[30.9082532172,30.0064905126]]]}},
{"type":"Feature","properties":{"نمط_العمران":"كمبوند","اسم_المحور":"محور دهشور","اسم_المحافظة":"محافظة الجيزة","نوع_طبيعة_المنطقة":"قائمة","مساحة_التغير_كم2":0.06669978486708486,"نسبة_المساحه":0.18817348372332163,"مساحة_التغير_بالمتر":66699.784867084862,"GlobalID":"{025F830F-19D9-4C03-9A4E-A1DF33B22F43}","SHAPE_Length":1752.4199770520488,"SHAPE_Area":66694.133833907472},"geometry":{"type":"Polygon","coordinates":[[[30.9063247056,29.9971791179],[30.9128462321,30.0012720783],[30.9129539941,30.0016333828],[30.9124396272,30.0019090674],[30.9059617161,29.9978142878],[30.9063247056,29.9971791179]]]}},
{"type":"Feature","properties":{"نمط_العمران":"كمبوند","اسم_المحور":"محور دهشور","اسم_المحافظة":"محافظة الجيزة","نوع_طبيعة_المنطقة":"قائمة","مساحة_التغير_كم2":0.19490219118613053,"نسبة_المساحه":0.54985820979614153,"مساحة_التغير_بالمتر":194902.19118613054,"GlobalID":"{86766CDE-FCFB-410C-B528-8F290CE274BE}","SHAPE_Length":1759.4960001321149,"SHAPE_Area":194892.96295667705},"geometry":{"type":"Polygon","coordinates":[[[30.9027367444,29.9874485434],[30.90209755,29.9874008493],[30.898256895,29.9849752494],[30.9005107517,29.9822778603],[30.9048438059,29.9849081677],[30.9027367444,29.9874485434]]]}},
{"type":"Feature","properties":{"نمط_العمران":"اسكان مخطط اقتصادى","اسم_المحور":"محور دهشور","اسم_المحافظة":"محافظة الجيزة","نوع_طبيعة_المنطقة":"تحت الانشاء","مساحة_التغير_كم2":0.56557045842017384,"نسبة_المساحه":1.5955878068272318,"مساحة_التغير_بالمتر":565570.45842017385,"GlobalID":"{AE941F71-C068-4961-B875-EFFDB8EAD6DB}","SHAPE_Length":3135.6610887922484,"SHAPE_Area":565569.77975223621},"geometry":{"type":"Polygon","coordinates":[[[30.9339623014,29.9697886425],[30.9305141832,29.973980741],[30.9265945991,29.9713790137],[30.9229830577,29.9695933965],[30.9252198304,29.966895464],[30.9261189756,29.9650605219],[30.927120036,29.9642117583],[30.9297893376,29.9659452182],[30.9316544243,29.9683943538],[30.9339623014,29.9697886425]]]}},
{"type":"Feature","properties":{"نمط_العمران":"كمبوند","اسم_المحور":"محور دهشور","اسم_المحافظة":"محافظة الجيزة","نوع_طبيعة_المنطقة":"قائمة","مساحة_التغير_كم2":0.73294237241534088,"نسبة_المساحه":2.0677775777038834,"مساحة_التغير_بالمتر":732942.37241534085,"GlobalID":"{58F392CB-3A76-4497-95EE-92E9120EC2B8}","SHAPE_Length":4268.3143052089699,"SHAPE_Area":732944.28660801006},"geometry":{"type":"Polygon","coordinates":[[[30.8829219985,29.9835411946],[30.8810323452,29.9856021105],[30.8772767696,29.9872759167],[30.8677075298,29.9810491283],[30.8712021627,29.976978692],[30.8735259072,29.9787858145],[30.8738581209,29.98066148],[30.8759706856,29.9810986655],[30.8771813641,29.980853676],[30.8781738862,29.980489312],[30.8779019088,29.9792512725],[30.8783283276,29.9803341592],[30.8829219985,29.9835411946]]]}},
{"type":"Feature","properties":{"نمط_العمران":"اسكان اجتماعى شباب","اسم_المحور":"محور دهشور","اسم_المحافظة":"محافظة الجيزة","نوع_طبيعة_المنطقة":"قائمة","مساحة_التغير_كم2":0.49973644526306643,"نسبة_المساحه":1.409856838909624,"مساحة_التغير_بالمتر":499736.44526306645,"GlobalID":"{4EACD5F6-7BBF-4EBB-B797-A13ED8E69A2E}","SHAPE_Length":2929.9257970948811,"SHAPE_Area":499731.12941890798},"geometry":{"type":"Polygon","coordinates":[[[30.9691647426,29.95457794],[30.9650613109,29.9517757753],[30.9713414013,29.9445012042],[30.9731356995,29.9457557609],[30.9745716049,29.9481779848],[30.9691647426,29.95457794]]]}},
{"type":"Feature","properties":{"نمط_العمران":"اسكان اجتماعى شباب","اسم_المحور":"محور دهشور","اسم_المحافظة":"محافظة الجيزة","نوع_طبيعة_المنطقة":"تحت الانشاء","مساحة_التغير_كم2":0.73029904189522099,"نسبة_المساحه":2.0603202116329986,"مساحة_التغير_بالمتر":730299.04189522099,"GlobalID":"{9462FCD4-9F9E-45C8-9F2F-5E9BB55706BE}","SHAPE_Length":4546.7963973925807,"SHAPE_Area":730263.59538294317},"geometry":{"type":"Polygon","coordinates":[[[30.971050627,29.9443130961],[30.9695227974,29.946348391],[30.9661896153,29.9441424822],[30.965223602,29.9452289297],[30.9557046128,29.9389230535],[30.9541049958,29.9364505182],[30.9541795645,29.9348725108],[30.9554816519,29.9339854659],[30.971050627,29.9443130961]]]}},
{"type":"Feature","properties":{"نمط_العمران":"اسكان اجتماعى شباب","اسم_المحور":"محور دهشور","اسم_المحافظة":"محافظة الجيزة","نوع_طبيعة_المنطقة":"قائمة","مساحة_التغير_كم2":1.9632608671858565,"نسبة_المساحه":5.5387530495370587,"مساحة_التغير_بالمتر":1963260.8671858564,"GlobalID":"{F1AA16E7-C4B4-498D-8287-A535F55B8D45}","SHAPE_Length":9499.1085587883772,"SHAPE_Area":1963235.7376199027},"geometry":{"type":"Polygon","coordinates":[[[30.977490969,29.935844849],[30.9768787982,29.9357000216],[30.9702563034,29.930652003],[30.9730101055,29.9276151175],[30.974458146,29.9275263473],[30.9756094201,29.9282409214],[30.9865904958,29.9229018473],[30.9887670413,29.9224768935],[30.9958778264,29.9245105754],[30.9956114112,29.9252722189],[30.9971488561,29.9251595925],[31.0103003885,29.928409142],[31.0101387259,29.9285943886],[31.0123233716,29.9304483153],[31.0113599822,29.9310348501],[31.0094309698,29.9292519132],[30.9967666769,29.9261574315],[30.977490969,29.935844849]]]}},
{"type":"Feature","properties":{"نمط_العمران":"اسكان اجتماعى شباب","اسم_المحور":"محور دهشور","اسم_المحافظة":"محافظة الجيزة","نوع_طبيعة_المنطقة":"قائمة","مساحة_التغير_كم2":0.51715557684553703,"نسبة_المساحه":1.45899970615935,"مساحة_التغير_بالمتر":517155.57684553706,"GlobalID":"{34B16691-E227-4A4B-99AC-1843156F9EF0}","SHAPE_Length":6593.9397247049556,"SHAPE_Area":517167.10726327327},"geometry":{"type":"Polygon","coordinates":[[[31.0451505196,29.8993895572],[31.0463597985,29.9006290494],[31.0255634112,29.9168609988],[31.0220078038,29.9185096355],[31.0204520087,29.9176963633],[31.0242477962,29.9159271045],[31.0451505196,29.8993895572]]]}},
{"type":"Feature","properties":{"نمط_العمران":"اسكان اجتماعى شباب","اسم_المحور":"محور دهشور","اسم_المحافظة":"محافظة الجيزة","نوع_طبيعة_المنطقة":"قائمة","مساحة_التغير_كم2":0.28603224726622789,"نسبة_المساحه":0.80695439321960483,"مساحة_التغير_بالمتر":286032.2472662279,"GlobalID":"{85AE5827-3DEB-4D34-BECD-94A894F99277}","SHAPE_Length":2645.0637369205956,"SHAPE_Area":286030.61612428882},"geometry":{"type":"Polygon","coordinates":[[[31.0626835341,29.8817983758],[31.0632551223,29.8824537027],[31.058523308,29.8861386972],[31.0544878852,29.8882847558],[31.0524130997,29.8876279073],[31.0537464875,29.8851628248],[31.0620682341,29.8817280461],[31.0626835341,29.8817983758]]]}},
{"type":"Feature","properties":{"نمط_العمران":"اسكان اجتماعى شباب","اسم_المحور":"محور دهشور","اسم_المحافظة":"محافظة الجيزة","نوع_طبيعة_المنطقة":"قائمة","مساحة_التغير_كم2":0.59765654036230353,"نسبة_المساحه":1.6861090855706966,"مساحة_التغير_بالمتر":597656.54036230349,"GlobalID":"{1D92FDC2-2CDD-4882-BA49-23DC983A3CD5}","SHAPE_Length":3225.6363141829261,"SHAPE_Area":597655.13671982253},"geometry":{"type":"Polygon","coordinates":[[[30.9114887351,29.9006072754],[30.9029103721,29.8965616342],[30.9057994651,29.8916507029],[30.9148588368,29.8958462723],[30.9114887351,29.9006072754]]]}},
{"type":"Feature","properties":{"نمط_العمران":"اسكان اجتماعى شباب","اسم_المحور":"محور دهشور","اسم_المحافظة":"محافظة الجيزة","نوع_طبيعة_المنطقة":"قائمة","مساحة_التغير_كم2":0.74562050071111341,"نسبة_المساحه":2.10354512288054,"مساحة_التغير_بالمتر":745620.50071111345,"GlobalID":"{C9F6CDF9-5EEA-43EB-8F2A-8BC695404EF9}","SHAPE_Length":3471.0095947898085,"SHAPE_Area":745618.24340009817},"geometry":{"type":"Polygon","coordinates":[[[30.8870347352,29.8775998081],[30.8936488527,29.8806935835],[30.8888341113,29.8886688181],[30.882098665,29.8854286119],[30.8870347352,29.8775998081]]]}},
{"type":"Feature","properties":{"نمط_العمران":"اسكان اجتماعى شباب","اسم_المحور":"محور دهشور","اسم_المحافظة":"محافظة الجيزة","نوع_طبيعة_المنطقة":"قائمة","مساحة_التغير_كم2":0.017223247284482893,"نسبة_المساحه":0.048590238319475294,"مساحة_التغير_بالمتر":17223.247284482892,"GlobalID":"{4D85B3C5-0C3A-441D-8F06-EBD240F8D07B}","SHAPE_Length":755.96477165754197,"SHAPE_Area":17228.945918232363},"geometry":{"type":"Polygon","coordinates":[[[30.9215938532,29.9058941913],[30.9195187049,29.905092654],[30.9199316841,29.9047276317],[30.9214272783,29.905173936],[30.922343176,29.9045641798],[30.9215938532,29.9058941913]]]}},
{"type":"Feature","properties":{"نمط_العمران":"خدمات ","اسم_المحور":"محور دهشور","اسم_المحافظة":"محافظة الجيزة","نوع_طبيعة_المنطقة":"قائمة","مساحة_التغير_كم2":0.16168456085701111,"نسبة_المساحه":0.45614460588392758,"مساحة_التغير_بالمتر":161684.56085701109,"GlobalID":"{373FC121-C978-4DEA-BB16-D6EE23DFCFB9}","SHAPE_Length":1609.6865133540998,"SHAPE_Area":161684.21230523483},"geometry":{"type":"Polygon","coordinates":[[[30.9485924046,29.9288234744],[30.9497941095,29.9315167905],[30.9452238912,29.933034501],[30.9439827128,29.9301198144],[30.9485924046,29.9288234744]]]}},
{"type":"Feature","properties":{"نمط_العمران":"اسكان اجتماعى شباب","اسم_المحور":"محور دهشور","اسم_المحافظة":"محافظة الجيزة","نوع_طبيعة_المنطقة":"قائمة","مساحة_التغير_كم2":0.13917333661035439,"نسبة_المساحه":0.3926359229427222,"مساحة_التغير_بالمتر":139173.3366103544,"GlobalID":"{87672955-16A2-4386-A2DD-7E0953F54E23}","SHAPE_Length":1347.7456817576985,"SHAPE_Area":139141.38647708649},"geometry":{"type":"Polygon","coordinates":[[[30.9583701194,29.9089245247],[30.9600486516,29.9094727619],[30.9608525254,29.9107975979],[30.9605556308,29.9122004337],[30.9591831942,29.9131489812],[30.9578718674,29.9126552175],[30.9569925755,29.9108950644],[30.9573209575,29.9091978002],[30.9583701194,29.9089245247]]]}},
{"type":"Feature","properties":{"نمط_العمران":"كمبوند","اسم_المحور":"محور دهشور","اسم_المحافظة":"محافظة الجيزة","نوع_طبيعة_المنطقة":"قائمة","مساحة_التغير_كم2":0.11363517875239885,"نسبة_المساحه":0.32058765259846372,"مساحة_التغير_بالمتر":113635.17875239886,"GlobalID":"{9D21D055-457C-48A1-808D-18C1DBF359F7}","SHAPE_Length":1359.6283618178088,"SHAPE_Area":113630.18499303987},"geometry":{"type":"Polygon","coordinates":[[[31.0773348696,29.8939526295],[31.0764049707,29.8918077783],[31.0803916327,29.8905083826],[31.0812754959,29.8926891289],[31.0773348696,29.8939526295]]]}},
{"type":"Feature","properties":{"نمط_العمران":"كمبوند","اسم_المحور":"محور دهشور","اسم_المحافظة":"محافظة الجيزة","نوع_طبيعة_المنطقة":"قائمة","مساحة_التغير_كم2":0.22850344694284905,"نسبة_المساحه":0.6446540980560489,"مساحة_التغير_بالمتر":228503.44694284906,"GlobalID":"{5E37BBBE-968B-48F7-BE93-4A05A6AC0187}","SHAPE_Length":2102.08095542418,"SHAPE_Area":228506.24957321485},"geometry":{"type":"Polygon","coordinates":[[[31.0630856675,29.9056114436],[31.063866975,29.9057608841],[31.0683499574,29.9100981387],[31.066248982,29.9121186313],[31.0607319994,29.9068884129],[31.0630856675,29.9056114436]]]}},
{"type":"Feature","properties":{"نمط_العمران":"كمبوند","اسم_المحور":"محور دهشور","اسم_المحافظة":"محافظة الجيزة","نوع_طبيعة_المنطقة":"قائمة","مساحة_التغير_كم2":0.3453136139606609,"نسبة_المساحه":0.97419902996019536,"مساحة_التغير_بالمتر":345313.61396066088,"GlobalID":"{5911DAA2-8680-4F0A-96CB-87D6EBE257AE}","SHAPE_Length":2643.8995252550453,"SHAPE_Area":345309.08806063479},"geometry":{"type":"Polygon","coordinates":[[[31.0743470823,29.9045120223],[31.0745765042,29.9054157688],[31.0690241858,29.909862097],[31.0685367186,29.9098537576],[31.066315668,29.9077454633],[31.0698399081,29.9049048691],[31.0688615626,29.9042128699],[31.0711935039,29.9015294736],[31.0743470823,29.9045120223]]]}},
{"type":"Feature","properties":{"نمط_العمران":"كمبوند","اسم_المحور":"محور دهشور","اسم_المحافظة":"محافظة الجيزة","نوع_طبيعة_المنطقة":"قائمة","مساحة_التغير_كم2":0.52063267938315905,"نسبة_المساحه":1.4688093104792346,"مساحة_التغير_بالمتر":520632.67938315903,"GlobalID":"{628462B6-E161-4118-82E1-43E8A41D92AB}","SHAPE_Length":2978.0911396758875,"SHAPE_Area":520606.1336559513},"geometry":{"type":"Polygon","coordinates":[[[31.0574483664,29.9046691234],[31.056517075,29.9042479911],[31.0552931292,29.8990332545],[31.0556191785,29.8983001426],[31.0571123836,29.897174026],[31.0578266489,29.8970066201],[31.0600340294,29.8985508882],[31.0652310168,29.8990504016],[31.065126177,29.9005232265],[31.060715034,29.9042110471],[31.0574483664,29.9046691234]]]}},
{"type":"Feature","properties":{"نمط_العمران":"كمبوند","اسم_المحور":"محور دهشور","اسم_المحافظة":"محافظة الجيزة","نوع_طبيعة_المنطقة":"قائمة","مساحة_التغير_كم2":0.23224851307417277,"نسبة_المساحه":0.65521968146999443,"مساحة_التغير_بالمتر":232248.51307417278,"GlobalID":"{B1EBA226-3E9C-4703-90C4-1086B4E0E843}","SHAPE_Length":1904.7003747182184,"SHAPE_Area":232244.00262427496},"geometry":{"type":"Polygon","coordinates":[[[31.054865513,29.9008850483],[31.0553355773,29.9011752026],[31.0561410581,29.90469001],[31.0506915237,29.9050999588],[31.0499667353,29.9013521451],[31.054865513,29.9008850483]]]}},
{"type":"Feature","properties":{"نمط_العمران":"اسكان اجتماعى شباب","اسم_المحور":"محور دهشور","اسم_المحافظة":"محافظة الجيزة","نوع_طبيعة_المنطقة":"قائمة","مساحة_التغير_كم2":0.63768474194410862,"نسبة_المساحه":1.7990366782733931,"مساحة_التغير_بالمتر":637684.74194410862,"GlobalID":"{98B9ECAC-B16D-4BD7-8129-CAE271EC49BB}","SHAPE_Length":3283.1170665907671,"SHAPE_Area":637664.27006036695},"geometry":{"type":"Polygon","coordinates":[[[31.0366208117,29.919700052],[31.0382229068,29.9254724475],[31.0362426746,29.9276903869],[31.0272934784,29.9220637957],[31.0267640574,29.9212924691],[31.0268269836,29.9201908103],[31.0277950437,29.9195453513],[31.0357104849,29.9193065281],[31.0366208117,29.919700052]]]}},
{"type":"Feature","properties":{"نمط_العمران":"كمبوند","اسم_المحور":"محور دهشور","اسم_المحافظة":"محافظة الجيزة","نوع_طبيعة_المنطقة":"قائمة","مساحة_التغير_كم2":0.76121838671449893,"نسبة_المساحه":2.1475498907193749,"مساحة_التغير_بالمتر":761218.38671449898,"GlobalID":"{B4B6CB67-DC34-4D77-A571-D7EC033FC08B}","SHAPE_Length":3336.4010285364193,"SHAPE_Area":761199.34197811992},"geometry":{"type":"Polygon","coordinates":[[[31.0479704571,29.926591065],[31.0420677745,29.922801641],[31.0411952005,29.9192863127],[31.0415100767,29.9186763523],[31.0499001416,29.917332044],[31.0509723503,29.9176999503],[31.0523310053,29.9232886543],[31.0479704571,29.926591065]]]}},
{"type":"Feature","properties":{"نمط_العمران":"كمبوند","اسم_المحور":"محور دهشور","اسم_المحافظة":"محافظة الجيزة","نوع_طبيعة_المنطقة":"تحت الانشاء","مساحة_التغير_كم2":0.3524459153467232,"نسبة_المساحه":0.99432068404730367,"مساحة_التغير_بالمتر":352445.91534672322,"GlobalID":"{1AADE505-CC33-4777-8665-9AEFDDF4EF16}","SHAPE_Length":2663.5531198822928,"SHAPE_Area":352441.01409380999},"geometry":{"type":"Polygon","coordinates":[[[31.0431912561,29.9305969167],[31.0419996935,29.9306943929],[31.0399838485,29.9291809823],[31.0378261842,29.9289044303],[31.0367533375,29.9278326307],[31.0385829228,29.9257571154],[31.0416105223,29.9269111876],[31.0441579557,29.9253437765],[31.04484917,29.9252599554],[31.0471463839,29.9265841972],[31.0473955186,29.9270672161],[31.0431912561,29.9305969167]]]}},
{"type":"Feature","properties":{"نمط_العمران":"اسكان اجتماعى شباب","اسم_المحور":"محور دهشور","اسم_المحافظة":"محافظة الجيزة","نوع_طبيعة_المنطقة":"قائمة","مساحة_التغير_كم2":1.5093240652508313,"نسبة_المساحه":4.2581061991678339,"مساحة_التغير_بالمتر":1509324.0652508312,"GlobalID":"{AA6A921A-339D-466C-AD53-8F5251F9AFEC}","SHAPE_Length":5466.6335541224444,"SHAPE_Area":1509315.0124561246},"geometry":{"type":"Polygon","coordinates":[[[31.0078165726,29.9342174985],[31.0144779246,29.9409032933],[31.008925038,29.9451475191],[31.0055053874,29.9453228858],[31.0020039682,29.948011146],[31.0016755038,29.9476934681],[31.0000053448,29.9489687036],[30.9996932332,29.9486705111],[30.998459404,29.9496193701],[30.9982640592,29.9492359159],[30.9959592784,29.9487357195],[30.9953205704,29.9477887127],[30.9962680875,29.945161661],[30.9977492733,29.9436513889],[30.9969587856,29.9430626435],[30.9982794833,29.9417829659],[30.9981098212,29.9415968546],[31.0078165726,29.9342174985]]]}},
{"type":"Feature","properties":{"نمط_العمران":"اسكان مخطط اقتصادى","اسم_المحور":"محور دهشور","اسم_المحافظة":"محافظة الجيزة","نوع_طبيعة_المنطقة":"تحت الانشاء","مساحة_التغير_كم2":0.20705624158787711,"نسبة_المساحه":0.58414722602015212,"مساحة_التغير_بالمتر":207056.2415878771,"GlobalID":"{0B461F11-21E5-4E32-BD5A-0E7859658AF6}","SHAPE_Length":1903.7134331415518,"SHAPE_Area":207049.80147138273},"geometry":{"type":"Polygon","coordinates":[[[30.8850499797,29.9671644142],[30.8865495292,29.9679533452],[30.8868831832,29.9687734793],[30.8835091959,29.9729138841],[30.8806411067,29.9711026944],[30.8824209907,29.9693936291],[30.8817699726,29.9686080396],[30.8850499797,29.9671644142]]]}},
{"type":"Feature","properties":{"نمط_العمران":"كمبوند","اسم_المحور":"محور دهشور","اسم_المحافظة":"محافظة الجيزة","نوع_طبيعة_المنطقة":"قائمة","مساحة_التغير_كم2":0.088638367381168107,"نسبة_المساحه":0.25006662937368807,"مساحة_التغير_بالمتر":88638.367381168107,"GlobalID":"{734A0199-4FBC-43A1-A1BC-5C9FB6DB184D}","SHAPE_Length":1169.9777130466864,"SHAPE_Area":88634.864190863969},"geometry":{"type":"Polygon","coordinates":[[[30.9002699284,29.986475323],[30.9023028811,29.9878345007],[30.9002879238,29.9902185687],[30.8981948375,29.988796017],[30.9002699284,29.986475323]]]}},
{"type":"Feature","properties":{"نمط_العمران":"كمبوند","اسم_المحور":"محور دهشور","اسم_المحافظة":"محافظة الجيزة","نوع_طبيعة_المنطقة":"قائمة","مساحة_التغير_كم2":0.041068345790446451,"نسبة_المساحه":0.11586204833407092,"مساحة_التغير_بالمتر":41068.345790446452,"GlobalID":"{609AA829-1EFA-4778-83C0-FDD14BB54EFC}","SHAPE_Length":811.89805072883473,"SHAPE_Area":41066.755445453127},"geometry":{"type":"Polygon","coordinates":[[[30.907696594,29.9926865136],[30.9089422028,29.9935126694],[30.907325146,29.9953672014],[30.9062129945,29.9943995938],[30.907696594,29.9926865136]]]}},
{"type":"Feature","properties":{"نمط_العمران":"كمبوند","اسم_المحور":"محور دهشور","اسم_المحافظة":"محافظة الجيزة","نوع_طبيعة_المنطقة":"قائمة","مساحة_التغير_كم2":0.043959538534405512,"نسبة_المساحه":0.12401868349909444,"مساحة_التغير_بالمتر":43959.53853440551,"GlobalID":"{2263BF57-B16E-4538-B104-53BB2EF83175}","SHAPE_Length":920.05447517893094,"SHAPE_Area":43957.065549188956},"geometry":{"type":"Polygon","coordinates":[[[30.9054203258,29.9897197664],[30.9081943078,29.9915271419],[30.9074927315,29.9924475537],[30.904805884,29.9908016816],[30.9054203258,29.9897197664]]]}},
{"type":"Feature","properties":{"نمط_العمران":"كمبوند","اسم_المحور":"محور دهشور","اسم_المحافظة":"محافظة الجيزة","نوع_طبيعة_المنطقة":"قائمة","مساحة_التغير_كم2":0.039469971761603106,"نسبة_المساحه":0.11135271430998538,"مساحة_التغير_بالمتر":39469.971761603105,"GlobalID":"{9E33A87E-99F6-45F1-AC46-1D966E27E1EC}","SHAPE_Length":841.04994031570891,"SHAPE_Area":39466.33745373688},"geometry":{"type":"Polygon","coordinates":[[[30.9042761334,29.99107011],[30.9047316907,29.9910006046],[30.9054061702,29.9916838695],[30.9039111535,29.9936920322],[30.9031432034,29.9936228722],[30.902729295,29.9929051713],[30.9042761334,29.99107011]]]}},
{"type":"Feature","properties":{"نمط_العمران":"كمبوند","اسم_المحور":"محور دهشور","اسم_المحافظة":"محافظة الجيزة","نوع_طبيعة_المنطقة":"قائمة","مساحة_التغير_كم2":0.38852238629338021,"نسبة_المساحه":1.0960996512809102,"مساحة_التغير_بالمتر":388522.38629338023,"GlobalID":"{C6E85FD0-4023-4A66-884E-F6622F38F540}","SHAPE_Length":3340.2692501120491,"SHAPE_Area":388522.7749516964},"geometry":{"type":"Polygon","coordinates":[[[30.8922157312,29.9927676772],[30.8899069914,29.9954962414],[30.8838656322,29.9916213411],[30.8837140969,29.9910862442],[30.8843954702,29.9903124891],[30.8854974789,29.9907636146],[30.8874058481,29.9907318343],[30.8884828623,29.9911249281],[30.8893784413,29.9908847952],[30.8895183877,29.99056124],[30.8871052078,29.988886014],[30.8875400503,29.9885852294],[30.8880201252,29.9887562006],[30.8886793839,29.9872598932],[30.8933623974,29.9901834022],[30.8934284189,29.9907340671],[30.8920844071,29.9924921418],[30.8922157312,29.9927676772]]]}},
{"type":"Feature","properties":{"نمط_العمران":"كمبوند","اسم_المحور":"محور دهشور","اسم_المحافظة":"محافظة الجيزة","نوع_طبيعة_المنطقة":"قائمة","مساحة_التغير_كم2":0.057162438805553099,"نسبة_المساحه":0.16126671577122628,"مساحة_التغير_بالمتر":57162.438805553102,"GlobalID":"{29150E6A-2A93-403A-8854-4576CD8201E9}","SHAPE_Length":966.10020912220557,"SHAPE_Area":57158.093197315648},"geometry":{"type":"Polygon","coordinates":[[[30.9067427559,29.9952459266],[30.9069307169,29.99582715],[30.9055486859,29.9974353457],[30.9047079177,29.9970590511],[30.9048453094,29.9965580746],[30.9039423206,29.99595229],[30.9052216689,29.9943725158],[30.9067427559,29.9952459266]]]}},
{"type":"Feature","properties":{"نمط_العمران":"كمبوند","اسم_المحور":"محور دهشور","اسم_المحافظة":"محافظة الجيزة","نوع_طبيعة_المنطقة":"قائمة","مساحة_التغير_كم2":0.10195649986342827,"نسبة_المساحه":0.28763975484732585,"مساحة_التغير_بالمتر":101956.49986342827,"GlobalID":"{DEA51582-BF47-458E-A640-311FDBF93EE8}","SHAPE_Length":1313.880637749468,"SHAPE_Area":101944.08550261421},"geometry":{"type":"Polygon","coordinates":[[[30.9182237762,29.9808111976],[30.9214676807,29.9830318162],[30.9216067038,29.9834601151],[30.9203081681,29.983619794],[30.9204352291,29.9840820311],[30.919831087,29.9845605172],[30.9170278946,29.9826800191],[30.917092655,29.981952661],[30.9182237762,29.9808111976]]]}},
{"type":"Feature","properties":{"نمط_العمران":"كمبوند","اسم_المحور":"محور دهشور","اسم_المحافظة":"محافظة الجيزة","نوع_طبيعة_المنطقة":"قائمة","مساحة_التغير_كم2":0.015133243364630828,"نسبة_المساحه":0.042693917673499129,"مساحة_التغير_بالمتر":15133.243364630831,"GlobalID":"{FA25D379-B701-4071-9FAC-013404A0F4E0}","SHAPE_Length":515.29380299114109,"SHAPE_Area":15130.857510671112},"geometry":{"type":"Polygon","coordinates":[[[30.920063087,29.9870369335],[30.9196545678,29.9874994265],[30.9183351789,29.9866566385],[30.9189457891,29.9859619217],[30.920063087,29.9870369335]]]}},
{"type":"Feature","properties":{"نمط_العمران":"كمبوند","اسم_المحور":"محور دهشور","اسم_المحافظة":"محافظة الجيزة","نوع_طبيعة_المنطقة":"قائمة","مساحة_التغير_كم2":0.013600658290073628,"نسبة_المساحه":0.03837018749721019,"مساحة_التغير_بالمتر":13600.658290073628,"GlobalID":"{3B7190B2-F1EE-4567-9971-2C6A1A95B633}","SHAPE_Length":459.88656733795165,"SHAPE_Area":13599.614618635133},"geometry":{"type":"Polygon","coordinates":[[[30.9189878326,29.9857216791],[30.9181584164,29.9866364231],[30.9173895972,29.9861056722],[30.9180995619,29.9851545632],[30.9189878326,29.9857216791]]]}},
{"type":"Feature","properties":{"نمط_العمران":"كمبوند","اسم_المحور":"محور دهشور","اسم_المحافظة":"محافظة الجيزة","نوع_طبيعة_المنطقة":"قائمة","مساحة_التغير_كم2":0.02251667308224356,"نسبة_المساحه":0.063524055200301188,"مساحة_التغير_بالمتر":22516.67308224356,"GlobalID":"{CA20122E-34E7-4621-96FF-6CCF53CDB529}","SHAPE_Length":771.38922447504319,"SHAPE_Area":22516.435662064796},"geometry":{"type":"Polygon","coordinates":[[[30.919436486,29.9853297553],[30.9207530743,29.9862291979],[30.9209553052,29.9873024799],[30.9203854793,29.9879249385],[30.9198491977,29.9876254583],[30.9201268479,29.9866290554],[30.9189985836,29.9858613704],[30.919436486,29.9853297553]]]}},
{"type":"Feature","properties":{"نمط_العمران":"كمبوند","اسم_المحور":"محور دهشور","اسم_المحافظة":"محافظة الجيزة","نوع_طبيعة_المنطقة":"قائمة","مساحة_التغير_كم2":0.021574660205963127,"نسبة_المساحه":0.060866447758310911,"مساحة_التغير_بالمتر":21574.660205963126,"GlobalID":"{6215673B-A7A1-47E8-96E6-9A15D6648F03}","SHAPE_Length":562.96955878658071,"SHAPE_Area":21571.613753940746},"geometry":{"type":"Polygon","coordinates":[[[30.9216869384,29.9873297252],[30.9227328621,29.987915212],[30.9218748017,29.9888677244],[30.9205560809,29.9880402255],[30.921098197,29.9874195244],[30.9216869384,29.9873297252]]]}},
{"type":"Feature","properties":{"نمط_العمران":"كمبوند","اسم_المحور":"محور دهشور","اسم_المحافظة":"محافظة الجيزة","نوع_طبيعة_المنطقة":"قائمة","مساحة_التغير_كم2":0.057166775887755726,"نسبة_المساحه":0.16127895155083019,"مساحة_التغير_بالمتر":57166.775887755728,"GlobalID":"{E33A8021-3122-489F-95B5-1515227B847F}","SHAPE_Length":983.96315397347894,"SHAPE_Area":57167.632850027978},"geometry":{"type":"Polygon","coordinates":[[[30.9229363755,29.987863462],[30.9219120391,29.9872177508],[30.9212113182,29.9872766211],[30.9209428748,29.9860766863],[30.9216807803,29.9858787024],[30.9224647815,29.9849949571],[30.9243034566,29.9862174828],[30.9229363755,29.987863462]]]}},
{"type":"Feature","properties":{"نمط_العمران":"خدمات ","اسم_المحور":"محور دهشور","اسم_المحافظة":"محافظة الجيزة","نوع_طبيعة_المنطقة":"قائمة","مساحة_التغير_كم2":0.015225859860761059,"نسبة_المساحه":0.042955207402720928,"مساحة_التغير_بالمتر":15225.859860761058,"GlobalID":"{E47D82E0-1319-4A00-A0D5-F4F7E72D6724}","SHAPE_Length":496.13909963801467,"SHAPE_Area":15223.223788795818},"geometry":{"type":"Polygon","coordinates":[[[30.9257624837,29.9822582583],[30.9262706981,29.9837995999],[30.9253980857,29.9839373511],[30.9249711167,29.9828327588],[30.9257624837,29.9822582583]]]}},
{"type":"Feature","properties":{"نمط_العمران":"كمبوند","اسم_المحور":"محور دهشور","اسم_المحافظة":"محافظة الجيزة","نوع_طبيعة_المنطقة":"تحت الانشاء","مساحة_التغير_كم2":0.0099434397819275211,"نسبة_المساحه":0.028052439864490734,"مساحة_التغير_بالمتر":9943.4397819275218,"GlobalID":"{AE60C02D-F99C-48C1-9075-FE4B2EAAEE43}","SHAPE_Length":390.12524119787867,"SHAPE_Area":9942.7696921745137},"geometry":{"type":"Polygon","coordinates":[[[30.9232803994,29.9810163758],[30.9244821749,29.9815031778],[30.9239660452,29.9821003695],[30.9231049151,29.9815435182],[30.9232803994,29.9810163758]]]}},
{"type":"Feature","properties":{"نمط_العمران":"اسكان مخطط اقتصادى","اسم_المحور":"محور دهشور","اسم_المحافظة":"محافظة الجيزة","نوع_طبيعة_المنطقة":"تحت الانشاء","مساحة_التغير_كم2":0.36127849742053203,"نسبة_المساحه":1.0192391713019899,"مساحة_التغير_بالمتر":361278.49742053205,"GlobalID":"{FDB5ACDE-8A29-4883-80C8-42297E1874C8}","SHAPE_Length":2567.8370656506713,"SHAPE_Area":361275.07479675458},"geometry":{"type":"Polygon","coordinates":[[[30.9226334793,29.9699433082],[30.9264193166,29.9715781836],[30.9303611883,29.9741380451],[30.9280059804,29.9769216847],[30.9255828303,29.9754606714],[30.9238046298,29.9748926862],[30.9201382482,29.9725219304],[30.9226334793,29.9699433082]]]}},
{"type":"Feature","properties":{"نمط_العمران":"اسكان اجتماعى شباب","اسم_المحور":"محور دهشور","اسم_المحافظة":"محافظة الجيزة","نوع_طبيعة_المنطقة":"قائمة","مساحة_التغير_كم2":0.074600307855106157,"نسبة_المساحه":0.21046244517731574,"مساحة_التغير_بالمتر":74600.307855106163,"GlobalID":"{8DDC43A6-6A08-4E50-9358-8B557AFA8E19}","SHAPE_Length":1190.6042405433152,"SHAPE_Area":74596.697184952529},"geometry":{"type":"Polygon","coordinates":[[[31.0262199758,29.9209355996],[31.0257712472,29.9210999989],[31.0222498043,29.9188322648],[31.0257674364,29.9179176497],[31.0260888907,29.918157959],[31.0262199758,29.9209355996]]]}},
{"type":"Feature","properties":{"نمط_العمران":"كمبوند","اسم_المحور":"محور دهشور","اسم_المحافظة":"محافظة الجيزة","نوع_طبيعة_المنطقة":"تحت الانشاء","مساحة_التغير_كم2":0.62437693726070564,"نسبة_المساحه":1.7614926895937348,"مساحة_التغير_بالمتر":624376.93726070563,"GlobalID":"{3A581469-2BFC-4812-AF5F-2C2C44F2A590}","SHAPE_Length":3266.556893694567,"SHAPE_Area":624362.64978374529},"geometry":{"type":"Polygon","coordinates":[[[31.0360840682,29.9157679736],[31.0364768947,29.9180801969],[31.035980301,29.9187018199],[31.0276998995,29.9189973469],[31.0267017063,29.9183641019],[31.0268153168,29.9165621249],[31.0348661079,29.9102198861],[31.0353890314,29.9103604381],[31.0371628612,29.9122806634],[31.0360840682,29.9157679736]]]}},
{"type":"Feature","properties":{"نمط_العمران":"كمبوند","اسم_المحور":"محور دهشور","اسم_المحافظة":"محافظة الجيزة","نوع_طبيعة_المنطقة":"تحت الانشاء","مساحة_التغير_كم2":0.053007872180816505,"نسبة_المساحه":0.14954584925426215,"مساحة_التغير_بالمتر":53007.872180816506,"GlobalID":"{B686B8D2-B363-428F-BFA9-C76041A2FF50}","SHAPE_Length":1019.7113146063338,"SHAPE_Area":53007.368221475655},"geometry":{"type":"Polygon","coordinates":[[[31.0413237785,29.9222671152],[31.0380933749,29.9238412666],[31.0377147463,29.9218368137],[31.0411238007,29.9214918812],[31.0413237785,29.9222671152]]]}},
{"type":"Feature","properties":{"نمط_العمران":"كمبوند","اسم_المحور":"محور دهشور","اسم_المحافظة":"محافظة الجيزة","نوع_طبيعة_المنطقة":"قائمة","مساحة_التغير_كم2":0.088006776745690116,"نسبة_المساحه":0.24828478539320517,"مساحة_التغير_بالمتر":88006.77674569012,"GlobalID":"{43C95F5B-34C7-4F3F-B0A3-3589875FF668}","SHAPE_Length":1149.799544615425,"SHAPE_Area":87996.968234226413},"geometry":{"type":"Polygon","coordinates":[[[31.0418192708,29.923157663],[31.0435540534,29.9243514801],[31.0437591571,29.9248630687],[31.0422506268,29.9262534008],[31.0412884047,29.9264691383],[31.0394113217,29.9254345609],[31.0418192708,29.923157663]]]}},
{"type":"Feature","properties":{"نمط_العمران":"اسكان اجتماعى شباب","اسم_المحور":"محور دهشور","اسم_المحافظة":"محافظة الجيزة","نوع_طبيعة_المنطقة":"تحت الانشاء","مساحة_التغير_كم2":0.88765815144474736,"نسبة_المساحه":2.5042618510032111,"مساحة_التغير_بالمتر":887658.15144474735,"GlobalID":"{0DB38324-BB89-4BDB-9E62-BB4F6E923785}","SHAPE_Length":3820.9795733551614,"SHAPE_Area":887656.1521660767},"geometry":{"type":"Polygon","coordinates":[[[30.9007215035,29.8838050001],[30.8917540495,29.8794757127],[30.8955943893,29.8730842345],[30.9055429244,29.8759976324],[30.9007215035,29.8838050001]]]}},
{"type":"Feature","properties":{"نمط_العمران":"اسكان اجتماعى شباب","اسم_المحور":"محور دهشور","اسم_المحافظة":"محافظة الجيزة","نوع_طبيعة_المنطقة":"قائمة","مساحة_التغير_كم2":0.83140706605470072,"نسبة_المساحه":2.3455662461799549,"مساحة_التغير_بالمتر":831407.06605470076,"GlobalID":"{A569995D-2FD3-4125-AB16-4D5A49A7128E}","SHAPE_Length":3710.8465588409981,"SHAPE_Area":831398.6362129692},"geometry":{"type":"Polygon","coordinates":[[[30.9082839932,29.8871781017],[30.9011936097,29.8839860734],[30.9059450316,29.8760628193],[30.9136728672,29.8785177768],[30.9082839932,29.8871781017]]]}},
{"type":"Feature","properties":{"نمط_العمران":"اسكان اجتماعى شباب","اسم_المحور":"محور دهشور","اسم_المحافظة":"محافظة الجيزة","نوع_طبيعة_المنطقة":"قائمة","مساحة_التغير_كم2":0.75114483271960519,"نسبة_المساحه":2.119130372538446,"مساحة_التغير_بالمتر":751144.83271960518,"GlobalID":"{D5D9F6EE-AEDC-46D6-86BE-F124B1F9A451}","SHAPE_Length":3500.3555794607591,"SHAPE_Area":751142.43260810606},"geometry":{"type":"Polygon","coordinates":[[[30.8957039515,29.8919314913],[30.8890719599,29.8887776562],[30.8939367962,29.8808139933],[30.9006904019,29.8840783543],[30.8957039515,29.8919314913]]]}},
{"type":"Feature","properties":{"نمط_العمران":"اسكان اجتماعى شباب","اسم_المحور":"محور دهشور","اسم_المحافظة":"محافظة الجيزة","نوع_طبيعة_المنطقة":"قائمة","مساحة_التغير_كم2":0.84180092095406434,"نسبة_المساحه":2.3748893975158318,"مساحة_التغير_بالمتر":841800.92095406435,"GlobalID":"{ADA753E7-C547-43DD-8B34-8E15AAAB4FE3}","SHAPE_Length":3744.7613579878707,"SHAPE_Area":841799.4493884698},"geometry":{"type":"Polygon","coordinates":[[[30.9025939378,29.8962929382],[30.8958428969,29.8931700015],[30.9010671969,29.8842639917],[30.9079842038,29.8874624604],[30.9025939378,29.8962929382]]]}},
{"type":"Feature","properties":{"نمط_العمران":"خدمات ","اسم_المحور":"محور دهشور","اسم_المحافظة":"محافظة الجيزة","نوع_طبيعة_المنطقة":"قائمة","مساحة_التغير_كم2":0.022093839705724112,"نسبة_المساحه":0.062331157357336422,"مساحة_التغير_بالمتر":22093.839705724113,"GlobalID":"{1D26D1DA-5333-4FCF-8FD9-CD89467BF6A9}","SHAPE_Length":604.84633360304326,"SHAPE_Area":22090.767650273781},"geometry":{"type":"Polygon","coordinates":[[[30.9124188273,29.8998482774],[30.9142042061,29.9006543204],[30.913516994,29.901239446],[30.9125662016,29.9011337156],[30.911748707,29.9007220838],[30.9124188273,29.8998482774]]]}},
{"type":"Feature","properties":{"نمط_العمران":"اسكان اجتماعى شباب","اسم_المحور":"محور دهشور","اسم_المحافظة":"محافظة الجيزة","نوع_طبيعة_المنطقة":"قائمة","مساحة_التغير_كم2":0.030263554883298436,"نسبة_المساحه":0.085379564020940171,"مساحة_التغير_بالمتر":30263.554883298435,"GlobalID":"{215725C1-D9D5-4343-B662-7D912D7685A3}","SHAPE_Length":796.8243547777123,"SHAPE_Area":30261.914263137642},"geometry":{"type":"Polygon","coordinates":[[[30.9469143056,29.9108286871],[30.9470309894,29.9118187313],[30.9460149404,29.9118182282],[30.9461661355,29.909681373],[30.9478652656,29.90988391],[30.9469143056,29.9108286871]]]}},
{"type":"Feature","properties":{"نمط_العمران":"اسكان اجتماعى شباب","اسم_المحور":"محور دهشور","اسم_المحافظة":"محافظة الجيزة","نوع_طبيعة_المنطقة":"قائمة","مساحة_التغير_كم2":0.61441903565494627,"نسبة_المساحه":1.733399450020866,"مساحة_التغير_بالمتر":614419.03565494623,"GlobalID":"{B74FD588-1CDE-445A-A91C-5CE789223D95}","SHAPE_Length":4072.8430683232118,"SHAPE_Area":614419.08126781345},"geometry":{"type":"Polygon","coordinates":[[[30.9680713485,29.9159836891],[30.9673871753,29.9149048266],[30.9668398065,29.9149376812],[30.9659458745,29.9134964455],[30.9753657517,29.9087852542],[30.9760343974,29.9078049105],[30.9761494262,29.9062350139],[30.9803576454,29.9058663583],[30.9813956924,29.9062247571],[30.9816053839,29.9083845493],[30.9808237149,29.9096262758],[30.9680713485,29.9159836891]]]}},
{"type":"Feature","properties":{"نمط_العمران":"اسكان اجتماعى شباب","اسم_المحور":"محور دهشور","اسم_المحافظة":"محافظة الجيزة","نوع_طبيعة_المنطقة":"قائمة","مساحة_التغير_كم2":0.17626499505496562,"نسبة_المساحه":0.49727893791655903,"مساحة_التغير_بالمتر":176264.99505496564,"GlobalID":"{10F7ABDF-218D-43D4-9634-D1A304571D56}","SHAPE_Length":2121.5885924803106,"SHAPE_Area":176248.56529204868},"geometry":{"type":"Polygon","coordinates":[[[30.9758938538,29.9074735632],[30.9751434021,29.9086607287],[30.9714504312,29.9104289363],[30.9694972644,29.9089496312],[30.969004624,29.907854826],[30.9693656896,29.9066626111],[30.9701322504,29.906372298],[30.9708375337,29.9064653311],[30.9712245487,29.9077692466],[30.9734226437,29.9077600676],[30.9739708093,29.9074191138],[30.9740810779,29.906261842],[30.9757581138,29.9062122557],[30.9758938538,29.9074735632]]]}},
{"type":"Feature","properties":{"نمط_العمران":"اسكان اجتماعى شباب","اسم_المحور":"محور دهشور","اسم_المحافظة":"محافظة الجيزة","نوع_طبيعة_المنطقة":"قائمة","مساحة_التغير_كم2":0.3527850397707602,"نسبة_المساحه":0.99527742212995063,"مساحة_التغير_بالمتر":352785.03977076022,"GlobalID":"{C20D5308-70BE-475F-991F-C78DB3839AEE}","SHAPE_Length":2565.6463842584926,"SHAPE_Area":352740.22321372572},"geometry":{"type":"Polygon","coordinates":[[[30.9625527297,29.914219056],[30.9607854436,29.9140800075],[30.959836686,29.9135701237],[30.9614439248,29.9116001022],[30.9641939995,29.9097870689],[30.9664959865,29.9090885838],[30.9682385099,29.9089771721],[30.9697794622,29.909429258],[30.970998968,29.9103710568],[30.9700294854,29.9111976208],[30.9649191262,29.9136654251],[30.9625527297,29.914219056]]]}},
{"type":"Feature","properties":{"نمط_العمران":"اسكان اجتماعى شباب","اسم_المحور":"محور دهشور","اسم_المحافظة":"محافظة الجيزة","نوع_طبيعة_المنطقة":"قائمة","مساحة_التغير_كم2":0.21221989514863626,"نسبة_المساحه":0.59871492936739157,"مساحة_التغير_بالمتر":212219.89514863625,"GlobalID":"{4F698F9B-D8AA-42BB-997D-51478CAEF4F5}","SHAPE_Length":2446.2133879680314,"SHAPE_Area":212189.57860616691},"geometry":{"type":"Polygon","coordinates":[[[30.960935256,29.9093131356],[30.9591334438,29.9087388985],[30.9576260171,29.9069668304],[30.9579215162,29.9067209939],[30.968965497,29.9064038228],[30.969005979,29.9068970837],[30.960935256,29.9093131356]]]}},
{"type":"Feature","properties":{"نمط_العمران":"اسكان اجتماعى شباب","اسم_المحور":"محور دهشور","اسم_المحافظة":"محافظة الجيزة","نوع_طبيعة_المنطقة":"قائمة","مساحة_التغير_كم2":0.2207062889350431,"نسبة_المساحه":0.62265674996274067,"مساحة_التغير_بالمتر":220706.28893504309,"GlobalID":"{DC54A5AF-1B06-4077-9D37-2D12FCA1058F}","SHAPE_Length":3394.8068726122015,"SHAPE_Area":220692.1357289764},"geometry":{"type":"Polygon","coordinates":[[[30.9566433978,29.9115502634],[30.9558498163,29.909421859],[30.9560568748,29.9089428896],[30.9534598773,29.9089216982],[30.9515463776,29.9095586975],[30.9473293684,29.9095335146],[30.946223104,29.9085788231],[30.9461169258,29.9071911146],[30.948351442,29.9070260013],[30.9491160076,29.9081590505],[30.9545469941,29.9080226131],[30.9550509818,29.9077441047],[30.9552888853,29.9068113396],[30.9570516781,29.9067488674],[30.9575236811,29.9079316107],[30.9566433978,29.9115502634]]]}},
{"type":"Feature","properties":{"نمط_العمران":"اسكان اجتماعى شباب","اسم_المحور":"محور دهشور","اسم_المحافظة":"محافظة الجيزة","نوع_طبيعة_المنطقة":"قائمة","مساحة_التغير_كم2":0.10228137902294469,"نسبة_المساحه":0.28855630417888867,"مساحة_التغير_بالمتر":102281.37902294469,"GlobalID":"{C0C9FDB4-0C2E-4717-B10D-79E5D48F0F51}","SHAPE_Length":1943.4379204364848,"SHAPE_Area":102292.95381675979},"geometry":{"type":"Polygon","coordinates":[[[30.9640723243,29.9146638871],[30.9590630698,29.9162190355],[30.9580342706,29.913950894],[30.9570633001,29.9142642067],[30.9564623023,29.9126658036],[30.9571571571,29.9121459047],[30.9579847095,29.9131044247],[30.9597411513,29.9140251499],[30.9616453074,29.9144014343],[30.9637725168,29.9142418185],[30.9640723243,29.9146638871]]]}},
{"type":"Feature","properties":{"نمط_العمران":"اسكان اجتماعى شباب","اسم_المحور":"محور دهشور","اسم_المحافظة":"محافظة الجيزة","نوع_طبيعة_المنطقة":"قائمة","مساحة_التغير_كم2":0.019399730369077439,"نسبة_المساحه":0.054730534050701038,"مساحة_التغير_بالمتر":19399.730369077439,"GlobalID":"{D0050D5D-BBB5-449F-BDBD-3D01D389E11A}","SHAPE_Length":706.10503203575331,"SHAPE_Area":19397.126279791428},"geometry":{"type":"Polygon","coordinates":[[[30.9661494177,29.9084307446],[30.9659350618,29.9080456426],[30.9680710979,29.9071696835],[30.9687720055,29.9073761112],[30.9686566646,29.9079945207],[30.9676770134,29.9082038049],[30.9675290555,29.9079341756],[30.9661494177,29.9084307446]]]}},
{"type":"Feature","properties":{"نمط_العمران":"اسكان اجتماعى شباب","اسم_المحور":"محور دهشور","اسم_المحافظة":"محافظة الجيزة","نوع_طبيعة_المنطقة":"قائمة","مساحة_التغير_كم2":0.35521519321252076,"نسبة_المساحه":1.0021333728654676,"مساحة_التغير_بالمتر":355215.19321252074,"GlobalID":"{E0764EB1-F192-4874-B101-F030B4E485E2}","SHAPE_Length":5801.6029750009329,"SHAPE_Area":355216.41045650997},"geometry":{"type":"Polygon","coordinates":[[[31.0719763587,29.8736918872],[31.0721174747,29.8747200439],[31.0457408138,29.8844904632],[31.0454881125,29.8834573752],[31.0719763587,29.8736918872]]]}},
{"type":"Feature","properties":{"نمط_العمران":"اسكان اجتماعى شباب","اسم_المحور":"محور دهشور","اسم_المحافظة":"محافظة الجيزة","نوع_طبيعة_المنطقة":"قائمة","مساحة_التغير_كم2":0.46042840410093477,"نسبة_المساحه":1.2989609633298485,"مساحة_التغير_بالمتر":460428.4041009348,"GlobalID":"{B030705F-C83D-4C32-8113-34F50349D351}","SHAPE_Length":6761.3780073152802,"SHAPE_Area":460426.69550017751},"geometry":{"type":"Polygon","coordinates":[[[31.0484870899,29.895990906],[31.0481919261,29.8946965543],[31.0524425213,29.8912900311],[31.0549810582,29.8881441132],[31.0592781231,29.8858910013],[31.0725914073,29.8753164286],[31.073441933,29.8761767983],[31.0484870899,29.895990906]]]}},
{"type":"Feature","properties":{"نمط_العمران":"خدمات ","اسم_المحور":"محور دهشور","اسم_المحافظة":"محافظة الجيزة","نوع_طبيعة_المنطقة":"قائمة","مساحة_التغير_كم2":0.025479561577200795,"نسبة_المساحه":0.071882958472491307,"مساحة_التغير_بالمتر":25479.561577200795,"GlobalID":"{30C49145-1729-4A1C-9FA8-D113A8BA0B5C}","SHAPE_Length":624.39610737019666,"SHAPE_Area":25477.564794640057},"geometry":{"type":"Polygon","coordinates":[[[31.0724131517,29.8745342512],[31.0721379496,29.8737267842],[31.0740634951,29.8729595794],[31.0742611184,29.8740573338],[31.0724131517,29.8745342512]]]}},
{"type":"Feature","properties":{"نمط_العمران":"اسكان اجتماعى شباب","اسم_المحور":"محور دهشور","اسم_المحافظة":"محافظة الجيزة","نوع_طبيعة_المنطقة":"قائمة","مساحة_التغير_كم2":0.26401531066845702,"نسبة_المساحه":0.74484019496883136,"مساحة_التغير_بالمتر":264015.31066845701,"GlobalID":"{18E247A0-EAD9-4425-91A0-C3D850259DB2}","SHAPE_Length":2748.4402331031224,"SHAPE_Area":264013.6743570065},"geometry":{"type":"Polygon","coordinates":[[[31.0721025463,29.8749412186],[31.0722647226,29.8752826097],[31.0634392001,29.8822017087],[31.0614466466,29.878913088],[31.0721025463,29.8749412186]]]}},
{"type":"Feature","properties":{"نمط_العمران":"اسكان اجتماعى شباب","اسم_المحور":"محور دهشور","اسم_المحافظة":"محافظة الجيزة","نوع_طبيعة_المنطقة":"قائمة","مساحة_التغير_كم2":0.14524433765671263,"نسبة_المساحه":0.40976343570543455,"مساحة_التغير_بالمتر":145244.33765671263,"GlobalID":"{C5FD6973-637A-4E79-920A-643F8187CCF7}","SHAPE_Length":2438.0737246695276,"SHAPE_Area":145242.98971264594},"geometry":{"type":"Polygon","coordinates":[[[31.0470260212,29.8842916055],[31.049311739,29.8935364198],[31.0481478161,29.8944835834],[31.0458134817,29.8847947998],[31.0470260212,29.8842916055]]]}},
{"type":"Feature","properties":{"نمط_العمران":"اسكان اجتماعى شباب","اسم_المحور":"محور دهشور","اسم_المحافظة":"محافظة الجيزة","نوع_طبيعة_المنطقة":"قائمة","مساحة_التغير_كم2":0.16943562369262866,"نسبة_المساحه":0.47801191024245016,"مساحة_التغير_بالمتر":169435.62369262867,"GlobalID":"{C825C55B-C3BF-4332-AA1F-0F6BDE241F3A}","SHAPE_Length":2680.6400742124688,"SHAPE_Area":169436.82040334909},"geometry":{"type":"Polygon","coordinates":[[[31.05202197,29.8913935771],[31.0495236732,29.8933455077],[31.0480061726,29.8869612596],[31.0493393287,29.8868618171],[31.0539988181,29.8884473015],[31.0534761614,29.8895171916],[31.0497489568,29.8883608077],[31.0502811738,29.8909128696],[31.0512994937,29.8907661238],[31.05202197,29.8913935771]]]}},
{"type":"Feature","properties":{"نمط_العمران":"اسكان اجتماعى شباب","اسم_المحور":"محور دهشور","اسم_المحافظة":"محافظة الجيزة","نوع_طبيعة_المنطقة":"قائمة","مساحة_التغير_كم2":0.059685535470401618,"نسبة_المساحه":0.1683848779983062,"مساحة_التغير_بالمتر":59685.535470401621,"GlobalID":"{C728A2D5-7B93-43E7-8507-7ECA4D371428}","SHAPE_Length":1011.1011188592587,"SHAPE_Area":59684.483993595168},"geometry":{"type":"Polygon","coordinates":[[[31.0496146628,29.8833354954],[31.0498915086,29.8843142119],[31.049051086,29.8863005666],[31.0479582806,29.8867366862],[31.0473260198,29.8841993469],[31.0496146628,29.8833354954]]]}},
{"type":"Feature","properties":{"نمط_العمران":"اسكان اجتماعى شباب","اسم_المحور":"محور دهشور","اسم_المحافظة":"محافظة الجيزة","نوع_طبيعة_المنطقة":"قائمة","مساحة_التغير_كم2":0.33330642857228138,"نسبة_المساحه":0.94032434942343501,"مساحة_التغير_بالمتر":333306.42857228138,"GlobalID":"{5504DDB6-E62C-4381-97DD-424ECCD9214F}","SHAPE_Length":2823.2548182149144,"SHAPE_Area":333306.00556242425},"geometry":{"type":"Polygon","coordinates":[[[31.0534681465,29.8849312112],[31.0505206406,29.8840798076],[31.049920557,29.8832233258],[31.0612295613,29.8790606644],[31.0621600613,29.8810209159],[31.06199055,29.8815229654],[31.0534681465,29.8849312112]]]}},
{"type":"Feature","properties":{"نمط_العمران":"اسكان اجتماعى شباب","اسم_المحور":"محور دهشور","اسم_المحافظة":"محافظة الجيزة","نوع_طبيعة_المنطقة":"قائمة","مساحة_التغير_كم2":0.0073217291419146388,"نسبة_المساحه":0.020656067815783035,"مساحة_التغير_بالمتر":7321.7291419146386,"GlobalID":"{A356BF10-8049-4A26-BECC-AD9103AE5B91}","SHAPE_Length":409.13459750446441,"SHAPE_Area":7321.7291419146386},"geometry":{"type":"Polygon","coordinates":[[[31.0507347641,29.8850681442],[31.0503473477,29.8846830195],[31.0505220664,29.8843074378],[31.0518010562,29.8847886211],[31.0507347641,29.8850681442]]]}},
{"type":"Feature","properties":{"نمط_العمران":"كمبوند","اسم_المحور":"محور دهشور","اسم_المحافظة":"محافظة الجيزة","نوع_طبيعة_المنطقة":"قائمة","مساحة_التغير_كم2":0.30612982496657648,"نسبة_المساحه":0.86365369469128017,"مساحة_التغير_بالمتر":306129.82496657647,"GlobalID":"{CA3A5340-653F-4640-921F-53A62DA49063}","SHAPE_Length":2904.6701235457958,"SHAPE_Area":306137.00325866969},"geometry":{"type":"Polygon","coordinates":[[[30.9085186099,30.0059874843],[30.9075943277,30.0056620682],[30.9067479225,30.0046896894],[30.9061310387,30.0000451763],[30.9025915801,29.9975540327],[30.9034337274,29.9965539369],[30.9118164063,30.0019000903],[30.9085186099,30.0059874843]]]}},
{"type":"Feature","properties":{"نمط_العمران":"كمبوند","اسم_المحور":"محور دهشور","اسم_المحافظة":"محافظة الجيزة","نوع_طبيعة_المنطقة":"قائمة","مساحة_التغير_كم2":0.20166126299740045,"نسبة_المساحه":0.56892690832338988,"مساحة_التغير_بالمتر":201661.26299740045,"GlobalID":"{04C0F3FB-0711-4947-B447-771296EC6CC9}","SHAPE_Length":2133.0470401380067,"SHAPE_Area":201660.88059302417},"geometry":{"type":"Polygon","coordinates":[[[30.893685957,29.9904175421],[30.8997870598,29.9942463079],[30.9000512038,29.9948430114],[30.8994365313,29.996843825],[30.8924205119,29.9924076319],[30.893685957,29.9904175421]]]}},
{"type":"Feature","properties":{"نمط_العمران":"كمبوند","اسم_المحور":"محور دهشور","اسم_المحافظة":"محافظة الجيزة","نوع_طبيعة_المنطقة":"قائمة","مساحة_التغير_كم2":0.061709360178550839,"نسبة_المساحه":0.17409449380196534,"مساحة_التغير_بالمتر":61709.360178550836,"GlobalID":"{81CF9129-2A08-4353-8A3A-A76750FF2B9B}","SHAPE_Length":1079.734314218415,"SHAPE_Area":61708.548074510174},"geometry":{"type":"Polygon","coordinates":[[[30.9532570483,29.9555978773],[30.9527428731,29.9561955336],[30.9516691346,29.9555270257],[30.9536199077,29.9532428538],[30.9554366649,29.9545906066],[30.9541965456,29.9560348533],[30.9532570483,29.9555978773]]]}},
{"type":"Feature","properties":{"نمط_العمران":"كمبوند","اسم_المحور":"محور دهشور","اسم_المحافظة":"محافظة الجيزة","نوع_طبيعة_المنطقة":"قائمة","مساحة_التغير_كم2":0.18940959614240904,"نسبة_المساحه":0.53436249648734835,"مساحة_التغير_بالمتر":189409.59614240905,"GlobalID":"{7D7D596D-D41D-4824-9872-70DD4AA815A5}","SHAPE_Length":1874.2479903306703,"SHAPE_Area":189400.42846498356},"geometry":{"type":"Polygon","coordinates":[[[30.9418851646,29.9329967733],[30.9360914642,29.9348855483],[30.9349407901,29.9335951899],[30.9347914129,29.9317905444],[30.937662133,29.9317253369],[30.9409825285,29.930767387],[30.9418851646,29.9329967733]]]}},
{"type":"Feature","properties":{"نمط_العمران":"صناعي","اسم_المحور":"محور دهشور","اسم_المحافظة":"محافظة الجيزة","نوع_طبيعة_المنطقة":"قائمة","مساحة_التغير_كم2":3.0109754385685843,"نسبة_المساحه":8.494566194026909,"مساحة_التغير_بالمتر":3010975.4385685842,"GlobalID":"{1ECDD8C0-3BC0-4C47-9754-45C8BA19704E}","SHAPE_Length":7025.2368622011991,"SHAPE_Area":3010971.9047175841},"geometry":{"type":"Polygon","coordinates":[[[30.8524775197,29.9525755271],[30.8381709502,29.9432527393],[30.8491272642,29.9304426676],[30.8630757449,29.9396207909],[30.8541212904,29.9501048193],[30.8538509928,29.9504652327],[30.8541316836,29.9506490616],[30.8524775197,29.9525755271]]]}},
{"type":"Feature","properties":{"نمط_العمران":"كمبوند","اسم_المحور":"محور دهشور","اسم_المحافظة":"محافظة الجيزة","نوع_طبيعة_المنطقة":"تحت الانشاء","مساحة_التغير_كم2":0.28003418269213226,"نسبة_المساحه":0.79003264888783264,"مساحة_التغير_بالمتر":280034.18269213225,"GlobalID":"{09AA8FD9-38EF-4FCB-8B8B-01C0F3011B82}","SHAPE_Length":2706.9562741840277,"SHAPE_Area":280034.18269213225},"geometry":{"type":"Polygon","coordinates":[[[30.8959825121,30.0572197962],[30.8930281555,30.0567905629],[30.8931904348,30.0543107506],[30.9049086564,30.0544789449],[30.9046387278,30.0558304278],[30.8959825121,30.0572197962]]]}},
{"type":"Feature","properties":{"نمط_العمران":"اسكان اجتماعى شباب","اسم_المحور":"محور دهشور","اسم_المحافظة":"محافظة الجيزة","نوع_طبيعة_المنطقة":"قائمة","مساحة_التغير_كم2":0.097710881152614837,"نسبة_المساحه":0.27566201211597063,"مساحة_التغير_بالمتر":97710.881152614835,"GlobalID":"{DF8963D9-CDB3-44DD-9E3D-70445E64640F}","SHAPE_Length":1312.6514961960827,"SHAPE_Area":97711.580990525574},"geometry":{"type":"Polygon","coordinates":[[[30.920850744,29.8970762798],[30.9176271509,29.8955800678],[30.9189423887,29.8933424001],[30.9222270662,29.8948204772],[30.920850744,29.8970762798]]]}},
{"type":"Feature","properties":{"نمط_العمران":"اسكان اجتماعى شباب","اسم_المحور":"محور دهشور","اسم_المحافظة":"محافظة الجيزة","نوع_طبيعة_المنطقة":"قائمة","مساحة_التغير_كم2":0.038832107949435354,"نسبة_المساحه":0.10955317243866104,"مساحة_التغير_بالمتر":38832.107949435354,"GlobalID":"{D1C05940-4493-4674-8276-A1E67D611550}","SHAPE_Length":941.51165669109844,"SHAPE_Area":38832.949650268296},"geometry":{"type":"Polygon","coordinates":[[[30.9270200719,29.8960550512],[30.9251046047,29.8965698956],[30.9248295877,29.8958245159],[30.9243856909,29.8959312021],[30.924223415,29.8954949559],[30.9243594843,29.8951473694],[30.9267081417,29.8945126752],[30.9271760802,29.8949583192],[30.9266954445,29.8951582379],[30.9270200719,29.8960550512]]]}},
{"type":"Feature","properties":{"نمط_العمران":"كمبوند","اسم_المحور":"محور دهشور","اسم_المحافظة":"محافظة الجيزة","نوع_طبيعة_المنطقة":"قائمة","مساحة_التغير_كم2":0.05933303556364336,"نسبة_المساحه":0.16739040499364766,"مساحة_التغير_بالمتر":59333.03556364336,"GlobalID":"{72A74E48-B7B8-42E1-BFF2-D37974007F15}","SHAPE_Length":1019.2819938187818,"SHAPE_Area":59330.367431884137},"geometry":{"type":"Polygon","coordinates":[[[30.9161623659,29.9975790439],[30.9151928724,29.9971168379],[30.9137531047,29.9971696533],[30.9136160189,29.9958142343],[30.9159170247,29.9952052498],[30.917334292,29.9961592708],[30.9161623659,29.9975790439]]]}},
{"type":"Feature","properties":{"نمط_العمران":"اسكان اجتماعى شباب","اسم_المحور":"محور دهشور","اسم_المحافظة":"محافظة الجيزة","نوع_طبيعة_المنطقة":"قائمة","مساحة_التغير_كم2":0.026048596472030231,"نسبة_المساحه":0.073488320149947467,"مساحة_التغير_بالمتر":26048.596472030233,"GlobalID":"{5C526096-9FB6-4988-AD95-5F97F6A63F1B}","SHAPE_Length":1138.0407268685331,"SHAPE_Area":26049.472646692753},"geometry":{"type":"Polygon","coordinates":[[[30.9504343344,29.9049124665],[30.9491193978,29.9054371372],[30.9489868356,29.9040685908],[30.9475832422,29.9021391743],[30.9482222313,29.9021915865],[30.9504343344,29.9049124665]]]}},
{"type":"Feature","properties":{"نمط_العمران":"اسكان اجتماعى شباب","اسم_المحور":"محور دهشور","اسم_المحافظة":"محافظة الجيزة","نوع_طبيعة_المنطقة":"قائمة","مساحة_التغير_كم2":0.011388542197778646,"نسبة_المساحه":0.032129363897597872,"مساحة_التغير_بالمتر":11388.542197778646,"GlobalID":"{45FBD923-E67E-494A-9859-C27B1EE4DBA0}","SHAPE_Length":477.90580698277671,"SHAPE_Area":11391.698829213887},"geometry":{"type":"Polygon","coordinates":[[[30.9487942361,29.9053953918],[30.9481940945,29.9053696376],[30.9478504134,29.9040390905],[30.9483426443,29.9037110609],[30.9487780755,29.90425473],[30.9487942361,29.9053953918]]]}},
{"type":"Feature","properties":{"نمط_العمران":"اسكان اجتماعى شباب","اسم_المحور":"محور دهشور","اسم_المحافظة":"محافظة الجيزة","نوع_طبيعة_المنطقة":"قائمة","مساحة_التغير_كم2":0.029391542569548703,"نسبة_المساحه":0.082919442219124631,"مساحة_التغير_بالمتر":29391.542569548703,"GlobalID":"{00F3FC4D-1816-4195-9E47-7EA7D5576153}","SHAPE_Length":773.31224595185063,"SHAPE_Area":29389.446272900168},"geometry":{"type":"Polygon","coordinates":[[[30.9391525663,29.905497581],[30.9377104227,29.905689573],[30.9361552818,29.9051356002],[30.936696276,29.9042054002],[30.9379782948,29.9047930543],[30.9390929241,29.9047913554],[30.9391525663,29.905497581]]]}},
{"type":"Feature","properties":{"نمط_العمران":"كمبوند","اسم_المحور":"محور دهشور","اسم_المحافظة":"محافظة الجيزة","نوع_طبيعة_المنطقة":"قائمة","مساحة_التغير_كم2":0.05890486253037501,"نسبة_المساحه":0.16618244290700759,"مساحة_التغير_بالمتر":58904.862530375009,"GlobalID":"{8A45CC7D-3488-412C-99B7-AECBF80BD548}","SHAPE_Length":978.53136011058234,"SHAPE_Area":58902.52962864541},"geometry":{"type":"Polygon","coordinates":[[[30.9102529297,29.8848640397],[30.9115721366,29.8853937756],[30.9117459563,29.8859051808],[30.9103513115,29.8881514796],[30.9088238244,29.8872690986],[30.9102529297,29.8848640397]]]}},
{"type":"Feature","properties":{"نمط_العمران":"كمبوند","اسم_المحور":"محور دهشور","اسم_المحافظة":"محافظة الجيزة","نوع_طبيعة_المنطقة":"قائمة","مساحة_التغير_كم2":0.21561447558310837,"نسبة_المساحه":0.60829172226719697,"مساحة_التغير_بالمتر":215614.47558310837,"GlobalID":"{31D25457-FAEC-42FE-A4DE-60C6006F32FE}","SHAPE_Length":2018.225524769824,"SHAPE_Area":215611.09334267271},"geometry":{"type":"Polygon","coordinates":[[[30.9151829586,29.8875746866],[30.918220715,29.8885785977],[30.9183192491,29.8889863417],[30.9170203425,29.8911936268],[30.9106220884,29.8882407757],[30.9119446661,29.8859873462],[30.9124351379,29.8858322199],[30.9151829586,29.8875746866]]]}},
{"type":"Feature","properties":{"نمط_العمران":"كمبوند","اسم_المحور":"محور دهشور","اسم_المحافظة":"محافظة الجيزة","نوع_طبيعة_المنطقة":"قائمة","مساحة_التغير_كم2":0.068104916080294023,"نسبة_المساحه":0.19213764096917843,"مساحة_التغير_بالمتر":68104.916080294017,"GlobalID":"{DE68A299-7101-4911-BEA5-A959D16723EE}","SHAPE_Length":1016.765415951669,"SHAPE_Area":68100.109550173584},"geometry":{"type":"Polygon","coordinates":[[[30.9194275247,29.8918606607],[30.9187049744,29.8919998687],[30.917220496,29.8913119278],[30.9184829809,29.8891378189],[30.9189998187,29.8889314395],[30.920578178,29.8896997721],[30.9194275247,29.8918606607]]]}},
{"type":"Feature","properties":{"نمط_العمران":"اسكان اجتماعى شباب","اسم_المحور":"محور دهشور","اسم_المحافظة":"محافظة الجيزة","نوع_طبيعة_المنطقة":"تحت الانشاء","مساحة_التغير_كم2":2.1336286095655024,"نسبة_المساحه":6.019394653727236,"مساحة_التغير_بالمتر":2133628.6095655025,"GlobalID":"{C1ACCA44-2DE2-472E-ACF4-EF5C267213C3}","SHAPE_Length":7070.5518793215433,"SHAPE_Area":2133635.2282898272},"geometry":{"type":"Polygon","coordinates":[[[31.0104196219,29.9282827852],[30.9971737492,29.9249830797],[30.9958429038,29.9249342046],[30.9960017842,29.9244799849],[30.9896716608,29.9227160208],[30.991383291,29.9173904728],[31.0020318137,29.9202300199],[31.0036491158,29.915719005],[31.0182183794,29.9195265318],[31.0179343118,29.9203182174],[31.0104196219,29.9282827852]]]}},
{"type":"Feature","properties":{"نمط_العمران":"كمبوند","اسم_المحور":"محور دهشور","اسم_المحافظة":"محافظة الجيزة","نوع_طبيعة_المنطقة":"تحت الانشاء","مساحة_التغير_كم2":0.15870672541434494,"نسبة_المساحه":0.44774353427150931,"مساحة_التغير_بالمتر":158706.72541434495,"GlobalID":"{C0D5C0EE-4BAD-4DBD-AD5B-EB7444884347}","SHAPE_Length":1596.6878343218016,"SHAPE_Area":158694.65752549589},"geometry":{"type":"Polygon","coordinates":[[[31.0797925075,29.9044003793],[31.0821713429,29.90656606],[31.0831554677,29.9080292265],[31.0798510002,29.909103691],[31.0772828874,29.9064515324],[31.0797925075,29.9044003793]]]}},
{"type":"Feature","properties":{"نمط_العمران":"صناعي","اسم_المحور":"محور دهشور","اسم_المحافظة":"محافظة الجيزة","نوع_طبيعة_المنطقة":"قائمة","مساحة_التغير_كم2":0.32379341908326598,"نسبة_المساحه":0.91348623982820576,"مساحة_التغير_بالمتر":323793.419083266,"GlobalID":"{6E285ECF-C6AA-44FA-BB1A-5C9987A45D57}","SHAPE_Length":2447.7745355467205,"SHAPE_Area":323793.419083266},"geometry":{"type":"Polygon","coordinates":[[[30.882235359,29.898004988],[30.8770868719,29.9040188717],[30.8739119194,29.901967454],[30.8790383418,29.8958245463],[30.882235359,29.898004988]]]}},
{"type":"Feature","properties":{"نمط_العمران":"صناعي","اسم_المحور":"محور دهشور","اسم_المحافظة":"محافظة الجيزة","نوع_طبيعة_المنطقة":"قائمة","مساحة_التغير_كم2":0.2801828850170423,"نسبة_المساحه":0.79045216799980333,"مساحة_التغير_بالمتر":280182.88501704228,"GlobalID":"{8CA6DBF9-F258-49BB-9965-ABB8ED378CDE}","SHAPE_Length":2332.0650030251982,"SHAPE_Area":280182.88501704228},"geometry":{"type":"Polygon","coordinates":[[[30.885011382,29.8998981665],[30.8798883279,29.9058288336],[30.8770868719,29.9040188717],[30.882235359,29.898004988],[30.885011382,29.8998981665]]]}},
{"type":"Feature","properties":{"نمط_العمران":"خدمات ","اسم_المحور":"محور دهشور","اسم_المحافظة":"محافظة الجيزة","نوع_طبيعة_المنطقة":"تحت الانشاء","مساحة_التغير_كم2":0.018263698090011462,"نسبة_المساحه":0.051525558922220799,"مساحة_التغير_بالمتر":18263.698090011461,"GlobalID":"{3F0C6611-9CFE-4145-8748-58A1C40674BE}","SHAPE_Length":541.89480619830215,"SHAPE_Area":18263.698090011461},"geometry":{"type":"Polygon","coordinates":[[[30.9381948626,29.9496927108],[30.9393114623,29.950366512],[30.9384874129,29.9512802085],[30.9372875056,29.9505196338],[30.9381948626,29.9496927108]]]}},
{"type":"Feature","properties":{"نمط_العمران":"اسكان مخطط اقتصادى","اسم_المحور":"محور دهشور","اسم_المحافظة":"محافظة الجيزة","نوع_طبيعة_المنطقة":"تحت الانشاء","مساحة_التغير_كم2":0.1251266724768608,"نسبة_المساحه":0.35300746342132883,"مساحة_التغير_بالمتر":125126.67247686078,"GlobalID":"{D2171D31-4746-4D51-8C10-DB24EE05A6A1}","SHAPE_Length":1431.3227797834163,"SHAPE_Area":125105.55619557496},"geometry":{"type":"Polygon","coordinates":[[[30.9360717304,29.9939900127],[30.9348204503,29.9954703037],[30.9334547775,29.9959773139],[30.9321292438,29.9957381374],[30.930189121,29.9945234462],[30.9315365722,29.9929690324],[30.9323563445,29.9931155603],[30.9330768458,29.9927449832],[30.9360717304,29.9939900127]]]}},
{"type":"Feature","properties":{"نمط_العمران":"صناعي","اسم_المحور":"محور دهشور","اسم_المحافظة":"محافظة الجيزة","نوع_طبيعة_المنطقة":"قائمة","مساحة_التغير_كم2":0.13055220405841639,"نسبة_المساحه":0.36831397723972698,"مساحة_التغير_بالمتر":130552.20405841639,"GlobalID":"{5093A68B-556F-4F84-9290-10EEE11E1B1D}","SHAPE_Length":1447.3344878895505,"SHAPE_Area":130552.20405841639},"geometry":{"type":"Polygon","coordinates":[[[30.8898319901,29.8943167583],[30.8874630479,29.897059677],[30.8845946966,29.8952487497],[30.8869513597,29.8924954333],[30.8898319901,29.8943167583]]]}},
{"type":"Feature","properties":{"نمط_العمران":"خدمات ","اسم_المحور":"محور دهشور","اسم_المحافظة":"محافظة الجيزة","نوع_طبيعة_المنطقة":"قائمة","مساحة_التغير_كم2":0.010132982091697555,"نسبة_المساحه":0.028587176772765125,"مساحة_التغير_بالمتر":10132.982091697555,"GlobalID":"{DE7BCEB9-0F39-4140-BC9E-733906895022}","SHAPE_Length":413.88232690348121,"SHAPE_Area":10132.982091697555},"geometry":{"type":"Polygon","coordinates":[[[30.9133588742,29.9318303318],[30.9129069521,29.9324910451],[30.9119111817,29.9318806287],[30.9124142773,29.9312726476],[30.9133588742,29.9318303318]]]}},
{"type":"Feature","properties":{"نمط_العمران":"صناعي","اسم_المحور":"محور دهشور","اسم_المحافظة":"محافظة الجيزة","نوع_طبيعة_المنطقة":"قائمة","مساحة_التغير_كم2":0.017545689417496908,"نسبة_المساحه":0.049499912310018671,"مساحة_التغير_بالمتر":17545.689417496909,"GlobalID":"{AB588DE9-0710-4AB8-B17C-1D7FB00125A6}","SHAPE_Length":541.50254347214354,"SHAPE_Area":17545.689417496909},"geometry":{"type":"Polygon","coordinates":[[[30.8745048928,29.9095010878],[30.8738365389,29.910275739],[30.8724797697,29.9093995474],[30.873144881,29.9086228066],[30.8745048928,29.9095010878]]]}},
{"type":"Feature","properties":{"نمط_العمران":"صناعي","اسم_المحور":"محور دهشور","اسم_المحافظة":"محافظة الجيزة","نوع_طبيعة_المنطقة":"قائمة","مساحة_التغير_كم2":0.068179386374118967,"نسبة_المساحه":0.1923477366186751,"مساحة_التغير_بالمتر":68179.386374118971,"GlobalID":"{356D6349-DDAA-4839-94D6-90958D948B27}","SHAPE_Length":1288.0967610783646,"SHAPE_Area":68179.386374118971},"geometry":{"type":"Polygon","coordinates":[[[30.8783465363,29.9076134922],[30.8764510934,29.9098073919],[30.8750206421,29.9089033008],[30.8756171668,29.9082118771],[30.8742279763,29.9073578932],[30.8748364758,29.906647227],[30.8762017366,29.9075342981],[30.8769431972,29.9066748485],[30.8783465363,29.9076134922]]]}},
{"type":"Feature","properties":{"نمط_العمران":"اسكان اجتماعى شباب","اسم_المحور":"محور دهشور","اسم_المحافظة":"محافظة الجيزة","نوع_طبيعة_المنطقة":"تحت الانشاء","مساحة_التغير_كم2":0.33151443285566862,"نسبة_المساحه":0.93526876974676521,"مساحة_التغير_بالمتر":331514.43285566859,"GlobalID":"{E4CC7159-734C-4CB5-A71F-368932A0CFE5}","SHAPE_Length":3184.0023372505543,"SHAPE_Area":331516.46832807391},"geometry":{"type":"Polygon","coordinates":[[[30.8957770977,29.9590810151],[30.8881412049,29.9681504156],[30.8880424473,29.9686909147],[30.8852432742,29.9668515486],[30.8872748451,29.9653604285],[30.8938612125,29.9578801561],[30.8957770977,29.9590810151]]]}},
{"type":"Feature","properties":{"نمط_العمران":"خدمات ","اسم_المحور":"محور دهشور","اسم_المحافظة":"محافظة الجيزة","نوع_طبيعة_المنطقة":"قائمة","مساحة_التغير_كم2":0.065916100082225246,"نسبة_المساحه":0.18596255161309275,"مساحة_التغير_بالمتر":65916.100082225239,"GlobalID":"{B62C3B86-27D7-4BDB-A7C1-F50F86800DF0}","SHAPE_Length":1181.2577094811977,"SHAPE_Area":65916.100082225239},"geometry":{"type":"Polygon","coordinates":[[[30.9632078633,29.9528808364],[30.9606527905,29.9560162782],[30.9595031339,29.9552641214],[30.9617589539,29.9518845199],[30.9632078633,29.9528808364]]]}},
{"type":"Feature","properties":{"نمط_العمران":"اسكان مخطط اقتصادى","اسم_المحور":"محور دهشور","اسم_المحافظة":"محافظة الجيزة","نوع_طبيعة_المنطقة":"تحت الانشاء","مساحة_التغير_كم2":0.6724486250867816,"نسبة_المساحه":1.8971125717975323,"مساحة_التغير_بالمتر":672448.62508678157,"GlobalID":"{8EA83F7A-99B9-4DF5-878F-FF2FAB03D295}","SHAPE_Length":4051.4224032155016,"SHAPE_Area":672452.71298222477},"geometry":{"type":"Polygon","coordinates":[[[30.9842436527,29.9468732945],[30.9805792065,29.950887231],[30.9780145023,29.9491500305],[30.9816626391,29.9451199823],[30.9788962069,29.9432938014],[30.9814601723,29.9404465335],[30.9872923517,29.9413468995],[30.9886796966,29.940999909],[30.988307151,29.9434438798],[30.9888007131,29.9455877949],[30.988368487,29.9475076213],[30.9842436527,29.9468732945]]]}},
{"type":"Feature","properties":{"نمط_العمران":"كمبوند","اسم_المحور":"محور دهشور","اسم_المحافظة":"محافظة الجيزة","نوع_طبيعة_المنطقة":"تحت الانشاء","مساحة_التغير_كم2":0.64114671450430682,"نسبة_المساحه":1.808803597889479,"مساحة_التغير_بالمتر":641146.71450430679,"GlobalID":"{FC651333-4E21-43AF-B507-5A7D803178C0}","SHAPE_Length":3851.3891227242448,"SHAPE_Area":641146.71450430679},"geometry":{"type":"Polygon","coordinates":[[[30.8881522954,30.0678497518],[30.8746866223,30.0676884338],[30.8744798929,30.0670911165],[30.8730611399,30.066371063],[30.8727633336,30.0655040405],[30.874005445,30.0636346337],[30.8773876009,30.0642579882],[30.8798270029,30.062609646],[30.8815787816,30.0635367872],[30.8834496696,30.0638237579],[30.8882444072,30.0634789565],[30.8881522954,30.0678497518]]]}},
{"type":"Feature","properties":{"نمط_العمران":"كمبوند","اسم_المحور":"محور دهشور","اسم_المحافظة":"محافظة الجيزة","نوع_طبيعة_المنطقة":"تحت الانشاء","مساحة_التغير_كم2":0.95507442272800125,"نسبة_المساحه":2.6944566867479773,"مساحة_التغير_بالمتر":955074.42272800126,"GlobalID":"{A7462968-B4E9-4BCC-8242-5D998D4C81AB}","SHAPE_Length":4477.5263118279518,"SHAPE_Area":955074.42272800126},"geometry":{"type":"Polygon","coordinates":[[[30.8920163402,30.0638765966],[30.8922008016,30.0598379571],[30.8974114802,30.0596347764],[30.8970735949,30.057673836],[30.9068866694,30.0556855929],[30.9067447398,30.0639187282],[30.8920163402,30.0638765966]]]}}
]
}
