{
"type": "FeatureCollection",
"name": "Qus_Road",
"xy_coordinate_resolution": 8.98315e-10,
"z_coordinate_resolution": 0.0001,
"features": [
{"type":"Feature","properties":{"اسم_المحور":"محور قوص","اسم_المحافظة":"محافظة قنا","طول_المحور_كم":18723.99191,"CreationDate":"2026-04-11T07:54:10Z","Creator":"gpr.gps","EditDate":"2026-04-11T07:54:10Z","Editor":"gpr.gps","GlobalID":"{BABF599D-B0D3-487D-8023-7D4898DB1921}","SHAPE_Length":18723.991909986365},"geometry":{"type":"LineString","coordinates":[[32.8842897313,25.9229352021,0.0],[32.8721828798,25.9179284492,0.0],[32.8666462388,25.9141020631,0.0],[32.8641332383,25.9131600132,0.0],[32.8609207141,25.9127191018,0.0],[32.8561698828,25.9137653486,0.0],[32.8411885598,25.9182025192,0.0],[32.8124962742,25.9237570626,0.0],[32.7939092985,25.924867629,0.0],[32.7843092406,25.9271091458,0.0],[32.7612062222,25.9283822147,0.0],[32.7565519321,25.9297777464,0.0],[32.745727853,25.9342145686,0.0],[32.7394572412,25.9409575823,0.0],[32.7383141437,25.9419803198,0.0],[32.7355941999,25.9434048474,0.0],[32.725946164,25.9462309229,0.0],[32.7213653091,25.9463747588,0.0],[32.7192047704,25.9467880549,0.0],[32.7095439369,25.9509036251,0.0]]}}
]
}
