{
"type": "FeatureCollection",
"name": "Study_Area",
"xy_coordinate_resolution": 8.98315e-10,
"z_coordinate_resolution": 0.0001,
"features": [
{"type":"Feature","properties":{"اسم_المحور":"محور قوص","اسم_المحافظة":"محافظة قنا","مساحة_المنطقة_كم2":186.15538657799999,"عدد_المنشأت_التغير":1133.0,"CreationDate":"2026-04-11T07:54:10Z","Creator":"gpr.gps","EditDate":"2026-04-11T07:54:10Z","Editor":"gpr.gps","GlobalID":"{7E3504E9-18A3-42E3-862D-B914750BF8B8}","SHAPE_Length":59268.123574825935,"SHAPE_Area":192391213.66456732},"geometry":{"type":"Polygon","coordinates":[[[32.8642660656,25.9642765687],[32.8565183763,25.9611521691],[32.8423198688,25.9643254603],[32.8201737935,25.9683516586],[32.8018456713,25.969626648],[32.7953100913,25.971169004],[32.790022286,25.9719441758],[32.7747789459,25.972847129],[32.7707037004,25.9763243994],[32.7667873694,25.97905218],[32.7618578678,25.9819061388],[32.7567776204,25.9842724307],[32.7419204768,25.9890084143],[32.7324920181,25.9910244792],[32.7307240301,25.9917731349],[32.6883784325,25.9100308031],[32.7012477,25.904678677],[32.7104636879,25.9022673705],[32.7178948267,25.8967536908],[32.7271847304,25.8920205019],[32.7420673781,25.8864392274],[32.7486459686,25.8846464232],[32.7567405393,25.883431467],[32.7760857841,25.8823335246],[32.7813308912,25.8810876545],[32.7882745218,25.8800244424],[32.8057056856,25.8789439421],[32.8277270524,25.8747049578],[32.846228044,25.8693664839],[32.8548041494,25.8679275876],[32.8610154419,25.8675872613],[32.8678458943,25.8679332196],[32.8750384584,25.8691192489],[32.8803905241,25.8704909602],[32.8892675147,25.8738748458],[32.8986005321,25.8792920633],[32.9042994616,25.8815908464],[32.8840006524,25.9235323777],[32.8842720671,25.9275893748],[32.8907848985,25.9439650105],[32.890835518,25.9468141054],[32.8893579762,25.9539494161],[32.8903285833,25.9610806747],[32.8736283593,25.9652169105],[32.873364678,25.9636520844],[32.8708780848,25.963951992],[32.8671751776,25.963796623],[32.8647827152,25.9632102862],[32.8642660656,25.9642765687]]]}}
]
}
