{"type":"FeatureCollection","features":[{"type":"Feature","properties":{"source_layer":"Water_Containment","source_feature_count":1,"TYPE":0,"Governorate_ID":null,"A_GOV":null,"CreationDate":"2026-04-11T07:54:10Z","Creator":"gpr.gps","EditDate":"2026-04-11T07:54:10Z","Editor":"gpr.gps","GlobalID":"{61D5B8D3-A435-452A-A22F-7D9A79DCBFEB}","SHAPE_Length":11747.386172467486,"SHAPE_Area":2703594.516459054},"geometry":{"type":"Polygon","coordinates":[[[32.783206,25.972369],[32.781469,25.969946],[32.780781,25.968625],[32.780585,25.96769],[32.779361,25.966407],[32.77759,25.963576],[32.776834,25.960975],[32.776264,25.960515],[32.774726,25.957608],[32.774432,25.956747],[32.771923,25.953207],[32.771818,25.952557],[32.769522,25.948139],[32.769292,25.947106],[32.768449,25.945576],[32.766763,25.94305],[32.761531,25.937613],[32.759612,25.935336],[32.758075,25.932581],[32.75797,25.931893],[32.75673,25.929831],[32.752855,25.931328],[32.759066,25.940733],[32.761428,25.945583],[32.761121,25.945763],[32.761286,25.946508],[32.762974,25.948413],[32.764955,25.951216],[32.768675,25.957214],[32.772884,25.966432],[32.774218,25.970617],[32.774435,25.970932],[32.778012,25.970903],[32.783206,25.972369]]]}},{"type":"Feature","properties":{"source_layer":"Water_Containment","source_feature_count":1,"TYPE":0,"Governorate_ID":null,"A_GOV":null,"CreationDate":"2026-04-11T07:54:10Z","Creator":"gpr.gps","EditDate":"2026-04-11T07:54:10Z","Editor":"gpr.gps","GlobalID":"{534EB661-29ED-468D-8825-56CBE4F2CB25}","SHAPE_Length":16863.09805186058,"SHAPE_Area":-2720955.265374224},"geometry":{"type":"Polygon","coordinates":[[[32.756575,25.929653],[32.752579,25.931198],[32.751912,25.930881],[32.751476,25.930808],[32.750723,25.930986],[32.747738,25.930396],[32.744742,25.929053],[32.744544,25.929112],[32.74424,25.928884],[32.74432,25.928789],[32.743674,25.928286],[32.74143,25.927135],[32.740243,25.926381],[32.738608,25.925195],[32.737434,25.924166],[32.736024,25.92255],[32.734997,25.921055],[32.734103,25.919357],[32.733538,25.917911],[32.731976,25.915147],[32.730962,25.912393],[32.729762,25.908147],[32.729602,25.908006],[32.72974,25.90768],[32.72958,25.90735],[32.729374,25.907295],[32.72921,25.907013],[32.72919,25.906664],[32.727339,25.900759],[32.726576,25.899303],[32.72595,25.89875],[32.725185,25.89764],[32.724988,25.896258],[32.724472,25.895298],[32.72413,25.894924],[32.723633,25.894751],[32.72422,25.894183],[32.724213,25.893764],[32.727755,25.891785],[32.730739,25.899665],[32.732711,25.903491],[32.734081,25.905321],[32.738352,25.909104],[32.740134,25.911267],[32.739894,25.911303],[32.74025,25.911817],[32.740394,25.912272],[32.741882,25.914162],[32.741776,25.914639],[32.742224,25.914831],[32.742488,25.91513],[32.742845,25.915191],[32.744468,25.917124],[32.744466,25.917697],[32.746734,25.919565],[32.754091,25.927146],[32.755125,25.928008],[32.756575,25.929653]],[[32.747358,25.929177],[32.749364,25.929765],[32.750778,25.929983],[32.751148,25.929673],[32.747813,25.926048],[32.747207,25.925628],[32.74697,25.925162],[32.744665,25.922148],[32.743176,25.920401],[32.742253,25.919575],[32.740353,25.918341],[32.737542,25.91701],[32.736118,25.91604],[32.733824,25.914184],[32.733375,25.914136],[32.733254,25.914984],[32.733547,25.915794],[32.736002,25.92083],[32.736844,25.92211],[32.737977,25.923426],[32.739691,25.924898],[32.741367,25.925988],[32.743478,25.927115],[32.745774,25.928529],[32.747358,25.929177]]]}}]}