{
  "type": "FeatureCollection",
  "name": "Axis_Road_Sector",
  "crs": {
    "type": "name",
    "properties": {
      "name": "urn:ogc:def:crs:OGC:1.3:CRS84"
    }
  },
  "xy_coordinate_resolution": 8.98315e-10,
  "z_coordinate_resolution": 0.0001,
  "features": [
    {
      "type": "Feature",
      "properties": {
        "اسم_المحور": "6",
        "طول_المحور_كم": 35591.48991638846,
        "اسم_القطاع": "12",
        "GlobalID": "{12B7A4CB-8DA0-4CDA-845A-A0D36005C178}",
        "Shape_Length": 35591.489993713076,
        "landuse_code": "",
        "landuse_label": "",
        "change_status_key": "unchanged"
      },
      "geometry": {
        "type": "MultiLineString",
        "coordinates": [
          [
            [
              30.5461696684,
              30.361588242,
              0
            ],
            [
              30.5603534286,
              30.3740569997,
              0
            ],
            [
              30.5610812879,
              30.3746842266,
              0
            ],
            [
              30.5618232849,
              30.3752988773,
              0
            ],
            [
              30.5668787093,
              30.379404413,
              0
            ],
            [
              30.5676652766,
              30.3800566658,
              0
            ],
            [
              30.5750323963,
              30.3862943613,
              0
            ],
            [
              30.5759141235,
              30.3870589468,
              0
            ],
            [
              30.5767744722,
              30.387841631,
              0
            ],
            [
              30.5779068427,
              30.3888967928,
              0
            ],
            [
              30.5787273687,
              30.3896440287,
              0
            ],
            [
              30.5819204468,
              30.3924859398,
              0
            ],
            [
              30.5827117377,
              30.3932058789,
              0
            ],
            [
              30.5862953405,
              30.3965389701,
              0
            ],
            [
              30.5863936468,
              30.396630528,
              0
            ],
            [
              30.5864426913,
              30.3966763947,
              0
            ],
            [
              30.5865240634,
              30.396753135,
              0
            ],
            [
              30.5865887178,
              30.3968148779,
              0
            ],
            [
              30.5866655903,
              30.3968895262,
              0
            ],
            [
              30.5867320651,
              30.3969554448,
              0
            ],
            [
              30.5868056097,
              30.3970302381,
              0
            ],
            [
              30.586871319,
              30.3970990676,
              0
            ],
            [
              30.5869414198,
              30.3971750374,
              0
            ],
            [
              30.5870049804,
              30.3972466243,
              0
            ],
            [
              30.5870990375,
              30.3973582334,
              0
            ],
            [
              30.5871891066,
              30.3974722881,
              0
            ],
            [
              30.5872751028,
              30.3975886821,
              0
            ],
            [
              30.5873280701,
              30.3976644532,
              0
            ],
            [
              30.5873833737,
              30.3977469478,
              0
            ],
            [
              30.587432731,
              30.3978234162,
              0
            ],
            [
              30.5874856331,
              30.3979081963,
              0
            ],
            [
              30.5875316936,
              30.3979842213,
              0
            ],
            [
              30.587583309,
              30.3980715682,
              0
            ],
            [
              30.5876256365,
              30.3981446593,
              0
            ],
            [
              30.5876778988,
              30.3982363018,
              0
            ],
            [
              30.5877089969,
              30.3982913977,
              0
            ],
            [
              30.5877709345,
              30.3984017003,
              0
            ],
            [
              30.5878651762,
              30.3985698189,
              0
            ],
            [
              30.5879271142,
              30.3986801214,
              0
            ],
            [
              30.5879582125,
              30.3987352173,
              0
            ],
            [
              30.5880104765,
              30.3988268596,
              0
            ],
            [
              30.5880528045,
              30.3988999507,
              0
            ],
            [
              30.5881044209,
              30.3989872974,
              0
            ],
            [
              30.5881504822,
              30.3990633231,
              0
            ],
            [
              30.5882033846,
              30.3991481011,
              0
            ],
            [
              30.5882527432,
              30.3992245702,
              0
            ],
            [
              30.5883080494,
              30.3993070636,
              0
            ],
            [
              30.5883610194,
              30.3993828353,
              0
            ],
            [
              30.58844183,
              30.3994924263,
              0
            ],
            [
              30.5885262545,
              30.3995999518,
              0
            ],
            [
              30.5886142202,
              30.3997053218,
              0
            ],
            [
              30.5887056542,
              30.3998084502,
              0
            ],
            [
              30.5887711334,
              30.399878726,
              0
            ],
            [
              30.5888432699,
              30.3999532514,
              0
            ],
            [
              30.5889108244,
              30.4000207268,
              0
            ],
            [
              30.5889863715,
              30.4000940054,
              0
            ],
            [
              30.5890546141,
              30.4001585573,
              0
            ],
            [
              30.5891334851,
              30.400231623,
              0
            ],
            [
              30.5891997942,
              30.4002920351,
              0
            ],
            [
              30.5892832219,
              30.4003670998,
              0
            ],
            [
              30.589333494,
              30.400411958,
              0
            ],
            [
              30.5894342552,
              30.4005014927,
              0
            ],
            [
              30.5964033757,
              30.4066850599,
              0
            ],
            [
              30.5969899427,
              30.4072139958,
              0
            ],
            [
              30.6110974159,
              30.4201417047,
              0
            ],
            [
              30.6112136888,
              30.4202483041,
              0
            ],
            [
              30.6173730572,
              30.4258983778,
              0
            ],
            [
              30.6176701497,
              30.426168633,
              0
            ],
            [
              30.6207585885,
              30.4289547686,
              0
            ],
            [
              30.6210687984,
              30.429235813,
              0
            ],
            [
              30.6239969969,
              30.4319000564,
              0
            ],
            [
              30.624304593,
              30.432182335,
              0
            ],
            [
              30.6272090785,
              30.4348707354,
              0
            ],
            [
              30.6275459335,
              30.4351795858,
              0
            ],
            [
              30.6416700509,
              30.4480054046,
              0
            ],
            [
              30.6425558287,
              30.4488299739,
              0
            ],
            [
              30.6518051319,
              30.4576574611,
              0
            ],
            [
              30.6518750992,
              30.4577242623,
              0
            ],
            [
              30.6519100537,
              30.4577576859,
              0
            ],
            [
              30.6519682147,
              30.4578134673,
              0
            ],
            [
              30.6520146277,
              30.4578581821,
              0
            ],
            [
              30.6520701384,
              30.4579119863,
              0
            ],
            [
              30.6521185047,
              30.4579592213,
              0
            ],
            [
              30.6521725175,
              30.458012451,
              0
            ],
            [
              30.6522213278,
              30.4580610642,
              0
            ],
            [
              30.6522741083,
              30.4581142743,
              0
            ],
            [
              30.6523227324,
              30.4581639693,
              0
            ],
            [
              30.6525265121,
              30.4583804361,
              0
            ],
            [
              30.652722459,
              30.458602264,
              0
            ],
            [
              30.6529103835,
              30.4588292421,
              0
            ],
            [
              30.652953045,
              30.4588828904,
              0
            ],
            [
              30.6529985375,
              30.458940932,
              0
            ],
            [
              30.6530399454,
              30.4589944531,
              0
            ],
            [
              30.6530851361,
              30.4590535312,
              0
            ],
            [
              30.6531251237,
              30.4591063222,
              0
            ],
            [
              30.6531705631,
              30.459166801,
              0
            ],
            [
              30.6532082546,
              30.4592172992,
              0
            ],
            [
              30.653255205,
              30.4592805131,
              0
            ],
            [
              30.6532833086,
              30.4593184783,
              0
            ],
            [
              30.6533394524,
              30.4593944453,
              0
            ],
            [
              30.6554696888,
              30.462278328,
              0
            ],
            [
              30.6555183451,
              30.4623441669,
              0
            ],
            [
              30.6555426949,
              30.4623770741,
              0
            ],
            [
              30.6555833543,
              30.4624318781,
              0
            ],
            [
              30.6556159713,
              30.4624756708,
              0
            ],
            [
              30.6556552549,
              30.4625281418,
              0
            ],
            [
              30.6556897851,
              30.4625739659,
              0
            ],
            [
              30.6557287528,
              30.4626252811,
              0
            ],
            [
              30.6557644013,
              30.4626718037,
              0
            ],
            [
              30.6558034928,
              30.462722303,
              0
            ],
            [
              30.655840081,
              30.4627690282,
              0
            ],
            [
              30.6560680197,
              30.4630479514,
              0
            ],
            [
              30.6563069121,
              30.4633199089,
              0
            ],
            [
              30.6565564765,
              30.4635845782,
              0
            ],
            [
              30.6568164143,
              30.4638416455,
              0
            ],
            [
              30.6570864194,
              30.4640908046,
              0
            ],
            [
              30.6573661698,
              30.4643317621,
              0
            ],
            [
              30.657655335,
              30.4645642287,
              0
            ],
            [
              30.6579535708,
              30.464787933,
              0
            ],
            [
              30.6582605252,
              30.465002606,
              0
            ],
            [
              30.6585758315,
              30.4652079941,
              0
            ],
            [
              30.6588991186,
              30.4654038532,
              0
            ],
            [
              30.6592300005,
              30.4655899517,
              0
            ],
            [
              30.6595680857,
              30.4657660688,
              0
            ],
            [
              30.6599129729,
              30.4659319951,
              0
            ],
            [
              30.6602642525,
              30.466087533,
              0
            ],
            [
              30.6606215091,
              30.466232499,
              0
            ],
            [
              30.6609843177,
              30.4663667212,
              0
            ],
            [
              30.6613522477,
              30.4664900404,
              0
            ],
            [
              30.6617248632,
              30.4666023089,
              0
            ],
            [
              30.6621017205,
              30.4667033942,
              0
            ],
            [
              30.6624823746,
              30.4667931773,
              0
            ],
            [
              30.6628663729,
              30.46687155,
              0
            ],
            [
              30.6632532592,
              30.466938421,
              0
            ],
            [
              30.6636425751,
              30.4669937099,
              0
            ],
            [
              30.6640338576,
              30.4670373517,
              0
            ],
            [
              30.6644266455,
              30.4670692938,
              0
            ],
            [
              30.6648204677,
              30.4670894989,
              0
            ],
            [
              30.6652148624,
              30.4670979433,
              0
            ],
            [
              30.6656093569,
              30.467094616,
              0
            ],
            [
              30.6660034855,
              30.467079522,
              0
            ],
            [
              30.6663967802,
              30.4670526783,
              0
            ],
            [
              30.6664616423,
              30.46704712,
              0
            ],
            [
              30.6665314551,
              30.4670408123,
              0
            ],
            [
              30.6665955367,
              30.4670347556,
              0
            ],
            [
              30.6666659949,
              30.4670278433,
              0
            ],
            [
              30.6667287413,
              30.4670214912,
              0
            ],
            [
              30.6668004253,
              30.4670140469,
              0
            ],
            [
              30.6668601449,
              30.4670077217,
              0
            ],
            [
              30.6669347792,
              30.4669997023,
              0
            ],
            [
              30.6669795532,
              30.4669948433,
              0
            ],
            [
              30.6670690928,
              30.4669850808,
              0
            ],
            [
              30.6712487065,
              30.4665285818,
              0
            ],
            [
              30.6712831439,
              30.4665248203,
              0
            ],
            [
              30.6713003632,
              30.4665229368,
              0
            ],
            [
              30.6713290596,
              30.4665197952,
              0
            ],
            [
              30.6713520161,
              30.4665172772,
              0
            ],
            [
              30.6713795634,
              30.4665142468,
              0
            ],
            [
              30.6714036655,
              30.4665115869,
              0
            ],
            [
              30.6714307184,
              30.4665085892,
              0
            ],
            [
              30.6714553076,
              30.4665058523,
              0
            ],
            [
              30.6714820825,
              30.4665028558,
              0
            ],
            [
              30.6715069418,
              30.466500057,
              0
            ],
            [
              30.6718262087,
              30.4664625575,
              0
            ],
            [
              30.671851031,
              30.4664595208,
              0
            ],
            [
              30.6718777597,
              30.466456233,
              0
            ],
            [
              30.6719023039,
              30.4664531993,
              0
            ],
            [
              30.6719293006,
              30.4664498477,
              0
            ],
            [
              30.6719533513,
              30.4664468531,
              0
            ],
            [
              30.6719808353,
              30.4664434191,
              0
            ],
            [
              30.6720037365,
              30.4664405509,
              0
            ],
            [
              30.6720323634,
              30.4664369596,
              0
            ],
            [
              30.6720495392,
              30.4664348029,
              0
            ],
            [
              30.6720838888,
              30.4664304857,
              0
            ],
            [
              30.6739914546,
              30.4661907022,
              0
            ],
            [
              30.6740258061,
              30.4661863846,
              0
            ],
            [
              30.6740429808,
              30.4661842284,
              0
            ],
            [
              30.6740716065,
              30.4661806358,
              0
            ],
            [
              30.6740945087,
              30.4661777681,
              0
            ],
            [
              30.6741219925,
              30.4661743337,
              0
            ],
            [
              30.6741460431,
              30.4661713377,
              0
            ],
            [
              30.6741730387,
              30.4661679856,
              0
            ],
            [
              30.6741975828,
              30.4661649516,
              0
            ],
            [
              30.6742243124,
              30.4661616642,
              0
            ],
            [
              30.6742491335,
              30.466158626,
              0
            ],
            [
              30.6746092189,
              30.4661165339,
              0
            ],
            [
              30.6746340826,
              30.4661137634,
              0
            ],
            [
              30.6746608618,
              30.4661107971,
              0
            ],
            [
              30.6746854565,
              30.4661080867,
              0
            ],
            [
              30.6747125127,
              30.4661051199,
              0
            ],
            [
              30.6747366192,
              30.4661024874,
              0
            ],
            [
              30.6747641697,
              30.466099487,
              0
            ],
            [
              30.6747871306,
              30.4660969947,
              0
            ],
            [
              30.6748158323,
              30.4660938849,
              0
            ],
            [
              30.6748330531,
              30.4660920208,
              0
            ],
            [
              30.6748674956,
              30.4660882971,
              0
            ],
            [
              30.7054529907,
              30.4627781156,
              0
            ],
            [
              30.7055080972,
              30.4627721477,
              0
            ],
            [
              30.7055356498,
              30.4627691687,
              0
            ],
            [
              30.7055815754,
              30.46276422,
              0
            ],
            [
              30.705618318,
              30.4627602796,
              0
            ],
            [
              30.7056624133,
              30.4627555828,
              0
            ],
            [
              30.7057010012,
              30.4627515063,
              0
            ],
            [
              30.7057443209,
              30.4627469753,
              0
            ],
            [
              30.7057837095,
              30.4627429029,
              0
            ],
            [
              30.7058266059,
              30.4627385286,
              0
            ],
            [
              30.7058664468,
              30.4627345299,
              0
            ],
            [
              30.7065081105,
              30.4626793456,
              0
            ],
            [
              30.7071514399,
              30.4626413947,
              0
            ],
            [
              30.7077958149,
              30.4626207134,
              0
            ],
            [
              30.7078359151,
              30.4626199958,
              0
            ],
            [
              30.7078791014,
              30.4626192918,
              0
            ],
            [
              30.7079187623,
              30.4626187,
              0
            ],
            [
              30.7079623907,
              30.4626181021,
              0
            ],
            [
              30.7080012611,
              30.46261761,
              0
            ],
            [
              30.7080456843,
              30.4626170847,
              0
            ],
            [
              30.7080827045,
              30.4626166738,
              0
            ],
            [
              30.7081289794,
              30.4626161837,
              0
            ],
            [
              30.7081567437,
              30.4626158996,
              0
            ],
            [
              30.7082122752,
              30.4626153403,
              0
            ],
            [
              30.7147810397,
              30.4625493973,
              0
            ],
            [
              30.7148365714,
              30.4625488352,
              0
            ],
            [
              30.7148643357,
              30.4625485487,
              0
            ],
            [
              30.7149106107,
              30.4625480572,
              0
            ],
            [
              30.714947631,
              30.4625476433,
              0
            ],
            [
              30.7149920544,
              30.4625471166,
              0
            ],
            [
              30.7150309237,
              30.4625466224,
              0
            ],
            [
              30.7150745533,
              30.4625460221,
              0
            ],
            [
              30.7151142143,
              30.4625454281,
              0
            ],
            [
              30.7151573996,
              30.4625447208,
              0
            ],
            [
              30.7151974988,
              30.4625440018,
              0
            ],
            [
              30.7157265735,
              30.4625282597,
              0
            ],
            [
              30.7162550139,
              30.4625008714,
              0
            ],
            [
              30.7162950142,
              30.4624983229,
              0
            ],
            [
              30.7163380851,
              30.4624955123,
              0
            ],
            [
              30.7163776355,
              30.4624928746,
              0
            ],
            [
              30.7164211356,
              30.4624899219,
              0
            ],
            [
              30.7164598882,
              30.4624872512,
              0
            ],
            [
              30.7165041725,
              30.4624841588,
              0
            ],
            [
              30.716541073,
              30.4624815577,
              0
            ],
            [
              30.7165871964,
              30.4624782818,
              0
            ],
            [
              30.71661487,
              30.4624763057,
              0
            ],
            [
              30.7166702164,
              30.4624723461,
              0
            ],
            [
              30.7521748161,
              30.4599249864,
              0
            ],
            [
              30.7522439942,
              30.4599200061,
              0
            ],
            [
              30.7522785824,
              30.4599175056,
              0
            ],
            [
              30.752336225,
              30.4599133042,
              0
            ],
            [
              30.7523823359,
              30.4599099008,
              0
            ],
            [
              30.7524376615,
              30.4599057524,
              0
            ],
            [
              30.7524860648,
              30.4599020493,
              0
            ],
            [
              30.7525403838,
              30.459897796,
              0
            ],
            [
              30.7525897555,
              30.4598938254,
              0
            ],
            [
              30.7526435001,
              30.4598893736,
              0
            ],
            [
              30.7526933908,
              30.4598851061,
              0
            ],
            [
              30.7530413698,
              30.4598513129,
              0
            ],
            [
              30.7533883498,
              30.4598105368,
              0
            ],
            [
              30.7534379356,
              30.4598041313,
              0
            ],
            [
              30.7534913106,
              30.4597970893,
              0
            ],
            [
              30.7535403079,
              30.4597905041,
              0
            ],
            [
              30.7535941837,
              30.4597831477,
              0
            ],
            [
              30.753642167,
              30.4597765089,
              0
            ],
            [
              30.7536969892,
              30.4597688386,
              0
            ],
            [
              30.7537426648,
              30.4597623927,
              0
            ],
            [
              30.7537997493,
              30.4597542851,
              0
            ],
            [
              30.7538339965,
              30.4597493986,
              0
            ],
            [
              30.7539024862,
              30.4597396066,
              0
            ],
            [
              30.7603253655,
              30.4588205129,
              0
            ],
            [
              30.7604555002,
              30.4588019374,
              0
            ],
            [
              30.760520581,
              30.4587927201,
              0
            ],
            [
              30.7606290928,
              30.4587775969,
              0
            ],
            [
              30.7607159558,
              30.4587657841,
              0
            ],
            [
              30.7608202725,
              30.4587520662,
              0
            ],
            [
              30.760911635,
              30.4587405642,
              0
            ],
            [
              30.7610142953,
              30.4587283287,
              0
            ],
            [
              30.7611077319,
              30.4587179229,
              0
            ],
            [
              30.7612096024,
              30.4587074868,
              0
            ],
            [
              30.7613043174,
              30.4586987302,
              0
            ],
            [
              30.7615344121,
              30.4586816206,
              0
            ],
            [
              30.7617649912,
              30.4586704139,
              0
            ],
            [
              30.7619958506,
              30.4586651174,
              0
            ],
            [
              30.7622267924,
              30.4586657358,
              0
            ],
            [
              30.7623220171,
              30.4586677001,
              0
            ],
            [
              30.7624245343,
              30.4586708258,
              0
            ],
            [
              30.7625186427,
              30.4586745243,
              0
            ],
            [
              30.7626221177,
              30.4586793857,
              0
            ],
            [
              30.7627142641,
              30.458684325,
              0
            ],
            [
              30.7628195314,
              30.4586905466,
              0
            ],
            [
              30.7629072213,
              30.4586961174,
              0
            ],
            [
              30.7630168035,
              30.4587034403,
              0
            ],
            [
              30.7630825391,
              30.4587079778,
              0
            ],
            [
              30.7632139986,
              30.4587171975,
              0
            ],
            [
              30.7644999513,
              30.4588078571,
              0
            ],
            [
              30.7646175718,
              30.4588161147,
              0
            ],
            [
              30.7646763873,
              30.4588201927,
              0
            ],
            [
              30.7647744266,
              30.4588268192,
              0
            ],
            [
              30.7648528781,
              30.4588319156,
              0
            ],
            [
              30.7649470463,
              30.4588377061,
              0
            ],
            [
              30.7650294707,
              30.4588424159,
              0
            ],
            [
              30.7651220235,
              30.4588472207,
              0
            ],
            [
              30.765206197,
              30.458851078,
              0
            ],
            [
              30.7652978868,
              30.4588546438,
              0
            ],
            [
              30.7653830584,
              30.4588572896,
              0
            ],
            [
              30.7656850806,
              30.4588609854,
              0
            ],
            [
              30.7659870735,
              30.4588557486,
              0
            ],
            [
              30.7662886839,
              30.4588415878,
              0
            ],
            [
              30.7665895614,
              30.4588185184,
              0
            ],
            [
              30.7668893534,
              30.458786567,
              0
            ],
            [
              30.7671877122,
              30.4587457709,
              0
            ],
            [
              30.767484291,
              30.4586961783,
              0
            ],
            [
              30.7677787416,
              30.4586378464,
              0
            ],
            [
              30.768070725,
              30.4585708433,
              0
            ],
            [
              30.7683598968,
              30.4584952471,
              0
            ],
            [
              30.7686459228,
              30.4584111459,
              0
            ],
            [
              30.7689284695,
              30.4583186378,
              0
            ],
            [
              30.7692072074,
              30.4582178307,
              0
            ],
            [
              30.7694818111,
              30.4581088418,
              0
            ],
            [
              30.7697519609,
              30.4579917984,
              0
            ],
            [
              30.7700173425,
              30.4578668347,
              0
            ],
            [
              30.7702776474,
              30.4577341,
              0
            ],
            [
              30.770532571,
              30.4575937458,
              0
            ],
            [
              30.7707818171,
              30.4574459378,
              0
            ],
            [
              30.7710250952,
              30.4572908468,
              0
            ],
            [
              30.7712621223,
              30.4571286539,
              0
            ],
            [
              30.7714926222,
              30.4569595483,
              0
            ],
            [
              30.771716326,
              30.4567837258,
              0
            ],
            [
              30.7719329728,
              30.456601393,
              0
            ],
            [
              30.7721423109,
              30.4564127612,
              0
            ],
            [
              30.7723440971,
              30.45621805,
              0
            ],
            [
              30.7725380948,
              30.4560174881,
              0
            ],
            [
              30.7727240792,
              30.4558113064,
              0
            ],
            [
              30.7729018345,
              30.4555997464,
              0
            ],
            [
              30.7729504787,
              30.455539123,
              0
            ],
            [
              30.773002186,
              30.455473431,
              0
            ],
            [
              30.7730491138,
              30.4554127738,
              0
            ],
            [
              30.7731001934,
              30.4553457386,
              0
            ],
            [
              30.7731452862,
              30.4552857816,
              0
            ],
            [
              30.7731964254,
              30.4552170379,
              0
            ],
            [
              30.7732387753,
              30.4551596032,
              0
            ],
            [
              30.7732914654,
              30.4550876728,
              0
            ],
            [
              30.7733229794,
              30.4550444599,
              0
            ],
            [
              30.7733859066,
              30.454957979,
              0
            ],
            [
              30.7797604978,
              30.446190081,
              0
            ],
            [
              30.7798160051,
              30.4461137682,
              0
            ],
            [
              30.7798437916,
              30.446075629,
              0
            ],
            [
              30.7798902128,
              30.4460121252,
              0
            ],
            [
              30.7799274811,
              30.4459613949,
              0
            ],
            [
              30.7799724136,
              30.4459006341,
              0
            ],
            [
              30.78001196,
              30.4458475972,
              0
            ],
            [
              30.7800566566,
              30.4457882387,
              0
            ],
            [
              30.7800976169,
              30.4457344626,
              0
            ],
            [
              30.780142623,
              30.4456761404,
              0
            ],
            [
              30.7801848336,
              30.4456222277,
              0
            ],
            [
              30.7803953298,
              30.4453651618,
              0
            ],
            [
              30.7806160611,
              30.4451146238,
              0
            ],
            [
              30.7808467592,
              30.4448709204,
              0
            ],
            [
              30.7810871415,
              30.444634347,
              0
            ],
            [
              30.7813369162,
              30.4444051963,
              0
            ],
            [
              30.781595777,
              30.4441837436,
              0
            ],
            [
              30.7818634076,
              30.4439702632,
              0
            ],
            [
              30.7821394825,
              30.4437650127,
              0
            ],
            [
              30.7824236628,
              30.4435682454,
              0
            ],
            [
              30.7827156028,
              30.4433801988,
              0
            ],
            [
              30.7830149464,
              30.4432011041,
              0
            ],
            [
              30.7833213274,
              30.4430311787,
              0
            ],
            [
              30.7836343717,
              30.4428706318,
              0
            ],
            [
              30.7839536979,
              30.442719659,
              0
            ],
            [
              30.7842789157,
              30.442578443,
              0
            ],
            [
              30.7846096277,
              30.4424471574,
              0
            ],
            [
              30.7849454307,
              30.4423259623,
              0
            ],
            [
              30.7852859164,
              30.4422150048,
              0
            ],
            [
              30.7856306654,
              30.4421144223,
              0
            ],
            [
              30.7859792585,
              30.4420243347,
              0
            ],
            [
              30.7863312728,
              30.4419448548,
              0
            ],
            [
              30.7866862752,
              30.4418760781,
              0
            ],
            [
              30.7870438339,
              30.4418180893,
              0
            ],
            [
              30.7871180108,
              30.4418074493,
              0
            ],
            [
              30.7871979821,
              30.4417964584,
              0
            ],
            [
              30.7872714925,
              30.4417867452,
              0
            ],
            [
              30.7873524188,
              30.4417764297,
              0
            ],
            [
              30.7874245628,
              30.4417675214,
              0
            ],
            [
              30.7875070583,
              30.4417576068,
              0
            ],
            [
              30.7875758323,
              30.4417495243,
              0
            ],
            [
              30.7876618253,
              30.4417395878,
              0
            ],
            [
              30.7877134312,
              30.4417336939,
              0
            ],
            [
              30.7878166529,
              30.441721972,
              0
            ],
            [
              30.7911180069,
              30.4413477477,
              0
            ],
            [
              30.7912487477,
              30.44133286,
              0
            ],
            [
              30.7913141037,
              30.4413253175,
              0
            ],
            [
              30.7914229803,
              30.441312422,
              0
            ],
            [
              30.7915100165,
              30.441301714,
              0
            ],
            [
              30.7916143566,
              30.4412882399,
              0
            ],
            [
              30.7917055345,
              30.441275767,
              0
            ],
            [
              30.791807701,
              30.4412608479,
              0
            ],
            [
              30.7919003849,
              30.4412463139,
              0
            ],
            [
              30.7920010447,
              30.4412292808,
              0
            ],
            [
              30.7920942189,
              30.4412122066,
              0
            ],
            [
              30.7922821084,
              30.4411735151,
              0
            ],
            [
              30.7924683835,
              30.4411293538,
              0
            ],
            [
              30.7926528347,
              30.4410797751,
              0
            ],
            [
              30.7928352516,
              30.4410248349,
              0
            ],
            [
              30.7930154265,
              30.4409645939,
              0
            ],
            [
              30.7931931517,
              30.4408991234,
              0
            ],
            [
              30.7933682287,
              30.4408284958,
              0
            ],
            [
              30.793540457,
              30.4407527934,
              0
            ],
            [
              30.7937096408,
              30.4406721004,
              0
            ],
            [
              30.7938755876,
              30.4405865092,
              0
            ],
            [
              30.7940381078,
              30.4404961168,
              0
            ],
            [
              30.7941970178,
              30.4404010274,
              0
            ],
            [
              30.7943521352,
              30.4403013479,
              0
            ],
            [
              30.7945032855,
              30.4401971927,
              0
            ],
            [
              30.7946502954,
              30.4400886798,
              0
            ],
            [
              30.7947929966,
              30.4399759318,
              0
            ],
            [
              30.7948617472,
              30.4399188299,
              0
            ],
            [
              30.7949346739,
              30.4398563456,
              0
            ],
            [
              30.7950007262,
              30.4397981662,
              0
            ],
            [
              30.7950724848,
              30.4397334113,
              0
            ],
            [
              30.7951357216,
              30.439675149,
              0
            ],
            [
              30.7952073261,
              30.4396080263,
              0
            ],
            [
              30.7952665489,
              30.4395517338,
              0
            ],
            [
              30.7953401565,
              30.4394810366,
              0
            ],
            [
              30.7953841512,
              30.4394384869,
              0
            ],
            [
              30.7954719706,
              30.4393532547,
              0
            ],
            [
              30.7956767924,
              30.43915424,
              0
            ],
            [
              30.7957414823,
              30.4390914221,
              0
            ],
            [
              30.79577386,
              30.4390600403,
              0
            ],
            [
              30.795827937,
              30.4390078228,
              0
            ],
            [
              30.7958713325,
              30.438966155,
              0
            ],
            [
              30.7959236245,
              30.4389163221,
              0
            ],
            [
              30.7959696131,
              30.4388729029,
              0
            ],
            [
              30.7960215467,
              30.4388244188,
              0
            ],
            [
              30.796069091,
              30.4387806109,
              0
            ],
            [
              30.79612127,
              30.4387332459,
              0
            ],
            [
              30.7961701469,
              30.4386896166,
              0
            ],
            [
              30.7963643207,
              30.4385236974,
              0
            ],
            [
              30.7965650619,
              30.4383637542,
              0
            ],
            [
              30.7967721274,
              30.4382099821,
              0
            ],
            [
              30.7968263905,
              30.438171431,
              0
            ],
            [
              30.796885231,
              30.4381303411,
              0
            ],
            [
              30.7969395896,
              30.4380929561,
              0
            ],
            [
              30.7969996952,
              30.4380521718,
              0
            ],
            [
              30.7970534756,
              30.4380160976,
              0
            ],
            [
              30.7971151617,
              30.4379751179,
              0
            ],
            [
              30.797166714,
              30.4379411359,
              0
            ],
            [
              30.7972312899,
              30.437898814,
              0
            ],
            [
              30.7972700914,
              30.4378734831,
              0
            ],
            [
              30.7973477468,
              30.4378228853,
              0
            ],
            [
              30.79786131,
              30.437488474,
              0
            ],
            [
              30.7979334496,
              30.4374415263,
              0
            ],
            [
              30.7979695422,
              30.4374180781,
              0
            ],
            [
              30.7980297682,
              30.4373790814,
              0
            ],
            [
              30.798078036,
              30.4373479861,
              0
            ],
            [
              30.7981360977,
              30.4373108354,
              0
            ],
            [
              30.798187054,
              30.4372785072,
              0
            ],
            [
              30.7982444526,
              30.437242462,
              0
            ],
            [
              30.7982968486,
              30.4372099524,
              0
            ],
            [
              30.798354165,
              30.4371748737,
              0
            ],
            [
              30.7984076613,
              30.4371426397,
              0
            ],
            [
              30.7986469979,
              30.4370048092,
              0
            ],
            [
              30.7988916805,
              30.4368742147,
              0
            ],
            [
              30.7991414161,
              30.4367510126,
              0
            ],
            [
              30.7993959069,
              30.4366353513,
              0
            ],
            [
              30.7996548521,
              30.4365273646,
              0
            ],
            [
              30.7999179417,
              30.4364271844,
              0
            ],
            [
              30.8001848641,
              30.4363349271,
              0
            ],
            [
              30.8004552991,
              30.4362507046,
              0
            ],
            [
              30.8007289272,
              30.4361746179,
              0
            ],
            [
              30.8010054215,
              30.4361067554,
              0
            ],
            [
              30.8012844523,
              30.4360471989,
              0
            ],
            [
              30.8015656882,
              30.4359960187,
              0
            ],
            [
              30.8018487937,
              30.4359532767,
              0
            ],
            [
              30.8021334334,
              30.4359190241,
              0
            ],
            [
              30.8024192662,
              30.4358933003,
              0
            ],
            [
              30.8027059542,
              30.4358761356,
              0
            ],
            [
              30.8029931545,
              30.4358675531,
              0
            ],
            [
              30.8032805243,
              30.4358675615,
              0
            ],
            [
              30.8035677245,
              30.4358761586,
              0
            ],
            [
              30.8038544096,
              30.4358933379,
              0
            ],
            [
              30.8041402409,
              30.4359190763,
              0
            ],
            [
              30.8044248776,
              30.435953344,
              0
            ],
            [
              30.8047079814,
              30.4359961008,
              0
            ],
            [
              30.8049892141,
              30.4360472951,
              0
            ],
            [
              30.8052682408,
              30.4361068663,
              0
            ],
            [
              30.8055447301,
              30.4361747429,
              0
            ],
            [
              30.8056070326,
              30.4361912732,
              0
            ],
            [
              30.8056739766,
              30.436209499,
              0
            ],
            [
              30.8057353287,
              30.4362265833,
              0
            ],
            [
              30.8058026919,
              30.4362457082,
              0
            ],
            [
              30.8058626101,
              30.4362630002,
              0
            ],
            [
              30.8059309937,
              30.4362830028,
              0
            ],
            [
              30.8059879189,
              30.4362998331,
              0
            ],
            [
              30.806059014,
              30.4363210196,
              0
            ],
            [
              30.8061016481,
              30.4363337919,
              0
            ],
            [
              30.8061868909,
              30.4363593974,
              0
            ],
            [
              30.8123613705,
              30.438215466,
              0
            ],
            [
              30.8124584238,
              30.4382446041,
              0
            ],
            [
              30.8125069681,
              30.4382591288,
              0
            ],
            [
              30.8125879338,
              30.4382831881,
              0
            ],
            [
              30.8126527765,
              30.4383022582,
              0
            ],
            [
              30.8127306985,
              30.4383248556,
              0
            ],
            [
              30.8127990004,
              30.4383443156,
              0
            ],
            [
              30.8128758244,
              30.438365738,
              0
            ],
            [
              30.8129458278,
              30.4383847637,
              0
            ],
            [
              30.8130222543,
              30.4384049209,
              0
            ],
            [
              30.8130934229,
              30.4384230532,
              0
            ],
            [
              30.8133028164,
              30.4384725142,
              0
            ],
            [
              30.8135138157,
              30.4385165504,
              0
            ],
            [
              30.8137262355,
              30.438555121,
              0
            ],
            [
              30.813939888,
              30.4385881939,
              0
            ],
            [
              30.814013158,
              30.4385982413,
              0
            ],
            [
              30.8140921794,
              30.4386084103,
              0
            ],
            [
              30.8141648391,
              30.4386172169,
              0
            ],
            [
              30.8142448447,
              30.438626392,
              0
            ],
            [
              30.8143161821,
              30.4386341742,
              0
            ],
            [
              30.8143977619,
              30.4386426944,
              0
            ],
            [
              30.8144657804,
              30.438649545,
              0
            ],
            [
              30.8145508332,
              30.4386578753,
              0
            ],
            [
              30.8146018779,
              30.4386627789,
              0
            ],
            [
              30.8147039776,
              30.4386724952,
              0
            ],
            [
              30.8234093029,
              30.4394978542,
              0
            ],
            [
              30.8234851895,
              30.4395050722,
              0
            ],
            [
              30.8235231278,
              30.4395087181,
              0
            ],
            [
              30.8235863419,
              30.439514921,
              0
            ],
            [
              30.8236368937,
              30.4395200339,
              0
            ],
            [
              30.8236975231,
              30.43952641,
              0
            ],
            [
              30.8237505354,
              30.4395322531,
              0
            ],
            [
              30.8238099849,
              30.4395391652,
              0
            ],
            [
              30.8238639712,
              30.4395458237,
              0
            ],
            [
              30.8239226761,
              30.4395535424,
              0
            ],
            [
              30.8239771005,
              30.4395611951,
              0
            ],
            [
              30.8241488263,
              30.4395888432,
              0
            ],
            [
              30.8243193324,
              30.439621674,
              0
            ],
            [
              30.8244884096,
              30.4396596478,
              0
            ],
            [
              30.8246558526,
              30.439702718,
              0
            ],
            [
              30.8248214566,
              30.4397508333,
              0
            ],
            [
              30.8249850189,
              30.4398039326,
              0
            ],
            [
              30.8251463389,
              30.4398619541,
              0
            ],
            [
              30.8253052215,
              30.4399248239,
              0
            ],
            [
              30.8254614695,
              30.4399924668,
              0
            ],
            [
              30.8256148964,
              30.4400648003,
              0
            ],
            [
              30.8257653115,
              30.4401417353,
              0
            ],
            [
              30.8259125306,
              30.4402231779,
              0
            ],
            [
              30.8260563757,
              30.4403090294,
              0
            ],
            [
              30.8261966713,
              30.4403991832,
              0
            ],
            [
              30.8263332437,
              30.4404935308,
              0
            ],
            [
              30.826465928,
              30.4405919559,
              0
            ],
            [
              30.8265945623,
              30.4406943402,
              0
            ],
            [
              30.8267189881,
              30.4408005558,
              0
            ],
            [
              30.826839053,
              30.4409104748,
              0
            ],
            [
              30.8269546123,
              30.4410239622,
              0
            ],
            [
              30.8270655242,
              30.4411408802,
              0
            ],
            [
              30.8271716515,
              30.441261085,
              0
            ],
            [
              30.8272728661,
              30.4413844301,
              0
            ],
            [
              30.8273690444,
              30.4415107638,
              0
            ],
            [
              30.827460068,
              30.4416399344,
              0
            ],
            [
              30.827545827,
              30.4417717811,
              0
            ],
            [
              30.8276262154,
              30.4419061454,
              0
            ],
            [
              30.8277011339,
              30.4420428614,
              0
            ],
            [
              30.8277704936,
              30.4421817608,
              0
            ],
            [
              30.8278342086,
              30.4423226779,
              0
            ],
            [
              30.8278922005,
              30.4424654374,
              0
            ],
            [
              30.8279443992,
              30.4426098657,
              0
            ],
            [
              30.8279907398,
              30.4427557869,
              0
            ],
            [
              30.828031167,
              30.4429030222,
              0
            ],
            [
              30.8280656307,
              30.4430513914,
              0
            ]
          ],
          [
            [
              30.8235863419,
              30.439514921,
              0
            ],
            [
              30.8238791346,
              30.4394701636,
              0
            ],
            [
              30.8241679484,
              30.4394090031,
              0
            ],
            [
              30.8244515606,
              30.4393316983,
              0
            ],
            [
              30.8247287707,
              30.4392385765,
              0
            ],
            [
              30.8249984051,
              30.439130032,
              0
            ],
            [
              30.8252593224,
              30.4390065242,
              0
            ],
            [
              30.825510418,
              30.438868576,
              0
            ],
            [
              30.825750629,
              30.4387167713,
              0
            ],
            [
              30.8259789385,
              30.4385517529,
              0
            ],
            [
              30.8261943801,
              30.4383742192,
              0
            ],
            [
              30.8263960419,
              30.4381849218,
              0
            ],
            [
              30.8265830701,
              30.4379846621,
              0
            ],
            [
              30.8267546732,
              30.4377742879,
              0
            ],
            [
              30.8269101248,
              30.4375546896,
              0
            ],
            [
              30.827048767,
              30.4373267969,
              0
            ],
            [
              30.827170013,
              30.4370915744,
              0
            ],
            [
              30.8272733496,
              30.436850018,
              0
            ],
            [
              30.8273583396,
              30.4366031502,
              0
            ],
            [
              30.8274246233,
              30.4363520159,
              0
            ]
          ],
          [
            [
              30.5898515074,
              30.4008717236,
              0
            ],
            [
              30.5894723921,
              30.4006712069,
              0
            ],
            [
              30.5890794783,
              30.4004917579,
              0
            ],
            [
              30.5886743221,
              30.4003340871,
              0
            ],
            [
              30.5882585279,
              30.4001988189,
              0
            ],
            [
              30.5878337425,
              30.400086489,
              0
            ],
            [
              30.5874016479,
              30.3999975421,
              0
            ],
            [
              30.5869639552,
              30.3999323305,
              0
            ],
            [
              30.5865223977,
              30.3998911124,
              0
            ],
            [
              30.586078724,
              30.399874051,
              0
            ],
            [
              30.5738678837,
              30.3997360647,
              0
            ]
          ]
        ]
      }
    }
  ]
}
