{
  "type": "FeatureCollection",
  "name": "Study_Area_Sector",
  "crs": {
    "type": "name",
    "properties": {
      "name": "urn:ogc:def:crs:OGC:1.3:CRS84"
    }
  },
  "xy_coordinate_resolution": 8.98315e-10,
  "z_coordinate_resolution": 0.0001,
  "features": [
    {
      "type": "Feature",
      "properties": {
        "اسم_المحور": "6",
        "مساحة_المنطقة_كم2": 501.9945882205092,
        "اسم_القطاع": "12",
        "نوع_المحور": null,
        "طول_المحور": null,
        "الحرم_المكاني_للمحور": null,
        "نوع_الرسم": null,
        "sector": "12",
        "GlobalID": "{C90857FC-070F-45B6-BAC8-733BD8795DB5}",
        "Shape_Length": 127356.55913641304,
        "Shape_Area": 501994588.2205092,
        "landuse_code": "",
        "landuse_label": "",
        "change_status_key": "unchanged"
      },
      "geometry": {
        "type": "MultiPolygon",
        "coordinates": [
          [
            [
              [
                30.7002118389,
                30.5330262932
              ],
              [
                30.7016733046,
                30.5317616852
              ],
              [
                30.7019582409,
                30.5315151169
              ],
              [
                30.702474238,
                30.5309373938
              ],
              [
                30.7049126664,
                30.5282072244
              ],
              [
                30.7049085319,
                30.5282113424
              ],
              [
                30.7062595968,
                30.5266983047
              ],
              [
                30.7091352446,
                30.5234778299
              ],
              [
                30.7094974953,
                30.5230721345
              ],
              [
                30.7123774394,
                30.5198467352
              ],
              [
                30.7147696949,
                30.5171674447
              ],
              [
                30.7178468817,
                30.51372093
              ],
              [
                30.7181816619,
                30.513345963
              ],
              [
                30.7183874011,
                30.5131155285
              ],
              [
                30.7186098927,
                30.5128663342
              ],
              [
                30.718785091,
                30.5126700972
              ],
              [
                30.7215176404,
                30.509609473
              ],
              [
                30.7230547569,
                30.5078877582
              ],
              [
                30.7236432771,
                30.5072285543
              ],
              [
                30.7246783049,
                30.5060688553
              ],
              [
                30.7257133319,
                30.5049091417
              ],
              [
                30.7257133575,
                30.5049091132
              ],
              [
                30.7257133832,
                30.5049090848
              ],
              [
                30.7274123849,
                30.5030053805
              ],
              [
                30.7291114375,
                30.5011015827
              ],
              [
                30.7307533635,
                30.4992617604
              ],
              [
                30.7323055824,
                30.4975224258
              ],
              [
                30.7342079376,
                30.4988355681
              ],
              [
                30.7352367517,
                30.4995457217
              ],
              [
                30.7361102925,
                30.500148692
              ],
              [
                30.7442287714,
                30.5057523757
              ],
              [
                30.7447152021,
                30.5061960235
              ],
              [
                30.7452901843,
                30.506720432
              ],
              [
                30.7456950922,
                30.507089723
              ],
              [
                30.7483973038,
                30.5095542098
              ],
              [
                30.751387757,
                30.5122815056
              ],
              [
                30.7518292348,
                30.5126841274
              ],
              [
                30.7522227561,
                30.5130430161
              ],
              [
                30.7524478363,
                30.5132482818
              ],
              [
                30.7527269501,
                30.5135028357
              ],
              [
                30.7531698695,
                30.5139067581
              ],
              [
                30.7542176971,
                30.5148623442
              ],
              [
                30.7549676799,
                30.5155462997
              ],
              [
                30.7551799755,
                30.5157399036
              ],
              [
                30.7558393009,
                30.5163411777
              ],
              [
                30.7579660981,
                30.5165941134
              ],
              [
                30.7634071159,
                30.5172411997
              ],
              [
                30.7634290798,
                30.5173077101
              ],
              [
                30.7634510437,
                30.5173742168
              ],
              [
                30.7635017004,
                30.5175054461
              ],
              [
                30.7635589909,
                30.5176346361
              ],
              [
                30.763590897,
                30.5176980859
              ],
              [
                30.763622802,
                30.5177615358
              ],
              [
                30.7636930134,
                30.5178859032
              ],
              [
                30.7637694898,
                30.5180074971
              ],
              [
                30.7638520825,
                30.5181260838
              ],
              [
                30.763940633,
                30.5182414369
              ],
              [
                30.7640349726,
                30.5183533325
              ],
              [
                30.7641349176,
                30.5184615555
              ],
              [
                30.7642402768,
                30.5185658979
              ],
              [
                30.7643487336,
                30.5186642441
              ],
              [
                30.7643508454,
                30.5186661585
              ],
              [
                30.7644664133,
                30.518762146
              ],
              [
                30.7691565483,
                30.5232692202
              ],
              [
                30.7741521029,
                30.5191967909
              ],
              [
                30.774340594,
                30.5190431278
              ],
              [
                30.7746397806,
                30.5190553443
              ],
              [
                30.7773091714,
                30.5191643436
              ],
              [
                30.7803804731,
                30.5192897546
              ],
              [
                30.7810237292,
                30.5193160209
              ],
              [
                30.7812032084,
                30.5193233496
              ],
              [
                30.7824520534,
                30.5193743437
              ],
              [
                30.7826504779,
                30.5195594075
              ],
              [
                30.7839203673,
                30.5207438254
              ],
              [
                30.7839203916,
                30.5207438105
              ],
              [
                30.7839313245,
                30.5207540067
              ],
              [
                30.7851218147,
                30.5218643008
              ],
              [
                30.7855150131,
                30.522231008
              ],
              [
                30.7866043036,
                30.5232469182
              ],
              [
                30.7872494946,
                30.5238486318
              ],
              [
                30.7883139162,
                30.5248413263
              ],
              [
                30.7887811919,
                30.5244657637
              ],
              [
                30.7955815704,
                30.518999938
              ],
              [
                30.7959178139,
                30.5187296733
              ],
              [
                30.7969784703,
                30.5178771373
              ],
              [
                30.7969875315,
                30.5178698539
              ],
              [
                30.7973152307,
                30.5176574192
              ],
              [
                30.7976387461,
                30.5174402762
              ],
              [
                30.7979579848,
                30.5172184848
              ],
              [
                30.7982728578,
                30.5169921094
              ],
              [
                30.798583277,
                30.5167612134
              ],
              [
                30.7988891526,
                30.5165258603
              ],
              [
                30.7991904016,
                30.5162861173
              ],
              [
                30.7992193129,
                30.5162623221
              ],
              [
                30.7994869362,
                30.5160420514
              ],
              [
                30.7997786745,
                30.5157937327
              ],
              [
                30.8000655348,
                30.5155412301
              ],
              [
                30.8003474351,
                30.5152846145
              ],
              [
                30.8006242968,
                30.5150239584
              ],
              [
                30.8008960411,
                30.5147593355
              ],
              [
                30.8011625923,
                30.5144908212
              ],
              [
                30.8014238749,
                30.5142184883
              ],
              [
                30.8016798151,
                30.5139424158
              ],
              [
                30.8019303405,
                30.5136626809
              ],
              [
                30.8021753826,
                30.513379362
              ],
              [
                30.8024148697,
                30.51309254
              ],
              [
                30.8026487366,
                30.5128022932
              ],
              [
                30.8028769147,
                30.512508707
              ],
              [
                30.8030993418,
                30.5122118607
              ],
              [
                30.8033159557,
                30.511911839
              ],
              [
                30.8035266928,
                30.5116087274
              ],
              [
                30.8037314973,
                30.5113026099
              ],
              [
                30.8039303088,
                30.5109935747
              ],
              [
                30.8041230713,
                30.5106817049
              ],
              [
                30.8043097318,
                30.5103670924
              ],
              [
                30.8044902372,
                30.5100498239
              ],
              [
                30.8046645367,
                30.5097299888
              ],
              [
                30.8047882069,
                30.5094927885
              ],
              [
                30.8048325814,
                30.5094076783
              ],
              [
                30.804913453,
                30.5092453292
              ],
              [
                30.8049943234,
                30.5090829809
              ],
              [
                30.8053923015,
                30.5088836434
              ],
              [
                30.809309747,
                30.5069213846
              ],
              [
                30.8097146862,
                30.5067185402
              ],
              [
                30.8098111934,
                30.5066701961
              ],
              [
                30.8098871556,
                30.5066345207
              ],
              [
                30.809914062,
                30.506621884
              ],
              [
                30.8100198906,
                30.5065785747
              ],
              [
                30.8101283491,
                30.5065404027
              ],
              [
                30.8102391055,
                30.5065074868
              ],
              [
                30.8103518129,
                30.5064799285
              ],
              [
                30.8104661266,
                30.5064578122
              ],
              [
                30.8105816898,
                30.5064412068
              ],
              [
                30.8106981461,
                30.5064301649
              ],
              [
                30.8107566402,
                30.5064274421
              ],
              [
                30.8108151343,
                30.5064247193
              ],
              [
                30.8109322947,
                30.5064248874
              ],
              [
                30.8110492616,
                30.5064306684
              ],
              [
                30.8113223621,
                30.50649647
              ],
              [
                30.8115904923,
                30.5065553545
              ],
              [
                30.8115971541,
                30.5065568177
              ],
              [
                30.8118734914,
                30.506611679
              ],
              [
                30.8121512246,
                30.5066610254
              ],
              [
                30.8124302094,
                30.5067048301
              ],
              [
                30.8125246065,
                30.506717718
              ],
              [
                30.8126813822,
                30.5067391222
              ],
              [
                30.8127102922,
                30.5067430688
              ],
              [
                30.8127706417,
                30.5067500808
              ],
              [
                30.8129913264,
                30.506775722
              ],
              [
                30.8131841789,
                30.506794233
              ],
              [
                30.8132731624,
                30.5068027735
              ],
              [
                30.8133735514,
                30.5068103904
              ],
              [
                30.8134192056,
                30.5068138547
              ],
              [
                30.8134512531,
                30.506816286
              ],
              [
                30.8135316735,
                30.5068223878
              ],
              [
                30.8135556473,
                30.5068242064
              ],
              [
                30.8136763477,
                30.5068478139
              ],
              [
                30.8137984272,
                30.5068653817
              ],
              [
                30.8139214798,
                30.5068768533
              ],
              [
                30.8140450958,
                30.5068821884
              ],
              [
                30.8141688641,
                30.5068813711
              ],
              [
                30.81429237,
                30.5068744026
              ],
              [
                30.8144152046,
                30.5068613057
              ],
              [
                30.8145369574,
                30.506842126
              ],
              [
                30.8146572227,
                30.506816927
              ],
              [
                30.8147756007,
                30.5067857912
              ],
              [
                30.8148916963,
                30.506748823
              ],
              [
                30.8150051234,
                30.506706145
              ],
              [
                30.8151155037,
                30.5066579005
              ],
              [
                30.8152224689,
                30.5066042503
              ],
              [
                30.815325665,
                30.5065453724
              ],
              [
                30.8154247438,
                30.5064814631
              ],
              [
                30.8155193807,
                30.5064127352
              ],
              [
                30.8156092561,
                30.5063394162
              ],
              [
                30.8156940736,
                30.5062617536
              ],
              [
                30.8155780951,
                30.5060652008
              ],
              [
                30.8154685137,
                30.5058659416
              ],
              [
                30.8153654145,
                30.5056641309
              ],
              [
                30.8152688773,
                30.5054599241
              ],
              [
                30.8151789766,
                30.5052534795
              ],
              [
                30.8150957839,
                30.5050449581
              ],
              [
                30.8150193612,
                30.5048345213
              ],
              [
                30.8149497692,
                30.5046223327
              ],
              [
                30.8148870617,
                30.5044085556
              ],
              [
                30.8148312879,
                30.5041933575
              ],
              [
                30.8147824889,
                30.5039769035
              ],
              [
                30.8147407047,
                30.5037593628
              ],
              [
                30.8147059678,
                30.5035409029
              ],
              [
                30.8146783037,
                30.5033216939
              ],
              [
                30.8146577346,
                30.5031019056
              ],
              [
                30.8146442762,
                30.5028817098
              ],
              [
                30.8146379394,
                30.5026612753
              ],
              [
                30.8146387287,
                30.5024407736
              ],
              [
                30.8146466433,
                30.5022203752
              ],
              [
                30.8146616782,
                30.5020002531
              ],
              [
                30.8146838202,
                30.5017805758
              ],
              [
                30.8147130531,
                30.5015615137
              ],
              [
                30.8153787808,
                30.4986205081
              ],
              [
                30.8158240518,
                30.496653338
              ],
              [
                30.8161090357,
                30.4953942657
              ],
              [
                30.8163228363,
                30.4944956612
              ],
              [
                30.8165443443,
                30.4935646295
              ],
              [
                30.8178920228,
                30.4879000103
              ],
              [
                30.8181178889,
                30.4869506096
              ],
              [
                30.8182679067,
                30.4863200217
              ],
              [
                30.8186442565,
                30.4847380492
              ],
              [
                30.8186452944,
                30.4847336861
              ],
              [
                30.8186619693,
                30.4846635907
              ],
              [
                30.8200007172,
                30.4790359956
              ],
              [
                30.8207649138,
                30.4758234543
              ],
              [
                30.8208234146,
                30.475577525
              ],
              [
                30.8211904739,
                30.4740344313
              ],
              [
                30.8224128666,
                30.4688954032
              ],
              [
                30.8226443029,
                30.4679223994
              ],
              [
                30.8226447529,
                30.4679224881
              ],
              [
                30.8227078145,
                30.4676573326
              ],
              [
                30.8227073742,
                30.4676572332
              ],
              [
                30.82270806,
                30.4676543499
              ],
              [
                30.8228946023,
                30.4668700879
              ],
              [
                30.8234076387,
                30.4647131125
              ],
              [
                30.8241072163,
                30.4617717867
              ],
              [
                30.8243890749,
                30.4605867095
              ],
              [
                30.824543271,
                30.4599383849
              ],
              [
                30.824787373,
                30.4589120341
              ],
              [
                30.8248480606,
                30.4586568685
              ],
              [
                30.8249012072,
                30.4584334077
              ],
              [
                30.8250172766,
                30.4579453791
              ],
              [
                30.82515234,
                30.4573774766
              ],
              [
                30.8253822235,
                30.4565595046
              ],
              [
                30.8255510871,
                30.4559586438
              ],
              [
                30.8256112196,
                30.455744678
              ],
              [
                30.8257332375,
                30.455310498
              ],
              [
                30.8263018829,
                30.4532870269
              ],
              [
                30.8263551164,
                30.4530976004
              ],
              [
                30.826390461,
                30.4529718269
              ],
              [
                30.8265840164,
                30.4522830565
              ],
              [
                30.8266031316,
                30.4522150315
              ],
              [
                30.8269778268,
                30.4508816234
              ],
              [
                30.827031209,
                30.4506916522
              ],
              [
                30.827145017,
                30.4502866357
              ],
              [
                30.8277444289,
                30.4481534378
              ],
              [
                30.8277529649,
                30.4481230544
              ],
              [
                30.8277572293,
                30.4481078622
              ],
              [
                30.8277643255,
                30.448082539
              ],
              [
                30.8277699913,
                30.4480622779
              ],
              [
                30.8277767685,
                30.4480379597
              ],
              [
                30.8277826766,
                30.4480166778
              ],
              [
                30.8277892799,
                30.4479927834
              ],
              [
                30.82779525,
                30.4479710552
              ],
              [
                30.8278017129,
                30.4479473857
              ],
              [
                30.827807672,
                30.4479254002
              ],
              [
                30.8278082104,
                30.4479232388
              ],
              [
                30.8279171134,
                30.447486269
              ],
              [
                30.8279487357,
                30.4473342481
              ],
              [
                30.8280090817,
                30.4470441386
              ],
              [
                30.8280834698,
                30.4465995341
              ],
              [
                30.8281401924,
                30.4461529783
              ],
              [
                30.8281498642,
                30.4460418476
              ],
              [
                30.8281791788,
                30.4457049967
              ],
              [
                30.8282003861,
                30.4452561211
              ],
              [
                30.8282037884,
                30.4448068777
              ],
              [
                30.8281893824,
                30.4443577987
              ],
              [
                30.8280798603,
                30.4431260528
              ],
              [
                30.8280330174,
                30.4425358649
              ],
              [
                30.827549843,
                30.43644787
              ],
              [
                30.8274962333,
                30.4357723716
              ],
              [
                30.8274887882,
                30.4356785654
              ],
              [
                30.8274849517,
                30.4356302239
              ],
              [
                30.8274789681,
                30.4355548237
              ],
              [
                30.8274729844,
                30.4354794245
              ],
              [
                30.8274418146,
                30.4350866698
              ],
              [
                30.8272806644,
                30.4330560672
              ],
              [
                30.8272124745,
                30.4321968024
              ],
              [
                30.8271373662,
                30.4312503504
              ],
              [
                30.8270540368,
                30.4302003104
              ],
              [
                30.8270479511,
                30.4301236159
              ],
              [
                30.8270431109,
                30.4300626239
              ],
              [
                30.8269885879,
                30.4293755532
              ],
              [
                30.8268607891,
                30.4278246436
              ],
              [
                30.8268453921,
                30.4276377912
              ],
              [
                30.8268302345,
                30.4274538447
              ],
              [
                30.8268065665,
                30.4271666195
              ],
              [
                30.8267284038,
                30.4262180439
              ],
              [
                30.8266708015,
                30.4255189879
              ],
              [
                30.8263344949,
                30.4214374707
              ],
              [
                30.8238533056,
                30.4213179784
              ],
              [
                30.8230401385,
                30.4212788168
              ],
              [
                30.8224315128,
                30.4212495032
              ],
              [
                30.8213803367,
                30.4211988704
              ],
              [
                30.8209308705,
                30.4211772224
              ],
              [
                30.8188946063,
                30.4210798551
              ],
              [
                30.818268795,
                30.4210499246
              ],
              [
                30.8062248706,
                30.4204733151
              ],
              [
                30.8039722378,
                30.420365345
              ],
              [
                30.8017189325,
                30.420257304
              ],
              [
                30.7954541299,
                30.419956715
              ],
              [
                30.7917350779,
                30.41977813
              ],
              [
                30.7889340206,
                30.4196435562
              ],
              [
                30.7884243604,
                30.4196190635
              ],
              [
                30.7869444627,
                30.4195479334
              ],
              [
                30.7726981761,
                30.4188623326
              ],
              [
                30.7651316694,
                30.4184975606
              ],
              [
                30.7516869359,
                30.4178483197
              ],
              [
                30.7425972302,
                30.4174085945
              ],
              [
                30.7388171681,
                30.4172255428
              ],
              [
                30.7341855151,
                30.4170011016
              ],
              [
                30.7288630359,
                30.4167429811
              ],
              [
                30.7250010657,
                30.4165569744
              ],
              [
                30.7070508317,
                30.4156924167
              ],
              [
                30.7070507964,
                30.4156924152
              ],
              [
                30.704564021,
                30.4155726406
              ],
              [
                30.703138085,
                30.4155039614
              ],
              [
                30.6922875472,
                30.4149824243
              ],
              [
                30.6864451057,
                30.4147012296
              ],
              [
                30.6772721406,
                30.4142592079
              ],
              [
                30.673316882,
                30.4140684149
              ],
              [
                30.6713728634,
                30.4139745958
              ],
              [
                30.6699489878,
                30.4139058604
              ],
              [
                30.6683312423,
                30.4138277477
              ],
              [
                30.6664385053,
                30.413736331
              ],
              [
                30.6662151891,
                30.4137298455
              ],
              [
                30.66410236,
                30.413627822
              ],
              [
                30.6629238302,
                30.4135709133
              ],
              [
                30.6582869016,
                30.413347352
              ],
              [
                30.6521263584,
                30.4130500769
              ],
              [
                30.6492400684,
                30.4129106991
              ],
              [
                30.6424236356,
                30.4125812826
              ],
              [
                30.638897871,
                30.4124107534
              ],
              [
                30.6382444806,
                30.4123792022
              ],
              [
                30.6380794361,
                30.4123712326
              ],
              [
                30.6377873561,
                30.4123571291
              ],
              [
                30.6375759668,
                30.4123469219
              ],
              [
                30.6372668088,
                30.4123319922
              ],
              [
                30.637265288,
                30.4123319187
              ],
              [
                30.6349818262,
                30.4122216551
              ],
              [
                30.6347374677,
                30.4122097111
              ],
              [
                30.6345302101,
                30.4121995821
              ],
              [
                30.6343407935,
                30.4121903236
              ],
              [
                30.6342239347,
                30.4119934758
              ],
              [
                30.6341709788,
                30.4119042715
              ],
              [
                30.6340188581,
                30.4116480264
              ],
              [
                30.6257168879,
                30.397662496
              ],
              [
                30.6256116393,
                30.3974851649
              ],
              [
                30.6247970796,
                30.3961127208
              ],
              [
                30.624129508,
                30.3951981911
              ],
              [
                30.6075948441,
                30.3677138482
              ],
              [
                30.5847986151,
                30.3322929939
              ],
              [
                30.5846566047,
                30.3320722507
              ],
              [
                30.5789286131,
                30.323167659
              ],
              [
                30.5735009662,
                30.314728355
              ],
              [
                30.5674885659,
                30.3053779932
              ],
              [
                30.5451773393,
                30.316496301
              ],
              [
                30.545094077,
                30.3164978768
              ],
              [
                30.5450356133,
                30.3164989827
              ],
              [
                30.5435786772,
                30.3171934582
              ],
              [
                30.5421185554,
                30.3178829219
              ],
              [
                30.5418720921,
                30.317998204
              ],
              [
                30.5406552682,
                30.3185673641
              ],
              [
                30.5391888409,
                30.3192467716
              ],
              [
                30.5385862963,
                30.3195232784
              ],
              [
                30.5377192948,
                30.3199211376
              ],
              [
                30.5362466542,
                30.3205904498
              ],
              [
                30.5347709425,
                30.3212546959
              ],
              [
                30.5332921829,
                30.3219138681
              ],
              [
                30.5322722649,
                30.3223640807
              ],
              [
                30.5318103968,
                30.3225679549
              ],
              [
                30.5303256114,
                30.323216947
              ],
              [
                30.5285088123,
                30.32390054
              ],
              [
                30.5278712006,
                30.3241404422
              ],
              [
                30.5268431132,
                30.324527251
              ],
              [
                30.5231795882,
                30.3259055257
              ],
              [
                30.5198579194,
                30.3271550632
              ],
              [
                30.5193328064,
                30.3273525879
              ],
              [
                30.5068930882,
                30.3320310012
              ],
              [
                30.5065197641,
                30.3321854036
              ],
              [
                30.5057316531,
                30.3325113544
              ],
              [
                30.4989216395,
                30.3351448412
              ],
              [
                30.4982090554,
                30.3354203742
              ],
              [
                30.4920096685,
                30.337817235
              ],
              [
                30.49158778,
                30.3379803338
              ],
              [
                30.4880542089,
                30.3393463092
              ],
              [
                30.4866539219,
                30.3398875814
              ],
              [
                30.468571539,
                30.3468752737
              ],
              [
                30.4627261951,
                30.3488371084
              ],
              [
                30.4601033984,
                30.3498164865
              ],
              [
                30.4572047179,
                30.3508987978
              ],
              [
                30.4522890956,
                30.3527342275
              ],
              [
                30.444634848,
                30.3555921554
              ],
              [
                30.444259377,
                30.3557669689
              ],
              [
                30.4438806143,
                30.3559364142
              ],
              [
                30.443498664,
                30.3561004447
              ],
              [
                30.4431136314,
                30.3562590162
              ],
              [
                30.4427256196,
                30.3564120857
              ],
              [
                30.442625798,
                30.3564497597
              ],
              [
                30.4426024681,
                30.3564585645
              ],
              [
                30.4423347337,
                30.3565596111
              ],
              [
                30.4422745399,
                30.3565813156
              ],
              [
                30.4420422384,
                30.3566650782
              ],
              [
                30.4419410809,
                30.356701553
              ],
              [
                30.4417429668,
                30.3567696985
              ],
              [
                30.4415447694,
                30.3568378719
              ],
              [
                30.4411459053,
                30.3569685319
              ],
              [
                30.4407445977,
                30.3570934966
              ],
              [
                30.4403409558,
                30.3572127318
              ],
              [
                30.4399350896,
                30.3573262055
              ],
              [
                30.4395271103,
                30.3574338873
              ],
              [
                30.4391068517,
                30.3576095005
              ],
              [
                30.4386892353,
                30.357789747
              ],
              [
                30.4382743306,
                30.3579745975
              ],
              [
                30.4378622058,
                30.35816402
              ],
              [
                30.4374529294,
                30.3583579853
              ],
              [
                30.4370465667,
                30.3585564602
              ],
              [
                30.4366431849,
                30.3587594128
              ],
              [
                30.4362428516,
                30.3589668084
              ],
              [
                30.435845632,
                30.3591786149
              ],
              [
                30.4354515904,
                30.3593947966
              ],
              [
                30.4350607923,
                30.359615317
              ],
              [
                30.4317076483,
                30.3616255338
              ],
              [
                30.43098584,
                30.3620582384
              ],
              [
                30.4170041852,
                30.3704397294
              ],
              [
                30.3997392849,
                30.3798010224
              ],
              [
                30.3994852047,
                30.3799387569
              ],
              [
                30.3856775192,
                30.387422411
              ],
              [
                30.3812812346,
                30.3898045953
              ],
              [
                30.3807503726,
                30.3901503426
              ],
              [
                30.380223488,
                30.3905005842
              ],
              [
                30.3797006307,
                30.3908552887
              ],
              [
                30.3791818525,
                30.3912144194
              ],
              [
                30.3786672032,
                30.3915779428
              ],
              [
                30.3785722973,
                30.3917274282
              ],
              [
                30.3784714145,
                30.3918739714
              ],
              [
                30.3783646751,
                30.3920173934
              ],
              [
                30.3782522086,
                30.3921575218
              ],
              [
                30.3781341536,
                30.3922941862
              ],
              [
                30.3780106499,
                30.3924272208
              ],
              [
                30.3778818505,
                30.3925564635
              ],
              [
                30.3777479105,
                30.3926817579
              ],
              [
                30.3776089931,
                30.3928029529
              ],
              [
                30.3774652647,
                30.3929198995
              ],
              [
                30.3773169026,
                30.3930324586
              ],
              [
                30.3771640854,
                30.3931404896
              ],
              [
                30.3770069977,
                30.3932438663
              ],
              [
                30.376845832,
                30.393342459
              ],
              [
                30.3766807822,
                30.3934361498
              ],
              [
                30.3765120498,
                30.3935248256
              ],
              [
                30.3762584511,
                30.3937496789
              ],
              [
                30.3762541265,
                30.3937535137
              ],
              [
                30.3759913053,
                30.3939780124
              ],
              [
                30.3757240821,
                30.3941979123
              ],
              [
                30.3757236757,
                30.394198246
              ],
              [
                30.3754513325,
                30.3944141352
              ],
              [
                30.3751743691,
                30.394625606
              ],
              [
                30.3748928823,
                30.3948325856
              ],
              [
                30.3747210483,
                30.3950055614
              ],
              [
                30.3745539406,
                30.3951819466
              ],
              [
                30.3743916493,
                30.3953616475
              ],
              [
                30.3743129553,
                30.3954531071
              ],
              [
                30.3742342623,
                30.3955445657
              ],
              [
                30.3740818665,
                30.3957306011
              ],
              [
                30.3739345459,
                30.3959196526
              ],
              [
                30.3737923781,
                30.3961116171
              ],
              [
                30.3736554429,
                30.3963063898
              ],
              [
                30.3751702684,
                30.3978242663
              ],
              [
                30.3776038688,
                30.4002627199
              ],
              [
                30.3845951935,
                30.4072676486
              ],
              [
                30.3856125083,
                30.408286901
              ],
              [
                30.3857187848,
                30.4084184471
              ],
              [
                30.3858306555,
                30.4085464957
              ],
              [
                30.3859479668,
                30.4086708703
              ],
              [
                30.3860705558,
                30.4087913992
              ],
              [
                30.3861982531,
                30.4089079157
              ],
              [
                30.3863308831,
                30.4090202591
              ],
              [
                30.3864682625,
                30.4091282745
              ],
              [
                30.3866102008,
                30.4092318118
              ],
              [
                30.3867565019,
                30.4093307281
              ],
              [
                30.3869069656,
                30.4094248878
              ],
              [
                30.3870613819,
                30.4095141603
              ],
              [
                30.3872195377,
                30.4095984234
              ],
              [
                30.3873812145,
                30.4096775579
              ],
              [
                30.3875461904,
                30.4097514566
              ],
              [
                30.387714237,
                30.4098200175
              ],
              [
                30.3878851206,
                30.4098831449
              ],
              [
                30.3880586064,
                30.4099407511
              ],
              [
                30.3882344559,
                30.4099927591
              ],
              [
                30.388946532,
                30.41028052
              ],
              [
                30.3896558393,
                30.4105733215
              ],
              [
                30.3903623314,
                30.4108711427
              ],
              [
                30.391065958,
                30.4111739656
              ],
              [
                30.391766673,
                30.4114817667
              ],
              [
                30.3924644301,
                30.411794528
              ],
              [
                30.39315918,
                30.412112226
              ],
              [
                30.3938508776,
                30.4124348401
              ],
              [
                30.3945394736,
                30.4127623485
              ],
              [
                30.3952249227,
                30.413094728
              ],
              [
                30.39590718,
                30.4134319585
              ],
              [
                30.3965861982,
                30.413774015
              ],
              [
                30.3972962009,
                30.4140271625
              ],
              [
                30.3980035689,
                30.4142857376
              ],
              [
                30.3987082445,
                30.4145497228
              ],
              [
                30.3994101743,
                30.4148190929
              ],
              [
                30.4001093006,
                30.4150938306
              ],
              [
                30.4008055699,
                30.4153739122
              ],
              [
                30.400840582,
                30.4153883246
              ],
              [
                30.4014989258,
                30.4156593159
              ],
              [
                30.4021893158,
                30.4159500191
              ],
              [
                30.4028766834,
                30.4162459991
              ],
              [
                30.4035609741,
                30.4165472313
              ],
              [
                30.4042421345,
                30.4168536932
              ],
              [
                30.4049201132,
                30.4171653612
              ],
              [
                30.4055948528,
                30.4174822089
              ],
              [
                30.4062663019,
                30.417804212
              ],
              [
                30.4069344092,
                30.4181313442
              ],
              [
                30.4075991183,
                30.418463581
              ],
              [
                30.4082603799,
                30.4188008972
              ],
              [
                30.4089181407,
                30.4191432627
              ],
              [
                30.4095723474,
                30.4194906524
              ],
              [
                30.4102229507,
                30.4198430392
              ],
              [
                30.4108698984,
                30.4202003949
              ],
              [
                30.4115131393,
                30.4205626897
              ],
              [
                30.41183288,
                30.420746294
              ],
              [
                30.412152622,
                30.4209298975
              ],
              [
                30.4127882976,
                30.4213019876
              ],
              [
                30.4134201147,
                30.421678931
              ],
              [
                30.4140480233,
                30.422060698
              ],
              [
                30.4146719741,
                30.4224472587
              ],
              [
                30.415291918,
                30.4228385816
              ],
              [
                30.415907807,
                30.4232346379
              ],
              [
                30.416519591,
                30.423635394
              ],
              [
                30.417127222,
                30.4240408186
              ],
              [
                30.4177306528,
                30.424450879
              ],
              [
                30.4183298355,
                30.4248655457
              ],
              [
                30.418924723,
                30.4252847833
              ],
              [
                30.4195152675,
                30.4257085587
              ],
              [
                30.4201435745,
                30.4261823511
              ],
              [
                30.4207763894,
                30.4266516587
              ],
              [
                30.4214136684,
                30.427116449
              ],
              [
                30.4220553706,
                30.4275766931
              ],
              [
                30.42270145,
                30.4280323576
              ],
              [
                30.4233518636,
                30.4284834119
              ],
              [
                30.4240065675,
                30.4289298261
              ],
              [
                30.4246655177,
                30.4293715686
              ],
              [
                30.4253286681,
                30.4298086115
              ],
              [
                30.4259959737,
                30.430240923
              ],
              [
                30.4266673914,
                30.4306684761
              ],
              [
                30.4273428721,
                30.4310912391
              ],
              [
                30.4280223717,
                30.4315091859
              ],
              [
                30.4287058441,
                30.4319222865
              ],
              [
                30.429393243,
                30.4323305139
              ],
              [
                30.4300845225,
                30.4327338391
              ],
              [
                30.4307796331,
                30.4331322359
              ],
              [
                30.4314785298,
                30.433525677
              ],
              [
                30.4321811642,
                30.4339141355
              ],
              [
                30.4328874881,
                30.4342975858
              ],
              [
                30.4335974542,
                30.4346760008
              ],
              [
                30.4345247185,
                30.4353027378
              ],
              [
                30.4349492696,
                30.4355896874
              ],
              [
                30.4362970123,
                30.4365078257
              ],
              [
                30.4376406629,
                30.4374304038
              ],
              [
                30.4389802011,
                30.4383574069
              ],
              [
                30.4403156074,
                30.4392888221
              ],
              [
                30.4416468635,
                30.4402246348
              ],
              [
                30.4429739491,
                30.4411648322
              ],
              [
                30.4442968426,
                30.4421093994
              ],
              [
                30.4456155288,
                30.4430583227
              ],
              [
                30.4469299832,
                30.4440115884
              ],
              [
                30.4482401906,
                30.4449691808
              ],
              [
                30.4495461316,
                30.4459310881
              ],
              [
                30.4508477836,
                30.4468972936
              ],
              [
                30.4521451305,
                30.4478677854
              ],
              [
                30.4534381517,
                30.448842548
              ],
              [
                30.4537005011,
                30.4490375611
              ],
              [
                30.4539671089,
                30.4492282317
              ],
              [
                30.4542378822,
                30.4494144896
              ],
              [
                30.4545127206,
                30.4495962686
              ],
              [
                30.454791524,
                30.4497735011
              ],
              [
                30.4550741929,
                30.4499461245
              ],
              [
                30.4553606239,
                30.4501140755
              ],
              [
                30.4556507132,
                30.4502772934
              ],
              [
                30.4559443553,
                30.4504357176
              ],
              [
                30.4562414454,
                30.4505892936
              ],
              [
                30.4565418725,
                30.4507379633
              ],
              [
                30.4568455307,
                30.4508816732
              ],
              [
                30.457152309,
                30.4510203724
              ],
              [
                30.4577596102,
                30.4513724883
              ],
              [
                30.4583708341,
                30.4517195231
              ],
              [
                30.4589859244,
                30.4520614434
              ],
              [
                30.4592953734,
                30.4522298311
              ],
              [
                30.4596048225,
                30.4523982172
              ],
              [
                30.4602274707,
                30.4527298128
              ],
              [
                30.4608538107,
                30.4530562
              ],
              [
                30.4614837836,
                30.453377347
              ],
              [
                30.4621173299,
                30.4536932264
              ],
              [
                30.4627543931,
                30.4540038055
              ],
              [
                30.4633949112,
                30.4543090569
              ],
              [
                30.4640388236,
                30.4546089531
              ],
              [
                30.4646860717,
                30.4549034633
              ],
              [
                30.4653365945,
                30.4551925627
              ],
              [
                30.4659903313,
                30.4554762222
              ],
              [
                30.4666472213,
                30.455754418
              ],
              [
                30.4673072016,
                30.4560271217
              ],
              [
                30.4679702113,
                30.4562943077
              ],
              [
                30.4686361875,
                30.4565559532
              ],
              [
                30.4693050703,
                30.4568120317
              ],
              [
                30.4699767937,
                30.4570625201
              ],
              [
                30.4706512977,
                30.4573073957
              ],
              [
                30.4713285174,
                30.4575466337
              ],
              [
                30.4720083906,
                30.4577802129
              ],
              [
                30.4726908533,
                30.4580081132
              ],
              [
                30.4733758415,
                30.4582303099
              ],
              [
                30.4737195664,
                30.458338548
              ],
              [
                30.4737687495,
                30.4583540353
              ],
              [
                30.474063291,
                30.4584467853
              ],
              [
                30.4745871847,
                30.4586068218
              ],
              [
                30.4747531387,
                30.4586575166
              ],
              [
                30.474950022,
                30.4587158185
              ],
              [
                30.4754453173,
                30.4588624862
              ],
              [
                30.4761397638,
                30.4590616731
              ],
              [
                30.4768364139,
                30.4592550605
              ],
              [
                30.4773781895,
                30.4594004847
              ],
              [
                30.4775352014,
                30.45944263
              ],
              [
                30.4778553143,
                30.4595259511
              ],
              [
                30.478041293,
                30.4595743584
              ],
              [
                30.4783091563,
                30.4596473539
              ],
              [
                30.4785453627,
                30.4597117227
              ],
              [
                30.4790473266,
                30.4598547007
              ],
              [
                30.4795471032,
                30.4600032673
              ],
              [
                30.4797462527,
                30.4600649658
              ],
              [
                30.4800446047,
                30.4601573983
              ],
              [
                30.4805397507,
                30.4603170679
              ],
              [
                30.4810324575,
                30.4604822492
              ],
              [
                30.4815226406,
                30.4606529144
              ],
              [
                30.4820102217,
                30.460829035
              ],
              [
                30.4820729547,
                30.4608525225
              ],
              [
                30.4824951151,
                30.4610105805
              ],
              [
                30.482753536,
                30.4611107813
              ],
              [
                30.4829772416,
                30.4611975223
              ],
              [
                30.4834565207,
                30.4613898274
              ],
              [
                30.4839328711,
                30.4615874645
              ],
              [
                30.4844062147,
                30.4617903996
              ],
              [
                30.484876469,
                30.4619985996
              ],
              [
                30.4851427086,
                30.4621202539
              ],
              [
                30.4853435579,
                30.4622120288
              ],
              [
                30.485373453,
                30.4622261187
              ],
              [
                30.4858074011,
                30.4624306514
              ],
              [
                30.4862679227,
                30.4626544316
              ],
              [
                30.4865448336,
                30.4627930927
              ],
              [
                30.4867250456,
                30.4628833321
              ],
              [
                30.4871200516,
                30.4630870665
              ],
              [
                30.4871786905,
                30.4631173124
              ],
              [
                30.4872876531,
                30.4631751769
              ],
              [
                30.4876287847,
                30.4633563352
              ],
              [
                30.4880752521,
                30.4636003602
              ],
              [
                30.4885180158,
                30.4638493445
              ],
              [
                30.4889570018,
                30.4641032489
              ],
              [
                30.4890966721,
                30.4641863119
              ],
              [
                30.4893921395,
                30.4643620295
              ],
              [
                30.4896904465,
                30.4645443937
              ],
              [
                30.4898233539,
                30.4646256436
              ],
              [
                30.490040014,
                30.464761762
              ],
              [
                30.4902505724,
                30.4648940465
              ],
              [
                30.4906737243,
                30.4651671935
              ],
              [
                30.4909749251,
                30.4653669167
              ],
              [
                30.4910927378,
                30.4654450373
              ],
              [
                30.4913882472,
                30.465646289
              ],
              [
                30.4915075434,
                30.4657275334
              ],
              [
                30.4916599677,
                30.46583413
              ],
              [
                30.4919180715,
                30.4660146334
              ],
              [
                30.4921050248,
                30.4661488746
              ],
              [
                30.4923242526,
                30.4663062893
              ],
              [
                30.4927776899,
                30.4666459747
              ],
              [
                30.4933200134,
                30.4670522468
              ],
              [
                30.5199291818,
                30.4869839532
              ],
              [
                30.5207111047,
                30.4875695936
              ],
              [
                30.5258663889,
                30.4924087724
              ],
              [
                30.5301947022,
                30.4964715022
              ],
              [
                30.5309726494,
                30.497201697
              ],
              [
                30.5310216716,
                30.4972477098
              ],
              [
                30.5310216788,
                30.4972479192
              ],
              [
                30.5312172914,
                30.4974315111
              ],
              [
                30.5312173989,
                30.4974314211
              ],
              [
                30.5323799675,
                30.4985226155
              ],
              [
                30.5335425361,
                30.4996137966
              ],
              [
                30.534791236,
                30.4985862257
              ],
              [
                30.5398026549,
                30.4944621594
              ],
              [
                30.5791235144,
                30.4620976316
              ],
              [
                30.5832316109,
                30.4587156855
              ],
              [
                30.5847992714,
                30.4574250945
              ],
              [
                30.5856485867,
                30.4580614037
              ],
              [
                30.5871428249,
                30.4591808794
              ],
              [
                30.5930321814,
                30.4635930344
              ],
              [
                30.5970290114,
                30.4665872422
              ],
              [
                30.5975066926,
                30.4669450896
              ],
              [
                30.5979177372,
                30.4666099563
              ],
              [
                30.5992560898,
                30.4655187613
              ],
              [
                30.5995028455,
                30.4657090782
              ],
              [
                30.6011078781,
                30.4669470521
              ],
              [
                30.6023565482,
                30.4679101493
              ],
              [
                30.6043973518,
                30.4694840741
              ],
              [
                30.6083450072,
                30.4725285456
              ],
              [
                30.6100556356,
                30.473847686
              ],
              [
                30.6101608233,
                30.4739816446
              ],
              [
                30.6102813615,
                30.4741351534
              ],
              [
                30.6104587825,
                30.4743611054
              ],
              [
                30.6106296962,
                30.4745787674
              ],
              [
                30.6131603755,
                30.4778015275
              ],
              [
                30.6132697247,
                30.4779407755
              ],
              [
                30.6123045821,
                30.4783904337
              ],
              [
                30.6100314085,
                30.4794495371
              ],
              [
                30.6061963327,
                30.4812362053
              ],
              [
                30.60434567,
                30.48209826
              ],
              [
                30.5988117906,
                30.4846757338
              ],
              [
                30.5932775953,
                30.4872529734
              ],
              [
                30.5921780232,
                30.487764991
              ],
              [
                30.5869921993,
                30.490180088
              ],
              [
                30.5877813394,
                30.4914920062
              ],
              [
                30.5887152287,
                30.49304454
              ],
              [
                30.5897214691,
                30.494717327
              ],
              [
                30.5912827859,
                30.4973128207
              ],
              [
                30.5928441021,
                30.4999082454
              ],
              [
                30.5959349746,
                30.4985204275
              ],
              [
                30.5997934762,
                30.4967879119
              ],
              [
                30.6046482092,
                30.4946080328
              ],
              [
                30.6055366905,
                30.49420908
              ],
              [
                30.6056029301,
                30.4941793367
              ],
              [
                30.6106114533,
                30.4919303412
              ],
              [
                30.6115476751,
                30.4915099403
              ],
              [
                30.6127391722,
                30.4909749082
              ],
              [
                30.6139306701,
                30.4904398729
              ],
              [
                30.6139961353,
                30.4906810336
              ],
              [
                30.6140740599,
                30.4909680948
              ],
              [
                30.6145763946,
                30.4928185658
              ],
              [
                30.6166339394,
                30.4939762303
              ],
              [
                30.617127525,
                30.4942539342
              ],
              [
                30.6175674707,
                30.4945014584
              ],
              [
                30.6171400218,
                30.4949716048
              ],
              [
                30.6190530551,
                30.4962759304
              ],
              [
                30.6201413066,
                30.4970178876
              ],
              [
                30.6211358433,
                30.4967256364
              ],
              [
                30.6229361496,
                30.4961965792
              ],
              [
                30.6230339045,
                30.4962902561
              ],
              [
                30.6232557175,
                30.4965028117
              ],
              [
                30.62435529,
                30.4975564869
              ],
              [
                30.6243704906,
                30.4975710519
              ],
              [
                30.6245672216,
                30.4977595677
              ],
              [
                30.6248261242,
                30.4980076554
              ],
              [
                30.6250266457,
                30.4981998008
              ],
              [
                30.6273613002,
                30.5004368622
              ],
              [
                30.6283062773,
                30.5000112195
              ],
              [
                30.6283922795,
                30.4999724821
              ],
              [
                30.6283932143,
                30.499975041
              ],
              [
                30.6293247122,
                30.5025255617
              ],
              [
                30.628060892,
                30.5029236679
              ],
              [
                30.630160388,
                30.5067937646
              ],
              [
                30.6303940536,
                30.5067233102
              ],
              [
                30.6310783389,
                30.5065169813
              ],
              [
                30.6317497716,
                30.5063145255
              ],
              [
                30.6319989854,
                30.5063523771
              ],
              [
                30.6346297144,
                30.5054327198
              ],
              [
                30.6347159529,
                30.5054025715
              ],
              [
                30.6347399731,
                30.5053941742
              ],
              [
                30.6354321837,
                30.5051521745
              ],
              [
                30.6356681292,
                30.5050696863
              ],
              [
                30.6363021857,
                30.5048480133
              ],
              [
                30.6368480062,
                30.5046571839
              ],
              [
                30.6375473195,
                30.5044126901
              ],
              [
                30.6378884068,
                30.5042934375
              ],
              [
                30.6383576563,
                30.5040933215
              ],
              [
                30.6388243097,
                30.5038887458
              ],
              [
                30.6392883088,
                30.5036797346
              ],
              [
                30.6397495968,
                30.503466315
              ],
              [
                30.6402081156,
                30.5032485129
              ],
              [
                30.6406638106,
                30.5030263526
              ],
              [
                30.6411166277,
                30.5027998648
              ],
              [
                30.641566508,
                30.5025690736
              ],
              [
                30.6417810012,
                30.5024753235
              ],
              [
                30.6419926185,
                30.502376844
              ],
              [
                30.6422012228,
                30.5022737012
              ],
              [
                30.6424066751,
                30.5021659639
              ],
              [
                30.6425077566,
                30.5021098328
              ],
              [
                30.6426088381,
                30.5020537017
              ],
              [
                30.6428044648,
                30.5019388196
              ],
              [
                30.6428075787,
                30.5019369907
              ],
              [
                30.6430027629,
                30.501815908
              ],
              [
                30.6431942646,
                30.5016905332
              ],
              [
                30.6433128794,
                30.5015413642
              ],
              [
                30.6434363477,
                30.5013951485
              ],
              [
                30.6435645728,
                30.5012520035
              ],
              [
                30.6436974499,
                30.5011120446
              ],
              [
                30.6438348732,
                30.5009753834
              ],
              [
                30.6438646202,
                30.5009474401
              ],
              [
                30.6439767316,
                30.5008421289
              ],
              [
                30.6441229143,
                30.5007123882
              ],
              [
                30.6442733,
                30.5005862665
              ],
              [
                30.6444277717,
                30.5004638644
              ],
              [
                30.6445862031,
                30.5003452798
              ],
              [
                30.644675676,
                30.5002513959
              ],
              [
                30.6447701183,
                30.5001611954
              ],
              [
                30.6448693262,
                30.5000748776
              ],
              [
                30.6449730848,
                30.4999926271
              ],
              [
                30.645081169,
                30.4999146229
              ],
              [
                30.6451793197,
                30.4998502328
              ],
              [
                30.6451933456,
                30.4998410313
              ],
              [
                30.6452985303,
                30.4997804133
              ],
              [
                30.6454071278,
                30.49972444
              ],
              [
                30.6455188619,
                30.4996732544
              ],
              [
                30.6456334483,
                30.4996269867
              ],
              [
                30.6457505944,
                30.4995857541
              ],
              [
                30.6458700051,
                30.4995496624
              ],
              [
                30.645991376,
                30.4995188025
              ],
              [
                30.6461143961,
                30.4994932519
              ],
              [
                30.6462387553,
                30.4994730779
              ],
              [
                30.646471454,
                30.4994028034
              ],
              [
                30.6467022063,
                30.4993279155
              ],
              [
                30.6469308881,
                30.4992484518
              ],
              [
                30.6471573778,
                30.4991644568
              ],
              [
                30.6472729556,
                30.4991500649
              ],
              [
                30.6473875878,
                30.4991308588
              ],
              [
                30.6475010026,
                30.4991068859
              ],
              [
                30.6476129359,
                30.4990782003
              ],
              [
                30.6477231216,
                30.4990448709
              ],
              [
                30.6478313016,
                30.4990069762
              ],
              [
                30.6479372216,
                30.4989646054
              ],
              [
                30.6480292816,
                30.4989199683
              ],
              [
                30.6481245329,
                30.4988806168
              ],
              [
                30.6482225685,
                30.4988467205
              ],
              [
                30.6483229683,
                30.4988184222
              ],
              [
                30.6484253011,
                30.4987958442
              ],
              [
                30.6485291292,
                30.4987790841
              ],
              [
                30.6486340072,
                30.4987682124
              ],
              [
                30.6487394861,
                30.4987632776
              ],
              [
                30.6488451144,
                30.4987642988
              ],
              [
                30.648950439,
                30.4987712723
              ],
              [
                30.649000441,
                30.4987774387
              ],
              [
                30.6490550076,
                30.4987841682
              ],
              [
                30.6492225556,
                30.498760136
              ],
              [
                30.6493910942,
                30.4987419485
              ],
              [
                30.6495603466,
                30.4987296376
              ],
              [
                30.6497300373,
                30.4987232238
              ],
              [
                30.6498998911,
                30.4987227146
              ],
              [
                30.65006963,
                30.4987281131
              ],
              [
                30.6502389781,
                30.49873941
              ],
              [
                30.6504076577,
                30.4987565883
              ],
              [
                30.6505753966,
                30.498779619
              ],
              [
                30.6507419189,
                30.4988084617
              ],
              [
                30.6508693944,
                30.4988351958
              ],
              [
                30.6509069556,
                30.498843073
              ],
              [
                30.6510702365,
                30.4988833956
              ],
              [
                30.6512314954,
                30.4989293633
              ],
              [
                30.6513904684,
                30.498980903
              ],
              [
                30.6515468994,
                30.4990379269
              ],
              [
                30.651683706,
                30.49909351
              ],
              [
                30.6517005311,
                30.4991003457
              ],
              [
                30.6518531849,
                30.4991212005
              ],
              [
                30.6520047878,
                30.4991471281
              ],
              [
                30.6521551134,
                30.4991780901
              ],
              [
                30.652303936,
                30.499214041
              ],
              [
                30.6524510329,
                30.4992549254
              ],
              [
                30.6525961836,
                30.4993006833
              ],
              [
                30.6527391712,
                30.4993512451
              ],
              [
                30.6528797818,
                30.4994065366
              ],
              [
                30.6529487928,
                30.4994365055
              ],
              [
                30.6530178028,
                30.4994664735
              ],
              [
                30.652518884,
                30.499995302
              ],
              [
                30.6560540454,
                30.5024961238
              ],
              [
                30.6565603771,
                30.5028543051
              ],
              [
                30.6604436917,
                30.5052080146
              ],
              [
                30.6616378599,
                30.5059317982
              ],
              [
                30.6646865169,
                30.5077795613
              ],
              [
                30.6659477607,
                30.5066022447
              ],
              [
                30.6672090042,
                30.5054249129
              ],
              [
                30.6672589125,
                30.5055589159
              ],
              [
                30.6676762445,
                30.5066794397
              ],
              [
                30.6677988045,
                30.5070085038
              ],
              [
                30.6693323954,
                30.5111259442
              ],
              [
                30.6694098109,
                30.5113337841
              ],
              [
                30.6695259903,
                30.5116871135
              ],
              [
                30.6698476273,
                30.5126652752
              ],
              [
                30.670805765,
                30.5131731262
              ],
              [
                30.6700666392,
                30.5144043044
              ],
              [
                30.6695193986,
                30.5158173379
              ],
              [
                30.6695881967,
                30.515880547
              ],
              [
                30.672359461,
                30.5177586893
              ],
              [
                30.6720295961,
                30.5181235394
              ],
              [
                30.6727924194,
                30.5188243406
              ],
              [
                30.6728004147,
                30.5188316852
              ],
              [
                30.6728393504,
                30.5188674526
              ],
              [
                30.672878285,
                30.51890322
              ],
              [
                30.6756151516,
                30.521417335
              ],
              [
                30.6789658461,
                30.5244952345
              ],
              [
                30.6792555893,
                30.52476138
              ],
              [
                30.6795453299,
                30.5250275248
              ],
              [
                30.6797693392,
                30.5252332933
              ],
              [
                30.6800384695,
                30.5254793687
              ],
              [
                30.680715136,
                30.526098065
              ],
              [
                30.6813853592,
                30.5265811487
              ],
              [
                30.6822853908,
                30.5272298691
              ],
              [
                30.6841404765,
                30.5285669578
              ],
              [
                30.6850315158,
                30.5292091825
              ],
              [
                30.6852060026,
                30.5293349467
              ],
              [
                30.6897734351,
                30.5326269023
              ],
              [
                30.6919711208,
                30.5342108344
              ],
              [
                30.6938115093,
                30.5326185464
              ],
              [
                30.695696303,
                30.5342508675
              ],
              [
                30.6964019997,
                30.5348620275
              ],
              [
                30.6972457863,
                30.535592773
              ],
              [
                30.6987503737,
                30.5342908851
              ],
              [
                30.7002118389,
                30.5330262932
              ]
            ]
          ]
        ]
      }
    }
  ]
}
