{
  "type": "FeatureCollection",
  "features": [
    {
      "type": "Feature",
      "properties": {
        "slug": "kalabsha-axis",
        "name": "محور كلابشة"
      },
      "geometry": {
        "type": "Polygon",
        "coordinates": [
          [
            [
              32.718042,
              24.664988
            ],
            [
              32.966,
              24.664988
            ],
            [
              32.966,
              24.484617
            ],
            [
              32.718042,
              24.484617
            ],
            [
              32.718042,
              24.664988
            ]
          ]
        ]
      }
    }
  ]
}