{"type":"FeatureCollection","features":[{"type":"Feature","properties":{"source_layer":"Water_Containment","source_feature_count":1,"TYPE":0,"Governorate_ID":null,"Water_Way_Name":"نهر النيل","اسم_المحور":"محور كلبشة","اسم_المحافظة":"محافظة أسوان","GlobalID":"{D55E4528-F2D0-4222-B20D-3ECA53C9C3A8}","SHAPE_Length":0.535731490181635,"SHAPE_Area":-0.0011152946225357217},"geometry":{"type":"Polygon","coordinates":[[[32.908585,24.553618],[32.928208,24.671463],[32.86945,24.493589],[32.908585,24.553618]],[[32.904068,24.569188],[32.907668,24.554728],[32.903535,24.54926],[32.904068,24.569188]],[[32.885681,24.537531],[32.886456,24.530248],[32.883163,24.531636],[32.885681,24.537531]]]}}]}