{"type":"FeatureCollection","name":"Agricultural_Changes_cairo_suez","xy_coordinate_resolution":8.98315e-10,"z_coordinate_resolution":0.0001,"features":[{"type":"Feature","properties":{"سعر_الايجار_زراعية_2024":null,"نوع_ملكية_الأرض":null,"أنواع_المحاصيل_المزروعة":null,"اسم_المحور":"2","المساحة_كم2":null,"نسبة_المساحة":null,"المساحة_فدان":null,"فرق_السعر":null,"اسم_القطاع":"10","وصف_الاستخدام":null,"Shape_Length":9688.01945418228,"Shape_Area":2416792.020908791},"geometry":{"type":"Polygon","coordinates":[[[32.4850059268,30.0466841729],[32.4854608422,30.0490906011],[32.4846650002,30.0492095713],[32.485098963,30.0512256919],[32.4834831122,30.0516059618],[32.4825231942,30.0472884783],[32.4795045921,30.0478242321],[32.4782760971,30.036275394],[32.4783170508,30.0284561861],[32.496370949,30.029871198],[32.4961746055,30.0320221738],[32.4970879059,30.0320574619],[32.4969947325,30.0347087468],[32.4902064807,30.0344154793],[32.4903383247,30.0388991853],[32.4856875273,30.0391668907],[32.4858603825,30.0410751655],[32.4899913448,30.040708894],[32.4904303507,30.0431328158],[32.4858839562,30.0435869294],[32.485986033,30.0450498201],[32.483499616,30.0453262199],[32.4837106314,30.0469167125],[32.4850059268,30.0466841729]]]}},{"type":"Feature","properties":{"سعر_الايجار_زراعية_2024":null,"نوع_ملكية_الأرض":null,"أنواع_المحاصيل_المزروعة":null,"اسم_المحور":"2","المساحة_كم2":null,"نسبة_المساحة":null,"المساحة_فدان":null,"فرق_السعر":null,"اسم_القطاع":"10","وصف_الاستخدام":null,"Shape_Length":2584.2846431029357,"Shape_Area":300307.2921859106},"geometry":{"type":"Polygon","coordinates":[[[32.5062233023,30.0614055219],[32.5102617786,30.0613813479],[32.510407893,30.0696722697],[32.5085425688,30.0694557925],[32.5084458163,30.0673419766],[32.5063732228,30.0673652938],[32.5062233023,30.0614055219]]]}},{"type":"Feature","properties":{"سعر_الايجار_زراعية_2024":null,"نوع_ملكية_الأرض":null,"أنواع_المحاصيل_المزروعة":null,"اسم_المحور":"2","المساحة_كم2":null,"نسبة_المساحة":null,"المساحة_فدان":null,"فرق_السعر":null,"اسم_القطاع":"10","وصف_الاستخدام":null,"Shape_Length":1264.248608274584,"Shape_Area":74815.18856319679},"geometry":{"type":"Polygon","coordinates":[[[32.5057429586,30.06142589],[32.5041570634,30.0614931257],[32.5039211619,30.0571988724],[32.5056054827,30.0571645203],[32.5057429586,30.06142589]]]}},{"type":"Feature","properties":{"سعر_الايجار_زراعية_2024":null,"نوع_ملكية_الأرض":null,"أنواع_المحاصيل_المزروعة":null,"اسم_المحور":"2","المساحة_كم2":null,"نسبة_المساحة":null,"المساحة_فدان":null,"فرق_السعر":null,"اسم_القطاع":"10","وصف_الاستخدام":null,"Shape_Length":734.2700683237674,"Shape_Area":31202.629471127682},"geometry":{"type":"Polygon","coordinates":[[[32.5077725551,30.0530463569],[32.5078331091,30.0551627242],[32.506434142,30.0551532107],[32.5063977567,30.0530572593],[32.5077725551,30.0530463569]]]}},{"type":"Feature","properties":{"سعر_الايجار_زراعية_2024":null,"نوع_ملكية_الأرض":null,"أنواع_المحاصيل_المزروعة":null,"اسم_المحور":"2","المساحة_كم2":null,"نسبة_المساحة":null,"المساحة_فدان":null,"فرق_السعر":null,"اسم_القطاع":"10","وصف_الاستخدام":null,"Shape_Length":898.4633451480577,"Shape_Area":37984.88763180323},"geometry":{"type":"Polygon","coordinates":[[[32.5077242023,30.0513563794],[32.5068271368,30.0513700096],[32.506854559,30.0505562034],[32.5062229559,30.0505741808],[32.5061857677,30.0486410075],[32.5076452665,30.0485975834],[32.5077242023,30.0513563794]]]}},{"type":"Feature","properties":{"سعر_الايجار_زراعية_2024":null,"نوع_ملكية_الأرض":null,"أنواع_المحاصيل_المزروعة":null,"اسم_المحور":"2","المساحة_كم2":null,"نسبة_المساحة":null,"المساحة_فدان":null,"فرق_السعر":null,"اسم_القطاع":"10","وصف_الاستخدام":null,"Shape_Length":11071.729907116885,"Shape_Area":2972339.622628188},"geometry":{"type":"Polygon","coordinates":[[[32.5037040291,30.0524917192],[32.5019896849,30.0528689564],[32.5023535355,30.0605007216],[32.5040943909,30.0603522936],[32.5041097256,30.0674700774],[32.5028680392,30.0679860118],[32.5025837852,30.0656203055],[32.4988493967,30.0662866818],[32.4981776618,30.0623288594],[32.4923606085,30.0634192921],[32.4928614483,30.0655513709],[32.4905554987,30.0661783203],[32.4891535222,30.0615946578],[32.491385139,30.0611899966],[32.4911387257,30.0593450356],[32.4855056702,30.0602133261],[32.4861159956,30.0623458587],[32.4830070727,30.0628483422],[32.4817602583,30.0579743092],[32.4890116507,30.0509652258],[32.4953760339,30.0460636191],[32.5039356128,30.046948845],[32.5038887047,30.0480716298],[32.4990133894,30.0487881097],[32.4993322166,30.0507923024],[32.5038077328,30.0500097047],[32.5037040291,30.0524917192]]]}},{"type":"Feature","properties":{"سعر_الايجار_زراعية_2024":null,"نوع_ملكية_الأرض":null,"أنواع_المحاصيل_المزروعة":null,"اسم_المحور":"2","المساحة_كم2":null,"نسبة_المساحة":null,"المساحة_فدان":null,"فرق_السعر":null,"اسم_القطاع":"10","وصف_الاستخدام":null,"Shape_Length":3098.05661273361,"Shape_Area":310722.2217680664},"geometry":{"type":"Polygon","coordinates":[[[32.4979358829,30.0299937344],[32.507071375,30.0307086786],[32.505997451,30.0341895816],[32.5024703548,30.0343930535],[32.5029327887,30.0323340215],[32.5000837389,30.0321324662],[32.5001507434,30.0345268164],[32.4982596071,30.0346358417],[32.4979358829,30.0299937344]]]}},{"type":"Feature","properties":{"سعر_الايجار_زراعية_2024":null,"نوع_ملكية_الأرض":null,"أنواع_المحاصيل_المزروعة":null,"اسم_المحور":"2","المساحة_كم2":null,"نسبة_المساحة":null,"المساحة_فدان":null,"فرق_السعر":null,"اسم_القطاع":"10","وصف_الاستخدام":null,"Shape_Length":4579.211757594855,"Shape_Area":466459.91032233107},"geometry":{"type":"Polygon","coordinates":[[[32.4791084234,30.0441001763],[32.475742729,30.0441072575],[32.4762026771,30.0291781561],[32.4739739056,30.0291692644],[32.4736526288,30.0277372787],[32.4780344766,30.0279453276],[32.4783170519,30.0284561889],[32.4782760971,30.036275394],[32.4791084234,30.0441001763]]]}},{"type":"Feature","properties":{"سعر_الايجار_زراعية_2024":null,"نوع_ملكية_الأرض":null,"أنواع_المحاصيل_المزروعة":null,"اسم_المحور":"2","المساحة_كم2":null,"نسبة_المساحة":null,"المساحة_فدان":null,"فرق_السعر":null,"اسم_القطاع":"10","وصف_الاستخدام":null,"Shape_Length":2526.3513415664056,"Shape_Area":236229.45597580014},"geometry":{"type":"Polygon","coordinates":[[[32.4843765279,30.0687819214],[32.4875471853,30.0683285663],[32.4883998949,30.0731008639],[32.4877048886,30.0731935363],[32.4887467953,30.0767266335],[32.4875757315,30.0769764187],[32.4872550995,30.0753537174],[32.4857843155,30.0755914241],[32.4843765279,30.0687819214]]]}},{"type":"Feature","properties":{"سعر_الايجار_زراعية_2024":null,"نوع_ملكية_الأرض":null,"أنواع_المحاصيل_المزروعة":null,"اسم_المحور":"2","المساحة_كم2":null,"نسبة_المساحة":null,"المساحة_فدان":null,"فرق_السعر":null,"اسم_القطاع":"10","وصف_الاستخدام":null,"Shape_Length":1161.3498480258456,"Shape_Area":61709.539151177545},"geometry":{"type":"Polygon","coordinates":[[[32.4860476781,30.0768652186],[32.481470409,30.077079649],[32.4812575486,30.0758388765],[32.4857843186,30.0755914241],[32.4860476781,30.0768652186]]]}},{"type":"Feature","properties":{"سعر_الايجار_زراعية_2024":null,"نوع_ملكية_الأرض":null,"أنواع_المحاصيل_المزروعة":null,"اسم_المحور":"2","المساحة_كم2":null,"نسبة_المساحة":null,"المساحة_فدان":null,"فرق_السعر":null,"اسم_القطاع":"10","وصف_الاستخدام":null,"Shape_Length":2363.808686711919,"Shape_Area":185372.57171559866},"geometry":{"type":"Polygon","coordinates":[[[32.490012325,30.0838686958],[32.4885539625,30.0857869251],[32.4847665868,30.0829425451],[32.4842271392,30.0812236012],[32.4816304736,30.0814359381],[32.4812703832,30.0803853444],[32.4867878604,30.0804450312],[32.4871179629,30.0820414762],[32.490012325,30.0838686958]]]}},{"type":"Feature","properties":{"سعر_الايجار_زراعية_2024":null,"نوع_ملكية_الأرض":null,"أنواع_المحاصيل_المزروعة":null,"اسم_المحور":"2","المساحة_كم2":null,"نسبة_المساحة":null,"المساحة_فدان":null,"فرق_السعر":null,"اسم_القطاع":"10","وصف_الاستخدام":null,"Shape_Length":1121.4969771952294,"Shape_Area":39899.82117670259},"geometry":{"type":"Polygon","coordinates":[[[32.4912130125,30.0846266506],[32.4924137142,30.0853846],[32.488410523,30.088168378],[32.4883957813,30.0878236109],[32.4912130125,30.0846266506]]]}},{"type":"Feature","properties":{"سعر_الايجار_زراعية_2024":null,"نوع_ملكية_الأرض":null,"أنواع_المحاصيل_المزروعة":null,"اسم_المحور":"2","المساحة_كم2":null,"نسبة_المساحة":null,"المساحة_فدان":null,"فرق_السعر":null,"اسم_القطاع":"10","وصف_الاستخدام":null,"Shape_Length":1725.421964776776,"Shape_Area":98109.50487452347},"geometry":{"type":"Polygon","coordinates":[[[32.4880693362,30.0826420987],[32.4908865978,30.0800414259],[32.4899416871,30.0789567958],[32.491225527,30.0781033569],[32.4932221317,30.0808452805],[32.4916812391,30.0819202969],[32.4910625426,30.081377419],[32.4889171431,30.0831773194],[32.4880693362,30.0826420987]]]}},{"type":"Feature","properties":{"سعر_الايجار_زراعية_2024":null,"نوع_ملكية_الأرض":null,"أنواع_المحاصيل_المزروعة":null,"اسم_المحور":"2","المساحة_كم2":null,"نسبة_المساحة":null,"المساحة_فدان":null,"فرق_السعر":null,"اسم_القطاع":"10","وصف_الاستخدام":null,"Shape_Length":1624.6529952572089,"Shape_Area":91142.67381906179},"geometry":{"type":"Polygon","coordinates":[[[32.4883957844,30.0878236127],[32.488410523,30.088168378],[32.4830378721,30.091662065],[32.4824991121,30.0913035603],[32.4851364058,30.0880973758],[32.4857931306,30.0885166661],[32.4870886081,30.0870371684],[32.4883957844,30.0878236127]]]}},{"type":"Feature","properties":{"سعر_الايجار_زراعية_2024":null,"نوع_ملكية_الأرض":null,"أنواع_المحاصيل_المزروعة":null,"اسم_المحور":"2","المساحة_كم2":null,"نسبة_المساحة":null,"المساحة_فدان":null,"فرق_السعر":null,"اسم_القطاع":"10","وصف_الاستخدام":null,"Shape_Length":1004.9078242687131,"Shape_Area":49289.572627325484},"geometry":{"type":"Polygon","coordinates":[[[31.6369170968,30.1783889991],[31.6369004112,30.176904081],[31.6409111162,30.176805959],[31.638904307,30.1784097397],[31.6369170968,30.1783889991]]]}}]}
