{"type":"FeatureCollection","features":[{"type":"Feature","properties":{"landuse_value":2,"landuse_code":2,"landuse_label":null,"source_feature_count":75,"area_km2":16448976.835123,"sector":"10"},"geometry":{"type":"MultiPolygon","coordinates":[[[[31.798178,30.169338],[31.868047,30.165092],[31.917033,30.161991],[31.956086,30.158749],[31.967728,30.158159],[32.00354,30.150938],[32.066614,30.138559],[32.100952,30.139443],[32.1599,30.143422],[32.174195,30.143717],[32.192617,30.147549],[32.198705,30.149737],[32.196581,30.127585],[32.194412,30.114984],[32.193913,30.106466],[32.194371,30.10252],[32.212518,30.083002],[32.211651,30.082543],[32.210485,30.081681],[32.204756,30.075972],[32.203486,30.075001],[32.196343,30.070739],[32.194388,30.069953],[32.177219,30.065689],[32.172099,30.064661],[32.169053,30.064247],[32.159862,30.063909],[32.156222,30.06389],[32.139894,30.063404],[32.132121,30.063354],[32.102018,30.064849],[32.089371,30.065736],[32.086812,30.066083],[32.078969,30.067636],[32.050432,30.075424],[32.046682,30.076138],[32.04139,30.076953],[32.020214,30.079181],[32.014902,30.079848],[32.005503,30.081301],[31.988253,30.083209],[31.962073,30.087338],[31.953326,30.087928],[31.951342,30.087792],[31.944845,30.086751],[31.943061,30.086657],[31.887607,30.089141],[31.882471,30.089768],[31.862017,30.093275],[31.858121,30.093737],[31.850136,30.095439],[31.847709,30.095791],[31.841439,30.096358],[31.836594,30.096599],[31.829695,30.097159],[31.801572,30.099883],[31.805619,30.135649],[31.805756,30.139085],[31.805242,30.14483],[31.804134,30.152076],[31.802739,30.157273],[31.801287,30.159807],[31.799395,30.162028],[31.796117,30.164969],[31.792093,30.167132],[31.787682,30.168288],[31.777558,30.169861],[31.798178,30.169338]],[[31.808614,30.166802],[31.807635,30.166806],[31.806677,30.166627],[31.805249,30.165949],[31.804568,30.165072],[31.804218,30.163632],[31.804306,30.16293],[31.804686,30.162108],[31.80718,30.158649],[31.808682,30.155937],[31.809739,30.152705],[31.810077,30.150425],[31.810799,30.142082],[31.810856,30.139627],[31.810469,30.134196],[31.812052,30.134137],[31.811845,30.130206],[31.811523,30.128778],[31.811379,30.126616],[31.809542,30.126698],[31.808434,30.120851],[31.811052,30.120199],[31.810651,30.119708],[31.81007,30.119914],[31.808542,30.120041],[31.80839,30.118219],[31.809977,30.118032],[31.81014,30.118939],[31.813441,30.116686],[31.812974,30.116058],[31.812032,30.116452],[31.81175,30.115856],[31.811994,30.115757],[31.8116,30.114889],[31.814454,30.114251],[31.81476,30.114726],[31.81541,30.114591],[31.816537,30.115759],[31.818531,30.114154],[31.819051,30.113858],[31.819593,30.113593],[31.820154,30.11336],[31.820733,30.113161],[31.821325,30.112997],[31.821929,30.112868],[31.822542,30.112775],[31.82316,30.112718],[31.823782,30.112698],[31.824403,30.112714],[31.825022,30.112767],[31.825636,30.112856],[31.826241,30.112981],[31.828624,30.113717],[31.829204,30.113959],[31.829764,30.114234],[31.830302,30.11454],[31.830815,30.114878],[31.831301,30.115244],[31.831758,30.115637],[31.832185,30.116056],[31.832578,30.116499],[31.832936,30.116963],[31.833258,30.117447],[31.833542,30.117949],[31.833787,30.118466],[31.833992,30.118996],[31.834156,30.119537],[31.834278,30.120086],[31.834358,30.120641],[31.834396,30.121199],[31.83439,30.121758],[31.834342,30.122316],[31.834251,30.12287],[31.834118,30.123417],[31.833093,30.125896],[31.831206,30.12868],[31.830249,30.131204],[31.828539,30.134028],[31.82742,30.135323],[31.825951,30.136346],[31.822398,30.138117],[31.820924,30.139562],[31.817658,30.143178],[31.816354,30.145162],[31.815888,30.147268],[31.813635,30.147324],[31.8133,30.153192],[31.819743,30.153414],[31.820526,30.153654],[31.823302,30.15497],[31.825525,30.156251],[31.825911,30.156621],[31.826449,30.157646],[31.826678,30.158577],[31.826724,30.159139],[31.826589,30.159821],[31.825923,30.161095],[31.823632,30.160614],[31.823312,30.161532],[31.821969,30.163054],[31.822882,30.16429],[31.820147,30.165488],[31.808614,30.166802]],[[31.900941,30.120717],[31.894141,30.120564],[31.891367,30.120096],[31.889533,30.120589],[31.8884,30.120548],[31.889236,30.117725],[31.890167,30.116271],[31.891427,30.114692],[31.893539,30.115536],[31.897513,30.116555],[31.900581,30.116931],[31.905845,30.117102],[31.906646,30.120733],[31.903691,30.123347],[31.902278,30.122222],[31.900941,30.120717]],[[31.927323,30.11588],[31.923407,30.112828],[31.92236,30.111611],[31.921896,30.11059],[31.921808,30.108555],[31.921893,30.104137],[31.929544,30.103277],[31.929806,30.106109],[31.931899,30.112039],[31.929216,30.113321],[31.929576,30.1138],[31.927323,30.11588]],[[31.966142,30.105628],[31.963953,30.101773],[31.965322,30.101206],[31.960604,30.091403],[31.970129,30.087709],[31.971177,30.089614],[31.968031,30.090485],[31.970355,30.09439],[31.974211,30.092898],[31.976008,30.096785],[31.9729,30.098071],[31.973286,30.098784],[31.974736,30.098269],[31.975172,30.099086],[31.973745,30.099632],[31.974979,30.101913],[31.966142,30.105628]],[[31.993043,30.087906],[31.995115,30.087755],[31.995302,30.090928],[31.992119,30.091166],[31.99224,30.09237],[31.989343,30.092629],[31.988959,30.09],[31.990264,30.089843],[31.990233,30.08906],[31.993101,30.088798],[31.993043,30.087906]],[[31.812633,30.100603],[31.812911,30.10361],[31.805238,30.10425],[31.804864,30.101461],[31.812633,30.100603]],[[31.813264,30.101102],[31.817363,30.100758],[31.818203,30.106996],[31.813957,30.107403],[31.813264,30.101102]],[[31.81003,30.104645],[31.810461,30.108967],[31.805891,30.109433],[31.80532,30.10511],[31.81003,30.104645]],[[31.819717,30.109815],[31.822005,30.109335],[31.822476,30.111271],[31.820067,30.111517],[31.819717,30.109815]],[[31.818416,30.110233],[31.818827,30.112025],[31.816889,30.112327],[31.816602,30.110556],[31.818416,30.110233]],[[31.811981,30.111695],[31.812373,30.113361],[31.809877,30.113911],[31.80963,30.112246],[31.811981,30.111695]],[[31.86224,30.116061],[31.862562,30.112503],[31.861532,30.112535],[31.861522,30.111355],[31.867919,30.110637],[31.86791,30.111451],[31.870627,30.111251],[31.870584,30.112898],[31.867918,30.112794],[31.86762,30.116332],[31.86224,30.116061]],[[31.882101,30.114767],[31.884766,30.110863],[31.886646,30.112242],[31.888204,30.113069],[31.884023,30.116533],[31.883075,30.117583],[31.882218,30.118857],[31.878777,30.116895],[31.880407,30.115566],[31.882101,30.114767]],[[31.858357,30.114856],[31.85736,30.114889],[31.85739,30.113923],[31.858426,30.113923],[31.858357,30.114856]]],[[[31.861815,30.092262],[31.885103,30.088341],[31.887527,30.088115],[31.943021,30.085629],[31.945031,30.085736],[31.951539,30.086777],[31.953361,30.086899],[31.96194,30.086316],[31.988071,30.082193],[32.005342,30.080282],[32.014702,30.078834],[32.020048,30.078163],[32.041232,30.075934],[32.046459,30.075128],[32.050105,30.074436],[32.078632,30.06665],[32.080678,30.066202],[32.086576,30.065075],[32.08921,30.064717],[32.09677,30.064172],[32.093725,30.032391],[32.092947,30.022124],[32.092463,30.017925],[32.093608,30.013384],[32.096712,30.004105],[32.096842,30.001377],[32.080221,30.002599],[32.071382,30.003789],[32.063106,30.005477],[32.059341,30.006363],[32.033751,30.013225],[32.030592,30.013924],[31.976815,30.02033],[31.972864,30.020884],[31.955861,30.023685],[31.955315,30.023745],[31.950941,30.023367],[31.946717,30.023174],[31.943133,30.023094],[31.938903,30.023168],[31.881849,30.025661],[31.873493,30.026396],[31.868806,30.027063],[31.849195,30.030682],[31.842337,30.031753],[31.844513,30.045222],[31.844154,30.046456],[31.844861,30.048638],[31.850046,30.047746],[31.849752,30.054533],[31.852082,30.054328],[31.854103,30.069838],[31.840929,30.07156],[31.842969,30.077917],[31.836134,30.07962],[31.838965,30.088347],[31.837115,30.088772],[31.827397,30.056384],[31.835169,30.054285],[31.829053,30.033184],[31.822929,30.033651],[31.793276,30.03662],[31.779491,30.037874],[31.786134,30.059368],[31.786479,30.061024],[31.786462,30.062391],[31.784871,30.06705],[31.779272,30.064614],[31.780244,30.062842],[31.780406,30.061572],[31.775874,30.046684],[31.775337,30.045821],[31.774176,30.045111],[31.771559,30.044037],[31.772229,30.043026],[31.77092,30.042503],[31.770372,30.043291],[31.766995,30.042161],[31.768402,30.039334],[31.761824,30.039518],[31.760798,30.041313],[31.759321,30.04276],[31.757505,30.04375],[31.755718,30.044184],[31.753879,30.044171],[31.751885,30.043623],[31.750116,30.042552],[31.748841,30.041226],[31.73872,30.044748],[31.737875,30.044386],[31.725848,30.044265],[31.7282,30.047818],[31.73008,30.049958],[31.732051,30.051907],[31.736706,30.055657],[31.739304,30.057225],[31.744549,30.059977],[31.750634,30.06293],[31.758614,30.067019],[31.768407,30.071626],[31.775373,30.075203],[31.781241,30.077998],[31.786356,30.08067],[31.789401,30.082049],[31.79315,30.083936],[31.79592,30.086084],[31.79824,30.088691],[31.800286,30.09199],[31.800963,30.094736],[31.801452,30.09886],[31.829575,30.096136],[31.836506,30.095573],[31.841335,30.095334],[31.847543,30.094773],[31.849882,30.094434],[31.85789,30.092729],[31.861815,30.092262]],[[31.779046,30.060126],[31.779393,30.060061],[31.779755,30.061939],[31.777179,30.062448],[31.776804,30.062333],[31.776514,30.06098],[31.779091,30.060471],[31.779046,30.060126]],[[31.776581,30.058822],[31.776908,30.057939],[31.775431,30.058278],[31.774888,30.056622],[31.775453,30.056438],[31.775301,30.055964],[31.77666,30.055589],[31.776499,30.055029],[31.775973,30.055144],[31.775061,30.052161],[31.775368,30.052086],[31.775165,30.051312],[31.776053,30.051069],[31.776775,30.053432],[31.776988,30.054629],[31.777414,30.054539],[31.777825,30.055669],[31.778162,30.055603],[31.778529,30.057112],[31.778281,30.05717],[31.778505,30.059072],[31.776572,30.059484],[31.776581,30.058822]],[[31.75116,30.049305],[31.750576,30.04928],[31.750486,30.04744],[31.749149,30.047378],[31.74868,30.047119],[31.748689,30.045505],[31.748306,30.045501],[31.74828,30.044904],[31.749721,30.04481],[31.749712,30.045466],[31.751231,30.045441],[31.75116,30.049305]],[[31.773224,30.048853],[31.773803,30.048837],[31.773805,30.049276],[31.773587,30.049279],[31.77359,30.049011],[31.773226,30.049004],[31.773224,30.048853]],[[31.775051,30.048542],[31.775037,30.048168],[31.773903,30.048311],[31.773789,30.047765],[31.77365,30.04777],[31.773612,30.047318],[31.7746,30.047173],[31.774465,30.04682],[31.774688,30.04675],[31.774191,30.046008],[31.774522,30.045802],[31.775053,30.046352],[31.77571,30.047453],[31.775907,30.048457],[31.775215,30.048615],[31.775051,30.048542]],[[31.773098,30.045621],[31.77301,30.045807],[31.772517,30.045651],[31.772725,30.045259],[31.773604,30.045591],[31.773492,30.04577],[31.773098,30.045621]],[[31.771566,30.045446],[31.770925,30.046128],[31.770376,30.045762],[31.771026,30.045106],[31.771566,30.045446]],[[31.7705,30.044456],[31.769739,30.045257],[31.768818,30.044638],[31.769489,30.043888],[31.7705,30.044456]],[[31.745727,30.044048],[31.742607,30.04531],[31.741868,30.044148],[31.745246,30.042918],[31.745727,30.044048]],[[31.740775,30.045239],[31.741236,30.045757],[31.740854,30.045983],[31.740434,30.045418],[31.740775,30.045239]],[[31.754264,30.046595],[31.754392,30.047839],[31.754281,30.047945],[31.752864,30.047971],[31.752824,30.04664],[31.754264,30.046595]],[[32.055096,30.071146],[32.057321,30.070466],[32.057743,30.071742],[32.05545,30.072362],[32.055096,30.071146]],[[32.094492,30.056958],[32.09437,30.056149],[32.095262,30.056047],[32.095408,30.056923],[32.094492,30.056958]]],[[[32.486256,30.017352],[32.476685,30.02057],[32.470576,30.022416],[32.466496,30.024978],[32.462274,30.03229],[32.460271,30.034922],[32.462706,30.033375],[32.465883,30.031131],[32.472878,30.026667],[32.486256,30.017352]]],[[[32.463983,30.029267],[32.458613,30.025529],[32.452938,30.031949],[32.451256,30.033625],[32.450307,30.034369],[32.442129,30.039894],[32.445423,30.038915],[32.456167,30.036806],[32.458885,30.035803],[32.460271,30.034922],[32.462274,30.03229],[32.463983,30.029267]]],[[[32.473518,29.968841],[32.46982,29.969182],[32.469603,29.966933],[32.464735,29.967451],[32.46441,29.964147],[32.461027,29.964492],[32.46094,29.963576],[32.464095,29.963231],[32.463938,29.962594],[32.458018,29.963246],[32.457534,29.959763],[32.472189,29.958248],[32.471147,29.950609],[32.464159,29.951217],[32.463877,29.948431],[32.460586,29.948755],[32.460234,29.946228],[32.458932,29.946382],[32.457411,29.940468],[32.458668,29.940314],[32.458416,29.938778],[32.454013,29.93879],[32.450701,29.939534],[32.44785,29.940736],[32.444716,29.941663],[32.442853,29.947301],[32.441587,29.948876],[32.447938,29.956356],[32.462298,29.974007],[32.462697,29.975323],[32.462629,29.977193],[32.459371,29.982653],[32.466423,29.979952],[32.472682,29.976839],[32.474406,29.976262],[32.473518,29.968841]]],[[[32.467203,30.015135],[32.476933,30.007741],[32.47504,30.006062],[32.471382,30.010109],[32.465646,30.006826],[32.470297,30.00146],[32.471873,30.002298],[32.472398,30.000104],[32.470961,29.999501],[32.472896,29.996625],[32.477161,29.996168],[32.474406,29.976262],[32.472682,29.976839],[32.466423,29.979952],[32.459371,29.982653],[32.452967,29.992014],[32.447871,29.999929],[32.446696,30.002452],[32.446739,30.005182],[32.448412,30.011086],[32.451075,30.006322],[32.457693,30.010639],[32.466015,30.016359],[32.467203,30.015135]],[[32.470223,30.011803],[32.468851,30.011048],[32.470027,30.009847],[32.471483,30.0107],[32.470223,30.011803]],[[32.468357,30.0105],[32.467678,30.011524],[32.467034,30.011073],[32.467928,30.010213],[32.468357,30.0105]]],[[[32.543118,29.99912],[32.540082,29.99938],[32.539331,29.997683],[32.540362,29.99758],[32.539445,29.995483],[32.537767,29.995974],[32.537868,29.996284],[32.537193,29.996478],[32.53845,29.998014],[32.536776,29.998356],[32.538376,30.002895],[32.53958,30.004783],[32.540876,30.007417],[32.541558,30.00918],[32.542187,30.012143],[32.542323,30.01351],[32.542984,30.014651],[32.549313,30.019994],[32.551279,30.021885],[32.551844,30.023232],[32.552388,30.02308],[32.550725,30.016055],[32.548722,30.017767],[32.546827,30.016373],[32.550062,30.014281],[32.549261,30.012508],[32.544509,30.013735],[32.544091,30.013106],[32.54399,30.012723],[32.544198,30.012259],[32.544088,30.011689],[32.543668,30.011345],[32.54324,30.010741],[32.54288,30.009745],[32.543659,30.009202],[32.543774,30.008706],[32.544112,30.008446],[32.544362,30.009058],[32.545,30.008857],[32.544926,30.00862],[32.54517,30.008564],[32.545493,30.009437],[32.547517,30.008586],[32.546742,30.006751],[32.542007,30.008336],[32.541195,30.006691],[32.542953,30.006087],[32.542656,30.005459],[32.545668,30.004453],[32.544132,30.001023],[32.543118,29.99912]],[[32.543836,30.003328],[32.54422,30.003208],[32.544368,30.003615],[32.543984,30.003712],[32.543836,30.003328]]],[[[32.485006,30.046684],[32.483711,30.046917],[32.4835,30.045326],[32.485986,30.04505],[32.485884,30.043587],[32.49043,30.043133],[32.489991,30.040709],[32.48586,30.041075],[32.485688,30.039167],[32.490338,30.038899],[32.490587,30.038582],[32.490206,30.034415],[32.495489,30.034796],[32.496995,30.034709],[32.497088,30.032057],[32.496175,30.032022],[32.496371,30.029871],[32.478317,30.028456],[32.478276,30.036275],[32.479505,30.047824],[32.482523,30.047288],[32.483483,30.051606],[32.485099,30.051226],[32.484665,30.04921],[32.485461,30.049091],[32.485006,30.046684]]],[[[32.477126,30.012284],[32.479251,30.012191],[32.478607,30.006898],[32.467894,30.015004],[32.466334,30.016501],[32.469329,30.018611],[32.472188,30.021929],[32.474759,30.021152],[32.4733,30.017198],[32.475876,30.0164],[32.475497,30.014491],[32.476784,30.014374],[32.476693,30.013373],[32.4773,30.013367],[32.477126,30.012284]]],[[[32.490277,29.982972],[32.486,29.980751],[32.483423,29.984952],[32.486794,29.987414],[32.490277,29.982972]]],[[[32.483996,29.965854],[32.485705,29.965499],[32.486708,29.964911],[32.490629,29.960747],[32.491404,29.960124],[32.49098,29.959752],[32.489437,29.960548],[32.488917,29.960676],[32.488862,29.960452],[32.489132,29.960417],[32.489069,29.959796],[32.488632,29.95993],[32.486875,29.959068],[32.487142,29.958495],[32.4867,29.958301],[32.48727,29.956937],[32.487945,29.957231],[32.48796,29.957795],[32.488393,29.958495],[32.489455,29.957962],[32.489968,29.956171],[32.49167,29.952538],[32.492607,29.951376],[32.492037,29.950063],[32.491321,29.9493],[32.486626,29.951306],[32.481114,29.966118],[32.483996,29.965854]],[[32.487906,29.962498],[32.486859,29.963464],[32.486297,29.963263],[32.486477,29.963087],[32.486269,29.962914],[32.486034,29.963064],[32.48582,29.962818],[32.485071,29.962956],[32.485637,29.963433],[32.485247,29.96364],[32.48505,29.963478],[32.48466,29.9637],[32.48479,29.963967],[32.484089,29.964423],[32.483691,29.963623],[32.484095,29.96334],[32.483405,29.96284],[32.483979,29.962288],[32.483783,29.962075],[32.483843,29.961383],[32.484227,29.961287],[32.484952,29.96038],[32.484661,29.96004],[32.484907,29.959884],[32.484633,29.95957],[32.485312,29.959166],[32.486742,29.960627],[32.487037,29.960325],[32.486923,29.960221],[32.487284,29.959883],[32.488459,29.960842],[32.488122,29.961101],[32.488474,29.961369],[32.487789,29.961992],[32.487956,29.962097],[32.487745,29.962398],[32.487906,29.962498]],[[32.48627,29.959222],[32.48563,29.959032],[32.486025,29.957991],[32.486407,29.958075],[32.486304,29.958409],[32.486519,29.958483],[32.48627,29.959222]]],[[[32.475697,29.961088],[32.47645,29.961132],[32.477316,29.961013],[32.479212,29.960411],[32.480801,29.960234],[32.47971,29.963343],[32.478822,29.963441],[32.478886,29.964581],[32.473087,29.965233],[32.473278,29.966836],[32.481114,29.966118],[32.484956,29.955793],[32.476741,29.956399],[32.476978,29.958986],[32.475477,29.9591],[32.475697,29.961088]]],[[[32.459236,30.105269],[32.469464,30.099957],[32.473491,30.097762],[32.47633,30.096012],[32.483038,30.091662],[32.482499,30.091304],[32.485136,30.088097],[32.485793,30.088517],[32.487089,30.087037],[32.488396,30.087824],[32.491213,30.084627],[32.490012,30.083869],[32.488554,30.085787],[32.484767,30.082943],[32.484227,30.081224],[32.48163,30.081436],[32.48127,30.080385],[32.486788,30.080445],[32.486048,30.076865],[32.48147,30.07708],[32.481258,30.075839],[32.485784,30.075591],[32.483751,30.065758],[32.479747,30.050103],[32.479108,30.0441],[32.475743,30.044107],[32.476203,30.029178],[32.473974,30.029169],[32.473653,30.027737],[32.478034,30.027945],[32.476097,30.024443],[32.472878,30.026667],[32.465883,30.031131],[32.462706,30.033375],[32.458885,30.035803],[32.456167,30.036806],[32.445423,30.038915],[32.442129,30.039894],[32.435071,30.044722],[32.433547,30.045605],[32.420198,30.052435],[32.409535,30.05752],[32.410007,30.058274],[32.414615,30.056271],[32.415883,30.058445],[32.410289,30.060827],[32.411557,30.063001],[32.415723,30.062383],[32.415706,30.061368],[32.41781,30.061218],[32.417926,30.06094],[32.419075,30.06009],[32.419214,30.059653],[32.418172,30.057978],[32.425466,30.054071],[32.426899,30.05537],[32.427063,30.054774],[32.429539,30.053572],[32.430477,30.053596],[32.431501,30.058434],[32.430948,30.059167],[32.421018,30.062371],[32.421377,30.07165],[32.417302,30.071849],[32.417331,30.073061],[32.412613,30.073227],[32.411429,30.073999],[32.408319,30.074233],[32.407444,30.065123],[32.404903,30.059657],[32.390892,30.064685],[32.393335,30.071507],[32.388414,30.072889],[32.385391,30.070006],[32.384102,30.0669],[32.37091,30.071069],[32.354064,30.076641],[32.341543,30.082011],[32.338925,30.083299],[32.342481,30.090243],[32.343738,30.092382],[32.364024,30.101723],[32.368464,30.103482],[32.372823,30.103582],[32.377639,30.103368],[32.382721,30.104103],[32.392972,30.106441],[32.410482,30.110154],[32.431025,30.113441],[32.453428,30.107881],[32.459236,30.105269]],[[32.369176,30.077803],[32.37495,30.074819],[32.376597,30.077167],[32.370705,30.080232],[32.369176,30.077803]],[[32.38263,30.077623],[32.381028,30.075621],[32.379468,30.07654],[32.37916,30.076207],[32.377654,30.077122],[32.376782,30.076016],[32.381609,30.072853],[32.381918,30.073252],[32.384512,30.071848],[32.385306,30.073043],[32.38445,30.073534],[32.385989,30.075587],[32.38263,30.077623]],[[32.44786,30.053972],[32.444919,30.047381],[32.440448,30.048983],[32.439832,30.047563],[32.449521,30.043937],[32.455449,30.055081],[32.450279,30.058174],[32.44482,30.059053],[32.443401,30.055784],[32.44786,30.053972]],[[32.457898,30.047901],[32.465234,30.046214],[32.467799,30.054753],[32.464034,30.055591],[32.464242,30.056543],[32.460273,30.057427],[32.457898,30.047901]]],[[[32.526487,29.992227],[32.524412,29.993572],[32.522179,29.994607],[32.521733,29.99397],[32.521443,29.993969],[32.521108,29.993544],[32.519521,29.994524],[32.519031,29.993977],[32.507267,30.00169],[32.501072,30.00681],[32.493162,30.012506],[32.476097,30.024443],[32.478317,30.028456],[32.512252,30.031114],[32.511761,30.038615],[32.526915,30.039935],[32.525184,30.055184],[32.538606,30.045017],[32.543327,30.041154],[32.546558,30.038126],[32.549555,30.03492],[32.554154,30.029381],[32.553159,30.028221],[32.552271,30.025362],[32.552891,30.025144],[32.552388,30.02308],[32.551844,30.023232],[32.551279,30.021885],[32.549313,30.019994],[32.542984,30.014651],[32.542323,30.01351],[32.542187,30.012143],[32.541558,30.00918],[32.540876,30.007417],[32.53958,30.004783],[32.538376,30.002895],[32.537146,29.999422],[32.53128,29.999976],[32.531216,29.999658],[32.529109,29.999846],[32.52902,29.998844],[32.528224,29.998963],[32.528087,29.998173],[32.528724,29.998004],[32.528512,29.997473],[32.527752,29.997674],[32.527623,29.997413],[32.529262,29.997085],[32.529444,29.998153],[32.530962,29.997963],[32.530808,29.996895],[32.531744,29.996792],[32.531562,29.995798],[32.533941,29.995488],[32.5341,29.997453],[32.535965,29.996898],[32.535172,29.996092],[32.533072,29.99242],[32.529671,29.988024],[32.527237,29.989989],[32.528694,29.990679],[32.528474,29.991043],[32.52789,29.991561],[32.526487,29.992227]],[[32.490785,30.015413],[32.497218,30.011406],[32.503389,30.017987],[32.499273,30.023024],[32.493249,30.025249],[32.486653,30.018195],[32.490785,30.015413]],[[32.499302,30.011485],[32.498706,30.01097],[32.498151,30.011416],[32.497564,30.010876],[32.500062,30.009239],[32.500547,30.009641],[32.50096,30.00939],[32.501202,30.009643],[32.501043,30.009748],[32.501927,30.010721],[32.501025,30.011427],[32.500411,30.010683],[32.499302,30.011485]],[[32.503975,30.009303],[32.503649,30.008911],[32.50488,30.007987],[32.50529,30.008518],[32.503975,30.009303]],[[32.504602,30.007472],[32.502622,30.008426],[32.50239,30.008034],[32.502137,30.008172],[32.50183,30.007731],[32.50245,30.00735],[32.502756,30.007783],[32.504389,30.00708],[32.504602,30.007472]],[[32.504505,30.006081],[32.503134,30.007103],[32.502932,30.006904],[32.503322,30.00664],[32.503185,30.006488],[32.503492,30.006312],[32.503617,30.006464],[32.504543,30.005779],[32.505091,30.006282],[32.504863,30.006448],[32.504505,30.006081]],[[32.509727,30.006555],[32.508788,30.005313],[32.508375,30.005572],[32.507714,30.00486],[32.507376,30.005071],[32.506975,30.004687],[32.506571,30.004946],[32.506329,30.004717],[32.507306,30.003979],[32.506952,30.003619],[32.51146,30.000556],[32.512755,30.002011],[32.512219,30.002376],[32.511847,30.002008],[32.511461,30.0023],[32.512652,30.003877],[32.51263,30.004577],[32.511419,30.005241],[32.511605,30.005527],[32.51029,30.006288],[32.510978,30.007366],[32.508794,30.007944],[32.508386,30.007112],[32.509727,30.006555]],[[32.513121,30.003699],[32.51376,30.003164],[32.514235,30.003614],[32.513531,30.004124],[32.513121,30.003699]],[[32.519317,30.003917],[32.519527,30.002908],[32.518994,30.002816],[32.519272,30.001465],[32.51874,30.0013],[32.518311,30.000948],[32.518991,29.999663],[32.518179,29.999228],[32.518717,29.998147],[32.517981,29.997598],[32.517282,29.996797],[32.519405,29.995265],[32.521104,29.994375],[32.521615,29.995078],[32.520649,29.995522],[32.521413,29.996291],[32.521967,29.995926],[32.522862,29.996712],[32.5235,29.996355],[32.5239,29.996878],[32.523767,29.997212],[32.525067,29.997412],[32.525027,29.997925],[32.524653,29.9979],[32.524322,30.000506],[32.523724,30.000463],[32.523976,29.998581],[32.523602,29.998556],[32.523417,29.999973],[32.522425,29.999904],[32.522493,29.999415],[32.52166,29.99938],[32.521322,30.001505],[32.520807,30.00147],[32.520421,30.003995],[32.519317,30.003917]],[[32.525097,30.00292],[32.525211,30.001047],[32.527115,30.001463],[32.527185,30.001199],[32.527905,30.001349],[32.528122,30.000674],[32.529179,30.000776],[32.529219,30.000311],[32.531484,30.000417],[32.531529,30.000817],[32.535303,30.00052],[32.535584,30.000326],[32.536998,30.000192],[32.537184,30.001198],[32.536443,30.001275],[32.536653,30.002402],[32.534196,30.002686],[32.533587,30.000952],[32.53216,30.001114],[32.532609,30.002451],[32.533053,30.002384],[32.533171,30.002734],[32.532661,30.002833],[32.530847,30.002435],[32.530494,30.001807],[32.529521,30.001755],[32.529285,30.002243],[32.528499,30.00215],[32.528273,30.002426],[32.527673,30.002319],[32.527559,30.00297],[32.52624,30.002737],[32.526154,30.003054],[32.525097,30.00292]],[[32.517319,29.998818],[32.51637,29.999605],[32.514861,29.998198],[32.515941,29.997395],[32.517319,29.998818]],[[32.514057,30.001788],[32.513307,30.001956],[32.513038,30.001532],[32.515168,30.000448],[32.514945,30.000088],[32.51517,29.999991],[32.515746,30.000922],[32.514057,30.001788]],[[32.515551,30.002494],[32.514866,30.002932],[32.514679,30.002735],[32.515374,30.002282],[32.515551,30.002494]]],[[[32.52051,30.047837],[32.517344,30.048573],[32.518555,30.051612],[32.521968,30.050823],[32.521796,30.050211],[32.520843,30.050462],[32.520539,30.049499],[32.521036,30.049387],[32.52051,30.047837]]],[[[32.465411,30.026818],[32.459491,30.024534],[32.458613,30.025529],[32.463983,30.029267],[32.465411,30.026818]]],[[[32.486268,30.017343],[32.485375,30.014139],[32.483101,30.011882],[32.479547,30.014624],[32.480129,30.019412],[32.486268,30.017343]]],[[[32.486662,29.995048],[32.484887,29.993609],[32.483056,29.994059],[32.482934,29.99557],[32.480291,29.998504],[32.483072,29.999748],[32.486538,29.996957],[32.485923,29.996497],[32.486662,29.995048]]],[[[32.492171,29.967932],[32.487013,29.976635],[32.491142,29.978529],[32.497135,29.968976],[32.495542,29.968919],[32.493918,29.967514],[32.492978,29.968137],[32.492171,29.967932]]],[[[32.474843,29.971465],[32.474189,29.966753],[32.473278,29.966836],[32.473842,29.971549],[32.474843,29.971465]]],[[[32.477393,29.976011],[32.47922,29.971098],[32.473842,29.971549],[32.474406,29.976262],[32.474879,29.976104],[32.477393,29.976011]]],[[[32.491002,29.965725],[32.491189,29.965915],[32.490225,29.96649],[32.489282,29.965687],[32.489703,29.96528],[32.489366,29.964857],[32.489562,29.964688],[32.48972,29.964808],[32.490348,29.964216],[32.490162,29.963654],[32.491572,29.960272],[32.491404,29.960124],[32.490629,29.960747],[32.486708,29.964911],[32.485705,29.965499],[32.483996,29.965854],[32.481114,29.966118],[32.480459,29.967842],[32.482837,29.96875],[32.483844,29.967324],[32.486694,29.968485],[32.487763,29.966787],[32.488592,29.967218],[32.489984,29.967379],[32.492978,29.968137],[32.493918,29.967514],[32.491467,29.965323],[32.491002,29.965725]]],[[[32.475477,29.9591],[32.472338,29.959339],[32.472614,29.961363],[32.475697,29.961088],[32.475477,29.9591]]],[[[32.470612,29.94313],[32.4724,29.94455],[32.472354,29.944734],[32.471812,29.944791],[32.471929,29.946306],[32.470742,29.947249],[32.471108,29.950325],[32.482419,29.94944],[32.479055,29.946184],[32.480653,29.944939],[32.479649,29.944057],[32.480158,29.943329],[32.47865,29.942546],[32.477642,29.942888],[32.476185,29.940204],[32.47548,29.940343],[32.473561,29.941093],[32.471524,29.942147],[32.470612,29.94313]],[[32.476058,29.94346],[32.476261,29.943711],[32.476666,29.943487],[32.477066,29.943961],[32.476587,29.944245],[32.476073,29.94421],[32.47592,29.943554],[32.476058,29.94346]]],[[[32.467283,29.935377],[32.467428,29.936089],[32.466301,29.936288],[32.466139,29.935671],[32.454013,29.93879],[32.461186,29.93877],[32.467139,29.939424],[32.466482,29.937931],[32.468714,29.935009],[32.467283,29.935377]]],[[[32.471147,29.950609],[32.470409,29.944417],[32.47059,29.943154],[32.471524,29.942147],[32.473924,29.940951],[32.47322,29.940524],[32.470156,29.939721],[32.461186,29.93877],[32.458416,29.938778],[32.458668,29.940314],[32.457411,29.940468],[32.458932,29.946382],[32.460234,29.946228],[32.460586,29.948755],[32.463877,29.948431],[32.464159,29.951217],[32.471147,29.950609]]],[[[32.467447,29.964043],[32.467609,29.964948],[32.466485,29.965064],[32.466405,29.964617],[32.464475,29.964814],[32.464735,29.967451],[32.473236,29.966484],[32.472878,29.963492],[32.469542,29.963844],[32.469604,29.964496],[32.468302,29.964629],[32.468184,29.963969],[32.467447,29.964043]],[[32.471532,29.963883],[32.472053,29.963812],[32.472093,29.964135],[32.471602,29.964186],[32.471532,29.963883]]],[[[32.551467,30.009733],[32.551671,30.008441],[32.550591,30.008433],[32.55059,30.007736],[32.549884,30.007783],[32.549939,30.008294],[32.549686,30.008326],[32.549661,30.008056],[32.549319,30.008085],[32.549314,30.007654],[32.549778,30.007639],[32.549767,30.007382],[32.548931,30.007423],[32.548961,30.007633],[32.548643,30.007662],[32.549486,30.009824],[32.551467,30.009733]],[[32.549115,30.008241],[32.549311,30.008205],[32.549394,30.008582],[32.549091,30.008628],[32.549115,30.008241]]],[[[32.54932,30.014761],[32.549995,30.016668],[32.550725,30.016055],[32.550504,30.015176],[32.550062,30.014281],[32.54932,30.014761]]],[[[32.546726,30.008918],[32.548361,30.012741],[32.549261,30.012508],[32.547517,30.008586],[32.546726,30.008918]]],[[[32.545078,30.00465],[32.546002,30.006998],[32.546742,30.006751],[32.545668,30.004453],[32.545078,30.00465]]],[[[32.552332,30.017508],[32.545447,30.001359],[32.541003,29.991337],[32.539932,29.988774],[32.539659,29.987742],[32.539391,29.985755],[32.539368,29.984393],[32.539593,29.983172],[32.540213,29.981863],[32.541995,29.979329],[32.533625,29.984801],[32.532662,29.985325],[32.53879,29.99039],[32.539829,29.992092],[32.542179,29.997358],[32.544132,30.001023],[32.550504,30.015176],[32.552891,30.025144],[32.555295,30.024299],[32.554905,30.023151],[32.556471,30.022677],[32.556667,30.02249],[32.556759,30.022591],[32.557089,30.022444],[32.556869,30.022162],[32.558028,30.021534],[32.557272,30.020599],[32.556929,30.02078],[32.557161,30.02112],[32.554466,30.022258],[32.552457,30.017463],[32.552332,30.017508]]],[[[32.548985,30.008793],[32.54863,30.008846],[32.552332,30.017508],[32.552622,30.017403],[32.548985,30.008793]]],[[[32.548488,30.006053],[32.548218,30.006099],[32.548245,30.006253],[32.547585,30.006382],[32.548259,30.007957],[32.548613,30.007846],[32.548536,30.007672],[32.548401,30.007685],[32.548341,30.007434],[32.548464,30.007428],[32.548488,30.006053]]],[[[32.496809,29.969496],[32.498346,29.970134],[32.499654,29.970164],[32.499347,29.972322],[32.500793,29.972414],[32.501063,29.969343],[32.497135,29.968976],[32.496809,29.969496]]],[[[32.388949,30.064446],[32.393111,30.062967],[32.395628,30.061505],[32.396734,30.060653],[32.402493,30.054947],[32.404087,30.05374],[32.405821,30.052739],[32.408682,30.051672],[32.410388,30.051287],[32.411937,30.051091],[32.414178,30.051016],[32.41813,30.051371],[32.419728,30.051284],[32.421034,30.051019],[32.422106,30.050683],[32.423393,30.05008],[32.433764,30.044702],[32.450707,30.033158],[32.452336,30.031536],[32.459612,30.023295],[32.460944,30.021934],[32.449388,30.014717],[32.446739,30.005182],[32.446696,30.002452],[32.447871,29.999929],[32.452967,29.992014],[32.459933,29.981832],[32.462629,29.977193],[32.462697,29.975323],[32.462298,29.974007],[32.447938,29.956356],[32.441587,29.948876],[32.437506,29.954113],[32.423202,29.965136],[32.414544,29.972113],[32.41131,29.975138],[32.398718,29.988829],[32.397968,29.989315],[32.390542,29.990733],[32.386004,29.991945],[32.378125,29.994541],[32.375412,29.995585],[32.37275,29.996724],[32.370143,29.997956],[32.367597,29.999281],[32.365115,30.000695],[32.362701,30.002196],[32.360359,30.003781],[32.35543,30.007305],[32.353478,30.008905],[32.342801,30.012281],[32.324739,30.018496],[32.320508,30.020171],[32.308846,30.025188],[32.300282,30.026321],[32.295659,30.027268],[32.291118,30.028476],[32.28456,30.030662],[32.272812,30.029338],[32.267841,30.028652],[32.256761,30.02595],[32.247554,30.024059],[32.238819,30.018516],[32.234782,30.01634],[32.230591,30.014398],[32.226035,30.012484],[32.222187,30.010988],[32.217741,30.009538],[32.213195,30.008344],[32.188593,30.002738],[32.184281,30.001877],[32.179596,30.001209],[32.174871,30.000808],[32.154916,29.999993],[32.132921,29.999621],[32.128964,29.999717],[32.103417,30.000945],[32.096842,30.001377],[32.096712,30.004105],[32.093608,30.013384],[32.092463,30.017925],[32.092947,30.022124],[32.093725,30.032391],[32.09677,30.064172],[32.110572,30.063373],[32.132069,30.062327],[32.135001,30.062289],[32.16649,30.063105],[32.170257,30.063312],[32.172329,30.063653],[32.177535,30.064698],[32.194213,30.068837],[32.195626,30.069262],[32.196915,30.069839],[32.204231,30.074201],[32.20562,30.075269],[32.211327,30.080959],[32.212352,30.081714],[32.214279,30.082654],[32.218662,30.08393],[32.225299,30.085058],[32.226999,30.085261],[32.232265,30.085527],[32.23635,30.086131],[32.241057,30.087294],[32.24611,30.088757],[32.250584,30.089814],[32.261133,30.091179],[32.272625,30.092473],[32.282,30.09347],[32.285563,30.093702],[32.289347,30.093819],[32.301206,30.09244],[32.302796,30.092053],[32.314011,30.087782],[32.315886,30.087423],[32.328038,30.08611],[32.330686,30.085423],[32.342407,30.080776],[32.351682,30.076685],[32.353712,30.075889],[32.370582,30.070309],[32.388949,30.064446]],[[32.096762,30.055992],[32.097529,30.055933],[32.097589,30.056803],[32.096803,30.056855],[32.096762,30.055992]]],[[[32.413835,30.055031],[32.420272,30.051871],[32.418117,30.052038],[32.415082,30.051726],[32.412403,30.051728],[32.409725,30.052207],[32.407143,30.053045],[32.405147,30.054072],[32.403323,30.055377],[32.397408,30.061215],[32.396261,30.062103],[32.396324,30.06222],[32.403966,30.05958],[32.413835,30.055031]]],[[[32.362272,30.152677],[32.384908,30.143563],[32.389133,30.142476],[32.405612,30.139277],[32.410321,30.137949],[32.415452,30.135112],[32.422575,30.12648],[32.431025,30.113441],[32.410482,30.110154],[32.392972,30.106441],[32.382721,30.104103],[32.377639,30.103368],[32.372823,30.103582],[32.368464,30.103482],[32.364024,30.101723],[32.343738,30.092382],[32.342481,30.090243],[32.338925,30.083299],[32.331141,30.086372],[32.328701,30.087038],[32.316054,30.088441],[32.314348,30.088769],[32.303255,30.093001],[32.302327,30.093267],[32.301393,30.093456],[32.28874,30.094873],[32.281899,30.094494],[32.279576,30.094257],[32.260976,30.092199],[32.250365,30.090825],[32.245781,30.089745],[32.240697,30.088273],[32.236079,30.087132],[32.232135,30.08655],[32.226861,30.086282],[32.219958,30.085214],[32.216738,30.084491],[32.213851,30.083613],[32.212518,30.083002],[32.194371,30.10252],[32.193913,30.106466],[32.194412,30.114984],[32.196581,30.127585],[32.198705,30.149737],[32.21148,30.154328],[32.216638,30.15477],[32.253075,30.149659],[32.251626,30.165233],[32.263638,30.167949],[32.273477,30.169458],[32.280902,30.170364],[32.284946,30.170485],[32.292794,30.169821],[32.306556,30.166863],[32.309575,30.166319],[32.329676,30.159136],[32.336134,30.156601],[32.358952,30.153522],[32.362272,30.152677]]],[[[32.479335,29.981391],[32.479735,29.980915],[32.480186,29.98106],[32.48165,29.978656],[32.479816,29.977094],[32.477332,29.975984],[32.474879,29.976104],[32.474406,29.976262],[32.47529,29.982625],[32.47707,29.982407],[32.476946,29.981639],[32.479335,29.981391]],[[32.475282,29.978573],[32.478886,29.978182],[32.479096,29.980042],[32.475533,29.980422],[32.475282,29.978573]],[[32.476874,29.976408],[32.476843,29.977362],[32.475756,29.977335],[32.475805,29.976358],[32.476874,29.976408]]],[[[31.823312,30.161532],[31.823632,30.160614],[31.825923,30.161095],[31.826407,30.160245],[31.826663,30.159543],[31.826711,30.158767],[31.826449,30.157646],[31.825911,30.156621],[31.825525,30.156251],[31.823302,30.15497],[31.819944,30.153459],[31.819124,30.153346],[31.8133,30.153192],[31.813635,30.147324],[31.815888,30.147268],[31.816354,30.145162],[31.817658,30.143178],[31.820924,30.139562],[31.822398,30.138117],[31.825951,30.136346],[31.82742,30.135323],[31.828539,30.134028],[31.830249,30.131204],[31.831206,30.12868],[31.833093,30.125896],[31.834118,30.123417],[31.834256,30.122843],[31.834348,30.122263],[31.834393,30.121679],[31.834392,30.121093],[31.834343,30.120508],[31.834248,30.119928],[31.834106,30.119356],[31.833919,30.118793],[31.833687,30.118243],[31.833412,30.117708],[31.833094,30.117191],[31.832736,30.116695],[31.832338,30.116222],[31.831904,30.115774],[31.831435,30.115353],[31.830933,30.114962],[31.830401,30.114602],[31.829842,30.114276],[31.829258,30.113984],[31.828652,30.113728],[31.828026,30.113509],[31.825636,30.112856],[31.825022,30.112767],[31.824403,30.112714],[31.823782,30.112698],[31.82316,30.112718],[31.822542,30.112775],[31.821929,30.112868],[31.821325,30.112997],[31.820733,30.113161],[31.820154,30.11336],[31.819593,30.113593],[31.819051,30.113858],[31.818531,30.114154],[31.818035,30.114481],[31.816537,30.115759],[31.81541,30.114591],[31.81476,30.114726],[31.814454,30.114251],[31.8116,30.114889],[31.811994,30.115757],[31.81175,30.115856],[31.812032,30.116452],[31.812974,30.116058],[31.813441,30.116686],[31.81014,30.118939],[31.809977,30.118032],[31.80839,30.118219],[31.808542,30.120041],[31.81007,30.119914],[31.810651,30.119708],[31.811052,30.120199],[31.808434,30.120851],[31.809542,30.126698],[31.811379,30.126616],[31.811523,30.128778],[31.811845,30.130206],[31.812052,30.134137],[31.810469,30.134196],[31.810856,30.139627],[31.810799,30.142082],[31.810077,30.150425],[31.809739,30.152705],[31.808682,30.155937],[31.807786,30.157648],[31.804514,30.162433],[31.804236,30.163237],[31.804266,30.164109],[31.804645,30.165228],[31.805249,30.165949],[31.80637,30.166528],[31.807635,30.166806],[31.808614,30.166802],[31.819748,30.165591],[31.822882,30.16429],[31.821969,30.163054],[31.823312,30.161532]]],[[[31.812373,30.113361],[31.811981,30.111695],[31.80963,30.112246],[31.809877,30.113911],[31.812373,30.113361]]],[[[31.818827,30.112025],[31.818416,30.110233],[31.816602,30.110556],[31.816889,30.112327],[31.818827,30.112025]]],[[[31.822476,30.111271],[31.822005,30.109335],[31.819717,30.109815],[31.820067,30.111517],[31.822476,30.111271]]],[[[31.858357,30.114856],[31.858426,30.113923],[31.85739,30.113923],[31.85736,30.114889],[31.858357,30.114856]]],[[[31.863363,30.116152],[31.863724,30.111171],[31.861522,30.111355],[31.861532,30.112535],[31.862562,30.112503],[31.86224,30.116061],[31.863363,30.116152]]],[[[31.863724,30.111171],[31.863363,30.116152],[31.86762,30.116332],[31.867918,30.112794],[31.870584,30.112898],[31.870627,30.111251],[31.86791,30.111451],[31.867919,30.110637],[31.863724,30.111171]]],[[[31.886646,30.112242],[31.884766,30.110863],[31.882101,30.114767],[31.880407,30.115566],[31.878777,30.116895],[31.882218,30.118857],[31.883075,30.117583],[31.884023,30.116533],[31.888204,30.113069],[31.886646,30.112242]]],[[[31.906646,30.120733],[31.905845,30.117102],[31.900581,30.116931],[31.897513,30.116555],[31.893539,30.115536],[31.891427,30.114692],[31.890167,30.116271],[31.889236,30.117725],[31.8884,30.120548],[31.889533,30.120589],[31.891367,30.120096],[31.894141,30.120564],[31.900941,30.120717],[31.902278,30.122222],[31.903691,30.123347],[31.906646,30.120733]]],[[[31.929806,30.106109],[31.929544,30.103277],[31.921893,30.104137],[31.921808,30.108555],[31.921896,30.11059],[31.92236,30.111611],[31.923407,30.112828],[31.927323,30.11588],[31.929576,30.1138],[31.929216,30.113321],[31.931899,30.112039],[31.929806,30.106109]]],[[[31.9729,30.098071],[31.963953,30.101773],[31.966142,30.105628],[31.974979,30.101913],[31.9729,30.098071]]],[[[31.973286,30.098784],[31.973745,30.099632],[31.975172,30.099086],[31.974736,30.098269],[31.973286,30.098784]]],[[[31.989343,30.092629],[31.99224,30.09237],[31.992119,30.091166],[31.995302,30.090928],[31.995115,30.087755],[31.993043,30.087906],[31.993101,30.088798],[31.990233,30.08906],[31.990264,30.089843],[31.988959,30.09],[31.989343,30.092629]]],[[[32.095408,30.056923],[32.095262,30.056047],[32.09437,30.056149],[32.094492,30.056958],[32.095408,30.056923]]],[[[32.097589,30.056803],[32.097529,30.055933],[32.096762,30.055992],[32.096803,30.056855],[32.097589,30.056803]]],[[[32.378132,30.075101],[32.379468,30.07654],[32.381028,30.075621],[32.38263,30.077623],[32.384458,30.076524],[32.381609,30.072853],[32.378132,30.075101]]],[[[32.376597,30.077167],[32.37495,30.074819],[32.369176,30.077803],[32.370705,30.080232],[32.376597,30.077167]]],[[[32.390892,30.064685],[32.384102,30.0669],[32.385391,30.070006],[32.388414,30.072889],[32.393335,30.071507],[32.390892,30.064685]]],[[[32.506223,30.061406],[32.506373,30.067365],[32.508446,30.067342],[32.508543,30.069456],[32.510408,30.069672],[32.510262,30.061381],[32.506223,30.061406]]],[[[32.505743,30.061426],[32.505605,30.057165],[32.503921,30.057199],[32.504157,30.061493],[32.505743,30.061426]]],[[[32.507773,30.053046],[32.506398,30.053057],[32.506434,30.055153],[32.507833,30.055163],[32.507773,30.053046]]],[[[32.507724,30.051356],[32.507645,30.048598],[32.506186,30.048641],[32.506223,30.050574],[32.506855,30.050556],[32.506827,30.05137],[32.507724,30.051356]]],[[[32.488069,30.082642],[32.490887,30.080041],[32.489942,30.078957],[32.491226,30.078103],[32.493222,30.080845],[32.491681,30.08192],[32.491063,30.081377],[32.488917,30.083177],[32.492414,30.085385],[32.498941,30.08072],[32.502396,30.077884],[32.50563,30.074857],[32.508419,30.071893],[32.506539,30.069977],[32.506223,30.061406],[32.508435,30.061392],[32.508308,30.059074],[32.506592,30.059192],[32.506567,30.057141],[32.507889,30.057114],[32.507833,30.055163],[32.506434,30.055153],[32.506398,30.053057],[32.507773,30.053046],[32.507724,30.051356],[32.506827,30.05137],[32.506855,30.050556],[32.506223,30.050574],[32.506186,30.048641],[32.509646,30.048574],[32.50956,30.044253],[32.510489,30.044288],[32.510874,30.038602],[32.511761,30.038615],[32.512252,30.031114],[32.507071,30.030709],[32.505997,30.03419],[32.50247,30.034393],[32.502933,30.032334],[32.500084,30.032132],[32.500151,30.034527],[32.49826,30.034636],[32.497855,30.032092],[32.497936,30.029994],[32.496371,30.029871],[32.496175,30.032022],[32.497088,30.032057],[32.496995,30.034709],[32.495489,30.034796],[32.490206,30.034415],[32.490587,30.038582],[32.490338,30.038899],[32.485688,30.039167],[32.48586,30.041075],[32.489991,30.040709],[32.49043,30.043133],[32.485884,30.043587],[32.485986,30.04505],[32.4835,30.045326],[32.483711,30.046917],[32.49099,30.04561],[32.503936,30.046949],[32.503889,30.048072],[32.499013,30.048788],[32.499332,30.050792],[32.503808,30.05001],[32.503704,30.052492],[32.50199,30.052869],[32.502354,30.060501],[32.504094,30.060352],[32.503921,30.057199],[32.505605,30.057165],[32.505743,30.061426],[32.504157,30.061493],[32.50411,30.06747],[32.502868,30.067986],[32.502584,30.06562],[32.498849,30.066287],[32.498178,30.062329],[32.492361,30.063419],[32.492861,30.065551],[32.490555,30.066178],[32.489154,30.061595],[32.491385,30.06119],[32.491139,30.059345],[32.485506,30.060213],[32.486116,30.062346],[32.483007,30.062848],[32.484377,30.068782],[32.487547,30.068329],[32.4884,30.073101],[32.487705,30.073194],[32.488747,30.076727],[32.487576,30.076976],[32.487255,30.075354],[32.485784,30.075591],[32.487118,30.082041],[32.488069,30.082642]]],[[[32.503704,30.052492],[32.503808,30.05001],[32.499332,30.050792],[32.499013,30.048788],[32.503889,30.048072],[32.503936,30.046949],[32.495376,30.046064],[32.491822,30.048542],[32.489012,30.050965],[32.4866,30.053589],[32.484075,30.056013],[32.48176,30.057974],[32.483007,30.062848],[32.486116,30.062346],[32.485506,30.060213],[32.491139,30.059345],[32.491385,30.06119],[32.489154,30.061595],[32.490555,30.066178],[32.492861,30.065551],[32.492361,30.063419],[32.498178,30.062329],[32.498849,30.066287],[32.502584,30.06562],[32.502868,30.067986],[32.50411,30.06747],[32.504094,30.060352],[32.502354,30.060501],[32.50199,30.052869],[32.503704,30.052492]]],[[[32.497936,30.029994],[32.497855,30.032092],[32.49826,30.034636],[32.500151,30.034527],[32.500084,30.032132],[32.502933,30.032334],[32.50247,30.034393],[32.505997,30.03419],[32.507071,30.030709],[32.497936,30.029994]]],[[[32.485006,30.046684],[32.485461,30.049091],[32.484665,30.04921],[32.485099,30.051226],[32.483483,30.051606],[32.482523,30.047288],[32.479505,30.047824],[32.479747,30.050103],[32.48176,30.057974],[32.484075,30.056013],[32.4866,30.053589],[32.489012,30.050965],[32.491822,30.048542],[32.495376,30.046064],[32.49099,30.04561],[32.485006,30.046684]]],[[[32.479108,30.0441],[32.478276,30.036275],[32.478317,30.028456],[32.478034,30.027945],[32.473653,30.027737],[32.473974,30.029169],[32.476203,30.029178],[32.475743,30.044107],[32.479108,30.0441]]],[[[32.484377,30.068782],[32.485784,30.075591],[32.487255,30.075354],[32.487576,30.076976],[32.488747,30.076727],[32.487705,30.073194],[32.4884,30.073101],[32.487547,30.068329],[32.484377,30.068782]]],[[[32.486048,30.076865],[32.485784,30.075591],[32.481258,30.075839],[32.48147,30.07708],[32.486048,30.076865]]],[[[32.490012,30.083869],[32.487118,30.082041],[32.486788,30.080445],[32.48127,30.080385],[32.48163,30.081436],[32.484227,30.081224],[32.484767,30.082943],[32.488554,30.085787],[32.490012,30.083869]]],[[[32.491213,30.084627],[32.488396,30.087824],[32.488411,30.088168],[32.492414,30.085385],[32.491213,30.084627]]],[[[32.488069,30.082642],[32.488917,30.083177],[32.491063,30.081377],[32.491681,30.08192],[32.493222,30.080845],[32.491226,30.078103],[32.489942,30.078957],[32.490887,30.080041],[32.488069,30.082642]]],[[[32.488396,30.087824],[32.487089,30.087037],[32.485793,30.088517],[32.485136,30.088097],[32.482499,30.091304],[32.483038,30.091662],[32.488411,30.088168],[32.488396,30.087824]]],[[[32.492171,29.967932],[32.489984,29.967379],[32.488592,29.967218],[32.483875,29.975219],[32.487013,29.976635],[32.492171,29.967932]]],[[[32.484956,29.955793],[32.486626,29.951306],[32.483256,29.952698],[32.483877,29.955873],[32.484956,29.955793]]],[[[32.475697,29.961088],[32.476048,29.964268],[32.473011,29.964601],[32.473087,29.965233],[32.478886,29.964581],[32.478822,29.963441],[32.47971,29.963343],[32.480801,29.960234],[32.479212,29.960411],[32.477316,29.961013],[32.47645,29.961132],[32.475697,29.961088]]]]}},{"type":"Feature","properties":{"landuse_value":3,"landuse_code":3,"landuse_label":null,"source_feature_count":66,"area_km2":9193900.228139,"sector":"10"},"geometry":{"type":"MultiPolygon","coordinates":[[[[32.494281,29.993815],[32.504653,30.003851],[32.507267,30.00169],[32.529079,29.987323],[32.524382,29.982697],[32.522979,29.980751],[32.52284,29.978713],[32.526863,29.962851],[32.517988,29.961693],[32.513478,29.962025],[32.512659,29.968481],[32.512375,29.969496],[32.51192,29.970426],[32.50725,29.977578],[32.494281,29.993815]]],[[[32.526863,29.962851],[32.52284,29.978713],[32.522979,29.980751],[32.524382,29.982697],[32.529079,29.987323],[32.533625,29.984801],[32.548607,29.975064],[32.549683,29.972517],[32.545411,29.969779],[32.53742,29.965269],[32.536265,29.96394],[32.535948,29.964051],[32.526863,29.962851]]],[[[32.478557,30.006529],[32.49159,29.996535],[32.49448,29.993025],[32.483423,29.984952],[32.47705,29.99534],[32.478557,30.006529]],[[32.483056,29.994059],[32.484887,29.993609],[32.486662,29.995048],[32.485923,29.996497],[32.486538,29.996957],[32.483072,29.999748],[32.480291,29.998504],[32.482934,29.99557],[32.483056,29.994059]]],[[[32.503601,29.957869],[32.498439,29.966457],[32.497112,29.968974],[32.501063,29.969343],[32.500607,29.974701],[32.502718,29.974847],[32.507028,29.97731],[32.511945,29.969647],[32.51231,29.968434],[32.513136,29.961914],[32.509839,29.960095],[32.503601,29.957869]]],[[[32.480158,29.943329],[32.479649,29.944057],[32.480653,29.944939],[32.479055,29.946184],[32.482419,29.94944],[32.471108,29.950325],[32.471578,29.953772],[32.482263,29.953108],[32.491321,29.9493],[32.486704,29.946724],[32.480158,29.943329]]],[[[32.468714,29.935009],[32.466482,29.937931],[32.467139,29.939424],[32.470156,29.939721],[32.47322,29.940524],[32.473924,29.940951],[32.47548,29.940343],[32.477482,29.939949],[32.474581,29.933499],[32.468714,29.935009]]],[[[32.48165,29.978656],[32.480186,29.98106],[32.479735,29.980915],[32.479335,29.981391],[32.476946,29.981639],[32.47707,29.982407],[32.47529,29.982625],[32.47705,29.99534],[32.486,29.980751],[32.48165,29.978656]]],[[[32.492713,29.98397],[32.490277,29.982972],[32.486794,29.987414],[32.49448,29.993025],[32.500014,29.986113],[32.497464,29.985024],[32.492713,29.98397]]],[[[32.488592,29.967218],[32.487763,29.966787],[32.486694,29.968485],[32.483844,29.967324],[32.482837,29.96875],[32.480459,29.967842],[32.477393,29.976011],[32.479816,29.977094],[32.481443,29.978556],[32.486,29.980751],[32.488102,29.977126],[32.483875,29.975219],[32.488592,29.967218]]],[[[32.500014,29.986113],[32.507028,29.97731],[32.502718,29.974847],[32.500607,29.974701],[32.500793,29.972414],[32.499347,29.972322],[32.499654,29.970164],[32.498346,29.970134],[32.496809,29.969496],[32.491142,29.978529],[32.488102,29.977126],[32.486,29.980751],[32.490562,29.983121],[32.492713,29.98397],[32.497464,29.985024],[32.500014,29.986113]]],[[[32.474189,29.966753],[32.474843,29.971465],[32.47922,29.971098],[32.481114,29.966118],[32.474189,29.966753]]],[[[32.476741,29.956399],[32.483877,29.955873],[32.483256,29.952698],[32.482263,29.953108],[32.471578,29.953772],[32.472338,29.959339],[32.476978,29.958986],[32.476741,29.956399]]],[[[32.475697,29.961088],[32.472614,29.961363],[32.473011,29.964601],[32.476048,29.964268],[32.475697,29.961088]]],[[[32.48466,29.9637],[32.48505,29.963478],[32.485247,29.96364],[32.485637,29.963433],[32.485071,29.962956],[32.48582,29.962818],[32.486034,29.963064],[32.486269,29.962914],[32.486477,29.963087],[32.486297,29.963263],[32.486859,29.963464],[32.487906,29.962498],[32.487745,29.962398],[32.487956,29.962097],[32.487789,29.961992],[32.488474,29.961369],[32.488122,29.961101],[32.488459,29.960842],[32.487284,29.959883],[32.486923,29.960221],[32.487037,29.960325],[32.486742,29.960627],[32.485312,29.959166],[32.484633,29.95957],[32.484907,29.959884],[32.484661,29.96004],[32.484952,29.96038],[32.484227,29.961287],[32.483843,29.961383],[32.483783,29.962075],[32.483979,29.962288],[32.483405,29.96284],[32.484095,29.96334],[32.483691,29.963623],[32.484089,29.964423],[32.48479,29.963967],[32.48466,29.9637]]],[[[32.486407,29.958075],[32.486025,29.957991],[32.48563,29.959032],[32.48627,29.959222],[32.486519,29.958483],[32.486304,29.958409],[32.486407,29.958075]]],[[[32.49098,29.959752],[32.489455,29.957962],[32.488393,29.958495],[32.48796,29.957795],[32.487945,29.957231],[32.48727,29.956937],[32.4867,29.958301],[32.487142,29.958495],[32.486875,29.959068],[32.488632,29.95993],[32.489069,29.959796],[32.489132,29.960417],[32.488862,29.960452],[32.488917,29.960676],[32.489437,29.960548],[32.49098,29.959752]]],[[[32.47865,29.942546],[32.477482,29.939949],[32.476185,29.940204],[32.477642,29.942888],[32.47865,29.942546]]],[[[32.477066,29.943961],[32.476666,29.943487],[32.476261,29.943711],[32.476058,29.94346],[32.47592,29.943554],[32.476073,29.94421],[32.476587,29.944245],[32.477066,29.943961]]],[[[32.467283,29.935377],[32.466139,29.935671],[32.466301,29.936288],[32.467428,29.936089],[32.467283,29.935377]]],[[[32.499302,30.011485],[32.500411,30.010683],[32.501025,30.011427],[32.501927,30.010721],[32.501043,30.009748],[32.501202,30.009643],[32.50096,30.00939],[32.500547,30.009641],[32.500062,30.009239],[32.497564,30.010876],[32.498151,30.011416],[32.498706,30.01097],[32.499302,30.011485]]],[[[32.50529,30.008518],[32.50488,30.007987],[32.503649,30.008911],[32.503975,30.009303],[32.50529,30.008518]]],[[[32.502622,30.008426],[32.504602,30.007472],[32.504389,30.00708],[32.502756,30.007783],[32.50245,30.00735],[32.502056,30.00752],[32.50183,30.007731],[32.502137,30.008172],[32.50239,30.008034],[32.502622,30.008426]]],[[[32.503134,30.007103],[32.504505,30.006081],[32.504863,30.006448],[32.505091,30.006282],[32.504543,30.005779],[32.503617,30.006464],[32.503492,30.006312],[32.503185,30.006488],[32.503322,30.00664],[32.502932,30.006904],[32.503134,30.007103]]],[[[32.511605,30.005527],[32.511419,30.005241],[32.51263,30.004577],[32.512652,30.003877],[32.511461,30.0023],[32.511847,30.002008],[32.512219,30.002376],[32.512755,30.002011],[32.51146,30.000556],[32.506952,30.003619],[32.507306,30.003979],[32.506329,30.004717],[32.506571,30.004946],[32.506975,30.004687],[32.507376,30.005071],[32.507714,30.00486],[32.508375,30.005572],[32.508788,30.005313],[32.509727,30.006555],[32.508386,30.007112],[32.508794,30.007944],[32.510978,30.007366],[32.51029,30.006288],[32.511605,30.005527]]],[[[32.514235,30.003614],[32.51376,30.003164],[32.513121,30.003699],[32.513531,30.004124],[32.514235,30.003614]]],[[[32.515746,30.000922],[32.51517,29.999991],[32.514945,30.000088],[32.515168,30.000448],[32.513038,30.001532],[32.513307,30.001956],[32.514057,30.001788],[32.515746,30.000922]]],[[[32.515551,30.002494],[32.515374,30.002282],[32.514679,30.002735],[32.514866,30.002932],[32.515551,30.002494]]],[[[32.517319,29.998818],[32.515941,29.997395],[32.514861,29.998198],[32.51637,29.999605],[32.517319,29.998818]]],[[[32.520421,30.003995],[32.520807,30.00147],[32.521322,30.001505],[32.52166,29.99938],[32.522493,29.999415],[32.522425,29.999904],[32.523417,29.999973],[32.523602,29.998556],[32.523976,29.998581],[32.523724,30.000463],[32.524322,30.000506],[32.524653,29.9979],[32.525027,29.997925],[32.525067,29.997412],[32.523767,29.997212],[32.5239,29.996878],[32.5235,29.996355],[32.522862,29.996712],[32.521967,29.995926],[32.521413,29.996291],[32.520649,29.995522],[32.521615,29.995078],[32.521104,29.994375],[32.519405,29.995265],[32.517282,29.996797],[32.517981,29.997598],[32.518717,29.998147],[32.518179,29.999228],[32.518991,29.999663],[32.518311,30.000948],[32.51874,30.0013],[32.519272,30.001465],[32.518994,30.002816],[32.519527,30.002908],[32.519317,30.003917],[32.520421,30.003995]]],[[[32.526154,30.003054],[32.52624,30.002737],[32.527559,30.00297],[32.527905,30.001349],[32.527185,30.001199],[32.527115,30.001463],[32.525211,30.001047],[32.525097,30.00292],[32.526154,30.003054]]],[[[32.537146,29.999422],[32.536638,29.997961],[32.535965,29.996898],[32.5341,29.997453],[32.533941,29.995488],[32.531562,29.995798],[32.531744,29.996792],[32.530808,29.996895],[32.530962,29.997963],[32.529444,29.998153],[32.529262,29.997085],[32.527623,29.997413],[32.527752,29.997674],[32.528512,29.997473],[32.528724,29.998004],[32.528087,29.998173],[32.528224,29.998963],[32.52902,29.998844],[32.529109,29.999846],[32.531216,29.999658],[32.53128,29.999976],[32.537146,29.999422]]],[[[32.528122,30.000674],[32.527673,30.002319],[32.528273,30.002426],[32.528499,30.00215],[32.529285,30.002243],[32.529521,30.001755],[32.530494,30.001807],[32.530847,30.002435],[32.532661,30.002833],[32.533171,30.002734],[32.533053,30.002384],[32.532609,30.002451],[32.53216,30.001114],[32.533587,30.000952],[32.534196,30.002686],[32.536653,30.002402],[32.536443,30.001275],[32.537184,30.001198],[32.536998,30.000192],[32.535584,30.000326],[32.535303,30.00052],[32.531529,30.000817],[32.531484,30.000417],[32.529219,30.000311],[32.529179,30.000776],[32.528122,30.000674]]],[[[32.526487,29.992227],[32.527992,29.991496],[32.528657,29.990755],[32.528694,29.990679],[32.527237,29.989989],[32.529671,29.988024],[32.529079,29.987323],[32.519031,29.993977],[32.519521,29.994524],[32.521108,29.993544],[32.521443,29.993969],[32.521733,29.99397],[32.522179,29.994607],[32.524412,29.993572],[32.526487,29.992227]]],[[[32.549995,30.016668],[32.54932,30.014761],[32.546827,30.016373],[32.548722,30.017767],[32.549995,30.016668]]],[[[32.548361,30.012741],[32.546726,30.008918],[32.545493,30.009437],[32.54517,30.008564],[32.544926,30.00862],[32.545,30.008857],[32.544362,30.009058],[32.544112,30.008446],[32.543774,30.008706],[32.543659,30.009202],[32.54288,30.009745],[32.54324,30.010741],[32.543668,30.011345],[32.544088,30.011689],[32.544198,30.012259],[32.54399,30.012723],[32.544091,30.013106],[32.544509,30.013735],[32.548361,30.012741]]],[[[32.546002,30.006998],[32.545078,30.00465],[32.542656,30.005459],[32.542953,30.006087],[32.541195,30.006691],[32.542007,30.008336],[32.546002,30.006998]]],[[[32.544368,30.003615],[32.54422,30.003208],[32.543836,30.003328],[32.543984,30.003712],[32.544368,30.003615]]],[[[32.543118,29.99912],[32.539829,29.992092],[32.53879,29.99039],[32.532662,29.985325],[32.529079,29.987323],[32.530614,29.98914],[32.533072,29.99242],[32.535172,29.996092],[32.536214,29.997152],[32.536776,29.998356],[32.53845,29.998014],[32.537193,29.996478],[32.537868,29.996284],[32.537767,29.995974],[32.539445,29.995483],[32.540362,29.99758],[32.539331,29.997683],[32.540082,29.99938],[32.543118,29.99912]]],[[[32.556485,30.02388],[32.55623,30.023046],[32.556614,30.022917],[32.556471,30.022677],[32.554905,30.023151],[32.555295,30.024299],[32.556485,30.02388]]],[[[32.557486,30.022221],[32.557212,30.021933],[32.556869,30.022162],[32.557089,30.022444],[32.557486,30.022221]]],[[[32.556547,30.019701],[32.555687,30.018635],[32.555068,30.018902],[32.555229,30.019147],[32.554166,30.019577],[32.554035,30.019394],[32.553339,30.019704],[32.554228,30.021818],[32.555504,30.021326],[32.555038,30.020786],[32.556547,30.019701]]],[[[32.554321,30.017362],[32.554137,30.017152],[32.554017,30.017229],[32.553917,30.017124],[32.553707,30.01727],[32.553998,30.017575],[32.554321,30.017362]]],[[[32.553884,30.016649],[32.553736,30.01644],[32.553453,30.016543],[32.553575,30.016755],[32.553884,30.016649]]],[[[32.553594,30.016245],[32.553292,30.015836],[32.553105,30.015929],[32.553314,30.016355],[32.553594,30.016245]]],[[[32.553194,30.015686],[32.55304,30.015478],[32.55261,30.015646],[32.552754,30.015864],[32.553194,30.015686]]],[[[32.55254,30.015513],[32.55244,30.015325],[32.552034,30.015475],[32.552126,30.015654],[32.55254,30.015513]]],[[[32.552288,30.01472],[32.552104,30.014238],[32.551624,30.014382],[32.551668,30.014498],[32.551887,30.014432],[32.551987,30.014625],[32.551682,30.014743],[32.551781,30.014942],[32.552288,30.01472]]],[[[32.551568,30.012603],[32.551507,30.012174],[32.551104,30.012247],[32.551232,30.012674],[32.551568,30.012603]]],[[[32.551406,30.011467],[32.551325,30.010898],[32.55085,30.010896],[32.550911,30.011483],[32.551406,30.011467]]],[[[32.551214,30.009745],[32.550795,30.009764],[32.550824,30.010187],[32.551207,30.010173],[32.551214,30.009745]]],[[[32.551671,30.008441],[32.552348,30.004848],[32.552391,30.003867],[32.551255,30.003857],[32.551243,30.003987],[32.551592,30.003975],[32.551572,30.004325],[32.551817,30.004319],[32.551818,30.00488],[32.55127,30.004858],[32.551274,30.005679],[32.551558,30.00569],[32.551529,30.00604],[32.551403,30.006033],[32.551394,30.00625],[32.551249,30.006253],[32.551235,30.006683],[32.550948,30.006669],[32.550943,30.006856],[32.550088,30.006916],[32.550085,30.006723],[32.549433,30.00673],[32.54944,30.006914],[32.548864,30.006969],[32.548886,30.007309],[32.548568,30.007423],[32.548643,30.007662],[32.548961,30.007633],[32.548931,30.007423],[32.549767,30.007382],[32.549778,30.007639],[32.549314,30.007654],[32.549319,30.008085],[32.549661,30.008056],[32.549686,30.008326],[32.549939,30.008294],[32.549884,30.007783],[32.55059,30.007736],[32.550591,30.008433],[32.551671,30.008441]]],[[[32.548536,30.007672],[32.548341,30.007434],[32.548401,30.007685],[32.548536,30.007672]]],[[[32.548626,30.007875],[32.548259,30.007957],[32.54863,30.008846],[32.548985,30.008793],[32.548626,30.007875]]],[[[32.549394,30.008582],[32.549311,30.008205],[32.549115,30.008241],[32.549091,30.008628],[32.549394,30.008582]]],[[[32.547177,30.005507],[32.548072,30.005065],[32.548349,30.004696],[32.548532,30.00467],[32.548496,30.003544],[32.548073,30.003553],[32.547991,30.003093],[32.547386,30.003133],[32.547462,30.003425],[32.547067,30.003471],[32.546754,30.002479],[32.546508,30.00252],[32.546301,30.002034],[32.54672,30.001947],[32.546489,30.001341],[32.548243,30.001045],[32.547305,29.997387],[32.546788,29.996247],[32.546816,29.995703],[32.547034,29.995399],[32.547424,29.995225],[32.551325,29.994859],[32.549953,29.983252],[32.550205,29.981932],[32.545711,29.976884],[32.541995,29.979329],[32.54089,29.980847],[32.540213,29.981863],[32.539593,29.983172],[32.539368,29.984393],[32.539391,29.985755],[32.539659,29.987742],[32.539932,29.988774],[32.547177,30.005507]]],[[[32.547493,29.997766],[32.55115,29.997459],[32.551189,29.99819],[32.551754,29.998209],[32.551325,29.994859],[32.547986,29.995154],[32.548001,29.995243],[32.547109,29.995462],[32.546906,29.995754],[32.546872,29.996148],[32.547493,29.997766]]],[[[32.551868,29.999062],[32.55119,29.999136],[32.551231,29.999413],[32.54802,29.99981],[32.548487,30.001603],[32.548528,30.002348],[32.550235,30.002288],[32.550218,30.002136],[32.550428,30.00221],[32.552282,30.002038],[32.551868,29.999062]]],[[[32.547706,29.998607],[32.547937,29.999493],[32.549524,29.999302],[32.549495,29.998931],[32.548965,29.998983],[32.548949,29.998486],[32.547706,29.998607]]],[[[32.549495,29.998931],[32.550078,29.998877],[32.550053,29.998393],[32.549482,29.998431],[32.549495,29.998931]]],[[[32.55185,29.998936],[32.551824,29.998747],[32.551297,29.998784],[32.551327,29.998988],[32.55185,29.998936]]],[[[32.551582,29.998203],[32.550968,29.998169],[32.551007,29.998519],[32.551602,29.998461],[32.551582,29.998203]]],[[[32.548488,30.006053],[32.548497,30.005879],[32.547442,30.006076],[32.547585,30.006382],[32.548245,30.006253],[32.548218,30.006099],[32.548488,30.006053]]],[[[32.491467,29.965323],[32.490448,29.964514],[32.490348,29.964216],[32.48972,29.964808],[32.489562,29.964688],[32.489366,29.964857],[32.489703,29.96528],[32.489282,29.965687],[32.490225,29.96649],[32.491189,29.965915],[32.491002,29.965725],[32.491467,29.965323]]],[[[32.479096,29.980042],[32.478886,29.978182],[32.475282,29.978573],[32.475533,29.980422],[32.479096,29.980042]]],[[[32.476874,29.976408],[32.475805,29.976358],[32.475756,29.977335],[32.476843,29.977362],[32.476874,29.976408]]],[[[32.500309,29.956399],[32.499442,29.956012],[32.493255,29.952215],[32.49286,29.951851],[32.492607,29.951376],[32.49167,29.952538],[32.489968,29.956171],[32.489436,29.957939],[32.490821,29.959612],[32.491572,29.960272],[32.490162,29.963654],[32.490448,29.964514],[32.493653,29.967285],[32.49662,29.96268],[32.495425,29.962178],[32.49518,29.962625],[32.494155,29.962273],[32.494964,29.960165],[32.495962,29.96038],[32.498447,29.959706],[32.500309,29.956399]]],[[[32.504653,30.003851],[32.494281,29.993815],[32.492455,29.996089],[32.491484,29.997074],[32.478607,30.006898],[32.479547,30.014624],[32.483101,30.011882],[32.485375,30.014139],[32.486268,30.017343],[32.501072,30.00681],[32.504653,30.003851]]]]}},{"type":"Feature","properties":{"landuse_value":1,"landuse_code":1,"landuse_label":null,"source_feature_count":15,"area_km2":3392791.967926,"sector":"10"},"geometry":{"type":"MultiPolygon","coordinates":[[[[32.471328,29.926623],[32.465498,29.914596],[32.461877,29.917555],[32.458647,29.920581],[32.45565,29.923784],[32.452901,29.927152],[32.450841,29.930059],[32.455048,29.929998],[32.457665,29.928948],[32.462488,29.927754],[32.467599,29.927017],[32.471328,29.926623]]],[[[31.812911,30.10361],[31.812633,30.100603],[31.804864,30.101461],[31.805238,30.10425],[31.812911,30.10361]]],[[[31.810461,30.108967],[31.81003,30.104645],[31.80532,30.10511],[31.805891,30.109433],[31.810461,30.108967]]],[[[32.472499,30.00263],[32.470297,30.00146],[32.465646,30.006826],[32.471382,30.010109],[32.47504,30.006062],[32.472221,30.003385],[32.472499,30.00263]]],[[[32.478557,30.006529],[32.477161,29.996168],[32.472896,29.996625],[32.470961,29.999501],[32.472398,30.000104],[32.471873,30.002298],[32.472499,30.00263],[32.472221,30.003385],[32.476933,30.007741],[32.478557,30.006529]]],[[[32.470612,29.94313],[32.470409,29.944417],[32.470742,29.947249],[32.471929,29.946306],[32.471812,29.944791],[32.472354,29.944734],[32.4724,29.94455],[32.470612,29.94313]]],[[[32.473236,29.966484],[32.469603,29.966933],[32.46982,29.969182],[32.473518,29.968841],[32.473236,29.966484]]],[[[32.472878,29.963492],[32.472189,29.958248],[32.463611,29.959135],[32.463804,29.960708],[32.466079,29.960441],[32.466437,29.963546],[32.465941,29.963585],[32.466012,29.964188],[32.468184,29.963969],[32.468302,29.964629],[32.469604,29.964496],[32.469542,29.963844],[32.472878,29.963492]]],[[[32.472093,29.964135],[32.472053,29.963812],[32.471532,29.963883],[32.471602,29.964186],[32.472093,29.964135]]],[[[32.463938,29.962594],[32.463611,29.959135],[32.457534,29.959763],[32.458018,29.963246],[32.463938,29.962594]]],[[[32.385306,30.073043],[32.384512,30.071848],[32.381918,30.073252],[32.384458,30.076524],[32.385989,30.075587],[32.38445,30.073534],[32.385306,30.073043]]],[[[32.37916,30.076207],[32.378132,30.075101],[32.376782,30.076016],[32.377654,30.077122],[32.37916,30.076207]]],[[[31.818203,30.106996],[31.817363,30.100758],[31.813264,30.101102],[31.813957,30.107403],[31.818203,30.106996]]],[[[32.467447,29.964043],[32.466012,29.964188],[32.465941,29.963585],[32.466437,29.963546],[32.466079,29.960441],[32.463804,29.960708],[32.464095,29.963231],[32.46094,29.963576],[32.461027,29.964492],[32.46441,29.964147],[32.464475,29.964814],[32.466405,29.964617],[32.466485,29.965064],[32.467609,29.964948],[32.467447,29.964043]]],[[[32.500309,29.956399],[32.498447,29.959706],[32.495962,29.96038],[32.494964,29.960165],[32.494155,29.962273],[32.49518,29.962625],[32.495425,29.962178],[32.49662,29.96268],[32.493653,29.967285],[32.495542,29.968919],[32.497112,29.968974],[32.498439,29.966457],[32.503601,29.957869],[32.500309,29.956399]]]]}},{"type":"Feature","properties":{"landuse_value":5,"landuse_code":5,"landuse_label":"محطة معالجة صرف صحي","source_feature_count":1,"area_km2":2.377728,"sector":"10"},"geometry":{"type":"MultiPolygon","coordinates":[[[[32.454013,29.93879],[32.474581,29.933499],[32.471328,29.926623],[32.467599,29.927017],[32.462488,29.927754],[32.457665,29.928948],[32.455048,29.929998],[32.450841,29.930059],[32.448188,29.93432],[32.446245,29.938089],[32.444716,29.941663],[32.44785,29.940736],[32.450701,29.939534],[32.454013,29.93879]]]]}},{"type":"Feature","properties":{"landuse_value":0,"landuse_code":0,"landuse_label":null,"source_feature_count":24,"area_km2":5099209.26727,"sector":"10"},"geometry":{"type":"MultiPolygon","coordinates":[[[[32.508308,30.059074],[32.508435,30.061392],[32.516904,30.061082],[32.518489,30.056769],[32.506567,30.057141],[32.506592,30.059192],[32.508308,30.059074]]],[[[32.418572,30.058621],[32.419442,30.058796],[32.420811,30.058655],[32.421018,30.062371],[32.429051,30.059767],[32.426899,30.05537],[32.425466,30.054071],[32.418172,30.057978],[32.418572,30.058621]]],[[[32.510408,30.069672],[32.508543,30.069456],[32.508446,30.067342],[32.506373,30.067365],[32.506539,30.069977],[32.508419,30.071893],[32.510408,30.069672]]],[[[32.525464,30.052722],[32.526188,30.046342],[32.52051,30.047837],[32.521036,30.049387],[32.520539,30.049499],[32.520843,30.050462],[32.521796,30.050211],[32.521968,30.050823],[32.518555,30.051612],[32.519391,30.054314],[32.525464,30.052722]]],[[[32.557272,30.020599],[32.556547,30.019701],[32.555038,30.020786],[32.555504,30.021326],[32.554228,30.021818],[32.554466,30.022258],[32.557161,30.02112],[32.556929,30.02078],[32.557272,30.020599]]],[[[32.558028,30.021534],[32.557212,30.021933],[32.557486,30.022221],[32.556759,30.022591],[32.556667,30.02249],[32.556471,30.022677],[32.556614,30.022917],[32.55623,30.023046],[32.556485,30.02388],[32.559162,30.022939],[32.558028,30.021534]]],[[[32.55272,30.017372],[32.552457,30.017463],[32.553339,30.019704],[32.554035,30.019394],[32.554166,30.019577],[32.555229,30.019147],[32.555068,30.018902],[32.555687,30.018635],[32.552696,30.014931],[32.551568,30.012603],[32.551232,30.012674],[32.551104,30.012247],[32.551507,30.012174],[32.551406,30.011467],[32.550911,30.011483],[32.55085,30.010896],[32.551325,30.010898],[32.551467,30.009733],[32.551214,30.009745],[32.551207,30.010173],[32.550824,30.010187],[32.550795,30.009764],[32.549486,30.009824],[32.55272,30.017372]],[[32.553453,30.016543],[32.553736,30.01644],[32.553884,30.016649],[32.553575,30.016755],[32.553453,30.016543]],[[32.553105,30.015929],[32.553292,30.015836],[32.553594,30.016245],[32.553314,30.016355],[32.553105,30.015929]],[[32.552786,30.015855],[32.55261,30.015646],[32.55304,30.015478],[32.553194,30.015686],[32.552786,30.015855]],[[32.55254,30.015513],[32.552126,30.015654],[32.552034,30.015475],[32.55244,30.015325],[32.55254,30.015513]],[[32.551987,30.014625],[32.551887,30.014432],[32.551668,30.014498],[32.551624,30.014382],[32.552104,30.014238],[32.552288,30.01472],[32.551781,30.014942],[32.551682,30.014743],[32.551987,30.014625]],[[32.553917,30.017124],[32.554017,30.017229],[32.554137,30.017152],[32.554321,30.017362],[32.553998,30.017575],[32.553707,30.01727],[32.553917,30.017124]]],[[[32.548636,30.004661],[32.551818,30.00488],[32.551817,30.004319],[32.551572,30.004325],[32.551592,30.003975],[32.551243,30.003987],[32.551255,30.003857],[32.552391,30.003867],[32.552282,30.002038],[32.550428,30.00221],[32.550218,30.002136],[32.550235,30.002288],[32.548528,30.002348],[32.548636,30.004661]]],[[[32.55127,30.004858],[32.548636,30.004661],[32.548568,30.007423],[32.548886,30.007309],[32.548864,30.006969],[32.54944,30.006914],[32.549433,30.00673],[32.550085,30.006723],[32.550088,30.006916],[32.550943,30.006856],[32.550948,30.006669],[32.551235,30.006683],[32.551249,30.006253],[32.551394,30.00625],[32.551403,30.006033],[32.551529,30.00604],[32.551558,30.00569],[32.551274,30.005679],[32.55127,30.004858]]],[[[32.551582,29.998203],[32.551602,29.998461],[32.551007,29.998519],[32.550968,29.998169],[32.550779,29.998152],[32.547648,29.998391],[32.547706,29.998607],[32.548949,29.998486],[32.548965,29.998983],[32.549495,29.998931],[32.549482,29.998431],[32.550053,29.998393],[32.550078,29.998877],[32.549495,29.998931],[32.549524,29.999302],[32.547937,29.999493],[32.54802,29.99981],[32.551231,29.999413],[32.55119,29.999136],[32.551868,29.999062],[32.55185,29.998936],[32.551327,29.998988],[32.551297,29.998784],[32.551824,29.998747],[32.551754,29.998209],[32.551582,29.998203]]],[[[32.551189,29.99819],[32.55115,29.997459],[32.547493,29.997766],[32.547648,29.998391],[32.550472,29.998151],[32.551189,29.99819]]],[[[32.548496,30.003544],[32.548243,30.001045],[32.546489,30.001341],[32.54672,30.001947],[32.546301,30.002034],[32.546508,30.00252],[32.546754,30.002479],[32.547067,30.003471],[32.547462,30.003425],[32.547386,30.003133],[32.547991,30.003093],[32.548073,30.003553],[32.548496,30.003544]]],[[[32.548535,30.004732],[32.548349,30.004696],[32.548072,30.005065],[32.54719,30.005534],[32.547442,30.006076],[32.548497,30.005879],[32.548535,30.004732]]],[[[32.524442,30.055762],[32.519391,30.054314],[32.517919,30.05832],[32.520255,30.059029],[32.524442,30.055762]]],[[[32.526739,30.041485],[32.515852,30.044238],[32.517344,30.048573],[32.526188,30.046342],[32.526739,30.041485]]],[[[32.515852,30.044238],[32.51503,30.041851],[32.517854,30.039146],[32.510874,30.038602],[32.510489,30.044288],[32.515852,30.044238]]],[[[32.517344,30.048573],[32.515852,30.044238],[32.50956,30.044253],[32.509646,30.048574],[32.517344,30.048573]]],[[[32.518853,30.052576],[32.517344,30.048573],[32.507645,30.048598],[32.507767,30.052856],[32.518853,30.052576]]],[[[32.518489,30.056769],[32.519391,30.054314],[32.518853,30.052576],[32.507767,30.052856],[32.507889,30.057114],[32.518489,30.056769]]],[[[32.516904,30.061082],[32.510262,30.061381],[32.510408,30.069672],[32.516076,30.063337],[32.516904,30.061082]]],[[[32.520255,30.059029],[32.517919,30.05832],[32.516076,30.063337],[32.519543,30.059595],[32.520255,30.059029]]],[[[32.519391,30.054314],[32.524442,30.055762],[32.525184,30.055184],[32.525464,30.052722],[32.519391,30.054314]]],[[[32.524002,30.039681],[32.515183,30.042295],[32.515852,30.044238],[32.526739,30.041485],[32.526915,30.039935],[32.524002,30.039681]]],[[[32.524002,30.039681],[32.517854,30.039146],[32.51503,30.041851],[32.515183,30.042295],[32.524002,30.039681]]]]}},{"type":"Feature","properties":{"landuse_value":5,"landuse_code":5,"landuse_label":null,"source_feature_count":6,"area_km2":2151401.142624,"sector":"10"},"geometry":{"type":"MultiPolygon","coordinates":[[[[31.842337,30.031753],[31.835709,30.032845],[31.829053,30.033184],[31.835169,30.054285],[31.827397,30.056384],[31.837115,30.088772],[31.838965,30.088347],[31.836134,30.07962],[31.842969,30.077917],[31.840929,30.07156],[31.854103,30.069838],[31.852082,30.054328],[31.849752,30.054533],[31.850046,30.047746],[31.844861,30.048638],[31.844154,30.046456],[31.844513,30.045222],[31.842337,30.031753]]],[[[32.469329,30.018611],[32.466334,30.016501],[32.463826,30.019315],[32.462107,30.021548],[32.459491,30.024534],[32.465411,30.026818],[32.466496,30.024978],[32.470576,30.022416],[32.472188,30.021929],[32.469329,30.018611]]],[[[32.475497,30.014491],[32.475876,30.0164],[32.4733,30.017198],[32.474759,30.021152],[32.480129,30.019412],[32.479251,30.012191],[32.477126,30.012284],[32.4773,30.013367],[32.476693,30.013373],[32.476784,30.014374],[32.475497,30.014491]]],[[[31.970355,30.09439],[31.967061,30.088899],[31.960604,30.091403],[31.965322,30.101206],[31.9729,30.098071],[31.970355,30.09439]]],[[[31.970355,30.09439],[31.9729,30.098071],[31.976008,30.096785],[31.974211,30.092898],[31.970355,30.09439]]],[[[31.967061,30.088899],[31.968031,30.090485],[31.971177,30.089614],[31.970129,30.087709],[31.967061,30.088899]]]]}},{"type":"Feature","properties":{"landuse_value":4,"landuse_code":4,"landuse_label":null,"source_feature_count":6,"area_km2":1005226.313609,"sector":"10"},"geometry":{"type":"MultiPolygon","coordinates":[[[[32.057743,30.071742],[32.057321,30.070466],[32.055096,30.071146],[32.05545,30.072362],[32.057743,30.071742]]],[[[32.421377,30.07165],[32.420811,30.058655],[32.419442,30.058796],[32.418572,30.058621],[32.419214,30.059653],[32.419075,30.06009],[32.417926,30.06094],[32.41781,30.061218],[32.415706,30.061368],[32.415723,30.062383],[32.411557,30.063001],[32.410289,30.060827],[32.415883,30.058445],[32.414615,30.056271],[32.410007,30.058274],[32.409535,30.05752],[32.404903,30.059657],[32.407444,30.065123],[32.408319,30.074233],[32.411429,30.073999],[32.412613,30.073227],[32.417331,30.073061],[32.417302,30.071849],[32.421377,30.07165]]],[[[32.426899,30.05537],[32.429051,30.059767],[32.430948,30.059167],[32.431501,30.058434],[32.430477,30.053596],[32.429539,30.053572],[32.427063,30.054774],[32.426899,30.05537]]],[[[32.490785,30.015413],[32.486653,30.018195],[32.493249,30.025249],[32.499273,30.023024],[32.503389,30.017987],[32.497218,30.011406],[32.490785,30.015413]]],[[[32.440448,30.048983],[32.444919,30.047381],[32.44786,30.053972],[32.443401,30.055784],[32.44482,30.059053],[32.450279,30.058174],[32.455449,30.055081],[32.449521,30.043937],[32.439832,30.047563],[32.440448,30.048983]]],[[[32.457898,30.047901],[32.460273,30.057427],[32.464242,30.056543],[32.464034,30.055591],[32.467799,30.054753],[32.465234,30.046214],[32.457898,30.047901]]]]}},{"type":"Feature","properties":{"landuse_value":7,"landuse_code":7,"landuse_label":null,"source_feature_count":1,"area_km2":1.388136,"sector":"10"},"geometry":{"type":"MultiPolygon","coordinates":[[[[32.457693,30.010639],[32.451075,30.006322],[32.448412,30.011086],[32.449388,30.014717],[32.460944,30.021934],[32.466015,30.016359],[32.457693,30.010639]]]]}},{"type":"Feature","properties":{"landuse_value":13,"landuse_code":13,"landuse_label":null,"source_feature_count":2,"area_km2":36379.634528,"sector":"10"},"geometry":{"type":"MultiPolygon","coordinates":[[[[32.471483,30.0107],[32.470027,30.009847],[32.468851,30.011048],[32.470223,30.011803],[32.471483,30.0107]]],[[[32.468357,30.0105],[32.467928,30.010213],[32.467034,30.011073],[32.467678,30.011524],[32.468357,30.0105]]]]}},{"type":"Feature","properties":{"landuse_value":8,"landuse_code":8,"landuse_label":null,"source_feature_count":1,"area_km2":26271.263686,"sector":"10"},"geometry":{"type":"MultiPolygon","coordinates":[[[[32.548001,29.995243],[32.547986,29.995154],[32.547483,29.995216],[32.547087,29.99536],[32.546847,29.995629],[32.546759,29.996056],[32.547305,29.997387],[32.548384,30.001616],[32.548535,30.004732],[32.548466,30.007486],[32.552622,30.017403],[32.55272,30.017372],[32.548568,30.007471],[32.548639,30.004732],[32.548487,30.001603],[32.547406,29.997367],[32.546863,29.996053],[32.546933,29.995686],[32.547126,29.995449],[32.548001,29.995243]]]]}},{"type":"Feature","properties":{"landuse_value":10,"landuse_code":10,"landuse_label":null,"source_feature_count":1,"area_km2":11.324143,"sector":"10"},"geometry":{"type":"MultiPolygon","coordinates":[[[[31.648243,30.118028],[31.65596,30.115768],[31.660166,30.114694],[31.661969,30.114048],[31.664259,30.112839],[31.666947,30.111164],[31.668733,30.11057],[31.669931,30.110392],[31.701448,30.111016],[31.706224,30.111294],[31.709134,30.111104],[31.720249,30.109324],[31.737908,30.106043],[31.764929,30.103611],[31.788152,30.101174],[31.825489,30.097551],[31.834181,30.096767],[31.841439,30.096358],[31.847709,30.095791],[31.850136,30.095439],[31.858121,30.093737],[31.862017,30.093275],[31.882471,30.089768],[31.887607,30.089141],[31.943061,30.086657],[31.944845,30.086751],[31.951342,30.087792],[31.953326,30.087928],[31.962073,30.087338],[31.988253,30.083209],[32.005503,30.081301],[32.014902,30.079848],[32.020214,30.079181],[32.04139,30.076953],[32.046682,30.076138],[32.050432,30.075424],[32.078969,30.067636],[32.086812,30.066083],[32.089371,30.065736],[32.102018,30.064849],[32.132121,30.063354],[32.139894,30.063404],[32.156222,30.06389],[32.159862,30.063909],[32.169053,30.064247],[32.172099,30.064661],[32.177219,30.065689],[32.194388,30.069953],[32.196343,30.070739],[32.203486,30.075001],[32.204756,30.075972],[32.210517,30.081708],[32.21168,30.082561],[32.213851,30.083613],[32.218352,30.084923],[32.2251,30.086072],[32.226906,30.086286],[32.232135,30.08655],[32.236079,30.087132],[32.240697,30.088273],[32.245781,30.089745],[32.250365,30.090825],[32.260967,30.092197],[32.272475,30.093493],[32.281874,30.094492],[32.28549,30.094728],[32.289476,30.094842],[32.301449,30.093447],[32.303255,30.093001],[32.314348,30.088769],[32.316054,30.088441],[32.328241,30.087123],[32.331106,30.086384],[32.338065,30.083693],[32.341543,30.082011],[32.354064,30.076641],[32.37091,30.071069],[32.390892,30.064685],[32.404166,30.059997],[32.414081,30.055429],[32.420198,30.052435],[32.431089,30.046897],[32.435054,30.044733],[32.451233,30.033644],[32.4524,30.032534],[32.455981,30.028535],[32.462107,30.021548],[32.463826,30.019315],[32.466952,30.015802],[32.491141,29.997357],[32.492101,29.996493],[32.50725,29.977578],[32.51192,29.970426],[32.512375,29.969496],[32.512659,29.968481],[32.513478,29.962025],[32.513136,29.961914],[32.51231,29.968434],[32.51204,29.9694],[32.51161,29.97028],[32.506956,29.977409],[32.491829,29.996297],[32.490907,29.997128],[32.467194,30.015142],[32.459612,30.023295],[32.452336,30.031536],[32.450707,30.033158],[32.433764,30.044702],[32.423393,30.05008],[32.422106,30.050683],[32.421034,30.051019],[32.419728,30.051284],[32.41813,30.051371],[32.414178,30.051016],[32.411958,30.051089],[32.409499,30.051465],[32.407312,30.052124],[32.405269,30.053027],[32.403216,30.054361],[32.40178,30.055598],[32.396734,30.060653],[32.394949,30.061949],[32.393111,30.062967],[32.388949,30.064446],[32.370582,30.070309],[32.353712,30.075889],[32.351682,30.076685],[32.342407,30.080776],[32.330686,30.085423],[32.328038,30.08611],[32.315886,30.087423],[32.314049,30.087773],[32.302012,30.092275],[32.289347,30.093819],[32.285563,30.093702],[32.279719,30.093236],[32.261133,30.091179],[32.250584,30.089814],[32.24611,30.088757],[32.241057,30.087294],[32.23635,30.086131],[32.232265,30.085527],[32.226999,30.085261],[32.225299,30.085058],[32.218662,30.08393],[32.217627,30.083666],[32.214279,30.082654],[32.212352,30.081714],[32.211041,30.080697],[32.205566,30.075222],[32.204188,30.074172],[32.196915,30.069839],[32.194733,30.06897],[32.176031,30.064367],[32.172329,30.063653],[32.169125,30.063221],[32.159903,30.062881],[32.156249,30.062862],[32.139923,30.062375],[32.132069,30.062327],[32.101931,30.063823],[32.089251,30.064713],[32.086612,30.065069],[32.078632,30.06665],[32.050105,30.074436],[32.046459,30.075128],[32.041232,30.075934],[32.020048,30.078163],[32.014702,30.078834],[32.005342,30.080282],[31.988071,30.082193],[31.96194,30.086316],[31.953361,30.086899],[31.951539,30.086777],[31.945031,30.085736],[31.943021,30.085629],[31.887496,30.088117],[31.88226,30.088756],[31.861815,30.092262],[31.857914,30.092724],[31.849882,30.094434],[31.847543,30.094773],[31.841335,30.095334],[31.834068,30.095743],[31.82536,30.096529],[31.788019,30.100153],[31.764801,30.102589],[31.737755,30.105024],[31.720008,30.108318],[31.708988,30.110083],[31.706235,30.110265],[31.701474,30.109988],[31.669822,30.109366],[31.668416,30.109579],[31.666434,30.110237],[31.662086,30.112832],[31.659766,30.113726],[31.655586,30.114793],[31.648526,30.11691],[31.647011,30.117131],[31.645524,30.117106],[31.638032,30.115496],[31.626621,30.113683],[31.624543,30.112953],[31.621368,30.111243],[31.619574,30.110465],[31.605915,30.105583],[31.604586,30.105232],[31.587709,30.102497],[31.586314,30.102366],[31.579934,30.101174],[31.577888,30.100718],[31.572221,30.099171],[31.5704,30.098405],[31.564446,30.094238],[31.561936,30.093008],[31.540814,30.085699],[31.539518,30.085325],[31.535364,30.084473],[31.532933,30.084284],[31.530482,30.08463],[31.490357,30.093886],[31.486898,30.09433],[31.483321,30.094362],[31.480716,30.094107],[31.478192,30.093621],[31.46486,30.089775],[31.46086,30.088019],[31.449974,30.08215],[31.446678,30.08083],[31.44469,30.080289],[31.442609,30.079904],[31.435533,30.079253],[31.435485,30.079974],[31.44297,30.080692],[31.445403,30.081217],[31.447734,30.081978],[31.44981,30.0829],[31.460672,30.08876],[31.464549,30.090444],[31.477816,30.094278],[31.48035,30.094785],[31.483039,30.09507],[31.486869,30.095056],[31.490535,30.094591],[31.53067,30.085333],[31.532907,30.085008],[31.535132,30.085169],[31.539309,30.086023],[31.540526,30.086376],[31.561583,30.093662],[31.563955,30.09482],[31.569931,30.099001],[31.571963,30.099857],[31.57765,30.10141],[31.579751,30.101878],[31.591202,30.104098],[31.602883,30.105956],[31.605489,30.106542],[31.619092,30.111404],[31.620783,30.112137],[31.624002,30.113869],[31.626308,30.114675],[31.637787,30.116502],[31.645415,30.118131],[31.647074,30.118158],[31.648243,30.118028]],[[32.412927,30.051692],[32.415082,30.051726],[32.418117,30.052038],[32.420272,30.051871],[32.413835,30.055031],[32.403966,30.05958],[32.396324,30.06222],[32.396261,30.062103],[32.397408,30.061215],[32.402687,30.055938],[32.404926,30.054209],[32.406314,30.053429],[32.407758,30.052805],[32.409725,30.052207],[32.412927,30.051692]]]]}}]}