{"type":"FeatureCollection","name":"Study_Area_cairo_suez","xy_coordinate_resolution":8.98315e-10,"z_coordinate_resolution":0.0001,"features":[{"type":"Feature","properties":{"اسم_المحور":"2","مساحة_المنطقة_كم2":null,"اسم_القطاع":"10","Shape_Length":225178.39555869412,"Shape_Area":1408244507.8989277},"geometry":{"type":"Polygon","coordinates":[[[31.6116772566,30.051730855],[31.6069355381,30.0451174036],[31.686626584,30.0442651089],[31.731597155,30.0442651094],[31.7378749259,30.0443858356],[31.7387200111,30.0447480152],[31.7488413233,30.0412257991],[31.7501158557,30.0425519815],[31.7518848241,30.0436229104],[31.7554887665,30.0442072389],[31.7575054886,30.0437501055],[31.7593210914,30.0427602956],[31.7607979252,30.0413128498],[31.7618240254,30.0395175066],[31.7798877006,30.0390135121],[31.7794913969,30.0378741367],[31.8229286785,30.0336511035],[31.8357088391,30.0328453883],[31.868806453,30.0270628061],[31.8789681307,30.0258749894],[31.9382277675,30.0231868358],[31.9467166579,30.0231735219],[31.9553153309,30.0237448054],[31.9768152027,30.020329958],[32.0305921223,30.0139244266],[32.0613731288,30.005861194],[32.075314251,30.0032045248],[32.0840471773,30.0022493641],[32.1017307447,30.0010426638],[32.1289637826,29.9997171031],[32.1569310994,30.0000526983],[32.1748709569,30.0008081066],[32.1842811789,30.0018769724],[32.2131953561,30.0083440459],[32.2221869488,30.0109876628],[32.2347823103,30.0163397338],[32.2475540129,30.0240593421],[32.2678409097,30.0286516572],[32.2845599996,30.030662468],[32.295659268,30.0272677808],[32.3088458762,30.0251878406],[32.3247390198,30.0184955786],[32.3534781327,30.0089049351],[32.3603594126,30.0037813293],[32.3656015965,30.000407327],[32.3738066564,29.99625736],[32.3860035359,29.9919446713],[32.3979678425,29.9893148624],[32.4145435927,29.9721129388],[32.437506209,29.9541133259],[32.4428531106,29.9473009074],[32.4462445102,29.9380893788],[32.4504094397,29.9306684971],[32.4529005193,29.9271517553],[32.4586465306,29.9205808276],[32.4654984553,29.9145957727],[32.4786499654,29.9425463158],[32.4909767412,29.9490499167],[32.4920369394,29.9500626434],[32.4932553747,29.952214686],[32.4994424991,29.9560124089],[32.5098387661,29.9600949618],[32.5133412623,29.9620355442],[32.5179880469,29.9616931697],[32.5362645887,29.9639401564],[32.5374197295,29.9652693594],[32.5496832113,29.9725166814],[32.548607189,29.97506432],[32.5457114249,29.9768840621],[32.5502053965,29.9819318692],[32.5499528957,29.9832524191],[32.5524253717,30.0030708591],[32.5513050308,30.0107587143],[32.5515754577,30.0126517032],[32.5526957989,30.014931017],[32.5591622531,30.022938699],[32.5522708422,30.025361775],[32.553159388,30.0282205754],[32.5541542531,30.0293812518],[32.5465584189,30.0381255233],[32.5399433253,30.0439620947],[32.5195428257,30.0595953559],[32.5056297705,30.0748566275],[32.4989407877,30.0807202866],[32.4886376756,30.0880183422],[32.4763300311,30.0960116259],[32.4592362253,30.1052685337],[32.4534280545,30.1078807578],[32.4310253534,30.1134413174],[32.4225745083,30.1264797641],[32.4154516515,30.1351116992],[32.410320782,30.1379487694],[32.4056124531,30.1392767594],[32.3849078817,30.1435625453],[32.3622716875,30.1526773848],[32.3589517128,30.1535224704],[32.3361344302,30.1566009922],[32.3095746298,30.1663194648],[32.2927936654,30.1698205294],[32.2849464512,30.1704845238],[32.2809021181,30.1703637978],[32.2636382485,30.1679492713],[32.2516259743,30.1652329274],[32.2530746908,30.1496592259],[32.2166381997,30.1547698193],[32.2114802126,30.1543277052],[32.1926167186,30.1475486373],[32.1741953372,30.1437169902],[32.1599003454,30.1434222483],[32.1009519249,30.139443229],[32.0666144704,30.1385590026],[31.9677284939,30.1581593531],[31.956086181,30.1587488371],[31.9170328534,30.1619910004],[31.7981777465,30.1693376243],[31.7731270251,30.1700619824],[31.7565875126,30.1655347427],[31.7113151263,30.1750721262],[31.6829444304,30.1801426341],[31.6650769282,30.182315708],[31.6477526954,30.1839455141],[31.6324808094,30.1827986143],[31.591011303,30.1761586642],[31.5924093142,30.1724354621],[31.592432752,30.1639636986],[31.590860648,30.1584178134],[31.5855684164,30.1498653809],[31.5834658238,30.1438251501],[31.5830289179,30.1377748272],[31.5842318134,30.1300659252],[31.5844031962,30.1261896718],[31.5840181232,30.1231746148],[31.5827852646,30.1193883187],[31.5827512665,30.1170516919],[31.5862256005,30.1027834114],[31.5897097695,30.0856267847],[31.5914192705,30.0836847292],[31.5975168048,30.0814231744],[31.599630385,30.0795507239],[31.6118942038,30.055447889],[31.612189263,30.0531963777],[31.6116772566,30.051730855]]]}}]}
