{
"type": "FeatureCollection",
"name": "Dabaa_Road",
"xy_coordinate_resolution": 8.98315e-10,
"z_coordinate_resolution": 0.0001,
"features": [
{"type":"Feature","properties":{"OID_":0,"Name":"محور الضبعة","FolderPath":" ","SymbolID":0,"AltMode":0,"Base":0.0,"Clamped":0,"Extruded":0,"Snippet":" ","PopupInfo":" ","Shape_Leng":0.0,"length":149.76508004461576,"GlobalID":"{7A1984A0-1B7B-4340-9CC7-CD90574BFD46}","SHAPE_Length":149765.08004461575},"geometry":{"type":"LineString","coordinates":[[29.6945628514,30.3060069934,0.0],[29.7206599203,30.2819482077,0.0],[29.7405103635,30.26211784,0.0],[29.799656886,30.2078450048,0.0],[29.808503837,30.1992809509,0.0],[29.8153848251,30.1937223481,0.0],[29.8189780298,30.1913092552,0.0],[29.8269152461,30.1863482342,0.0],[29.8331466106,30.1831778366,0.0],[29.8400928879,30.1803106685,0.0],[29.932775206,30.1452733868,0.0],[29.9383656601,30.142306234,0.0],[29.9441389863,30.1384555569,0.0],[29.9644023547,30.1213781963,0.0],[29.974592532,30.1142676092,0.0],[29.981230036,30.1108458236,0.0],[29.9889610773,30.1078009636,0.0],[29.9962965998,30.1057194937,0.0],[30.0044640506,30.1042090077,0.0],[30.0121502016,30.1035173735,0.0],[30.0191747076,30.1036228949,0.0],[30.0843276194,30.1077257143,0.0],[30.1023477265,30.1100677231,0.0],[30.1100118031,30.1106292165,0.0],[30.1237118129,30.1102944377,0.0],[30.1497048161,30.1105542216,0.0],[30.1958160183,30.1096893109,0.0],[30.3091588238,30.1162325896,0.0],[30.3184033833,30.1171350227,0.0],[30.329326513,30.1191312697,0.0],[30.3399523836,30.1221030939,0.0],[30.4650694808,30.1661112941,0.0],[30.4726844461,30.1681024569,0.0],[30.4795907302,30.169413801,0.0],[30.4874677274,30.1703641966,0.0],[30.4954078067,30.1707528337,0.0],[30.6176025999,30.1681473287,0.0],[30.6229918745,30.1676409191,0.0],[30.6282992154,30.1666828128,0.0],[30.6334745791,30.1652820406,0.0],[30.639078419,30.1631936465,0.0],[30.6443866742,30.1605867403,0.0],[30.6493360427,30.1574924164,0.0],[30.6924057331,30.1230795992,0.0],[30.6962042564,30.1196823431,0.0],[30.7015281609,30.1135362859,0.0],[30.7056913577,30.1067469296,0.0],[30.7078396013,30.1017555829,0.0],[30.7143882486,30.0823784869,0.0],[30.7172563785,30.0772276067,0.0],[30.7211212086,30.073109123,0.0],[30.7255447195,30.0700607351,0.0],[30.7305954625,30.0678707001,0.0],[30.7360566073,30.0666330319,0.0],[30.868113509,30.0674852413,0.0],[30.89911126,30.0680441223,0.0],[30.9027015984,30.0684412769,0.0],[30.9076999088,30.0695831128,0.0],[30.9313873444,30.0772256059,0.0],[30.9347901499,30.0797981415,0.0],[30.9371832255,30.0838353701,0.0],[30.938872828,30.0858692231,0.0],[30.9424208834,30.088520853,0.0],[30.9473948715,30.0903305507,0.0],[30.9565808037,30.0908834221,0.0],[30.9626245566,30.0925695082,0.0],[30.9678761862,30.0956694886,0.0],[30.9755789353,30.1031395712,0.0],[30.978088391,30.1049587944,0.0],[30.9827707004,30.1071185412,0.0],[30.9879302111,30.108174408,0.0],[30.9916047039,30.1082192943,0.0],[31.0138270573,30.1055735304,0.0],[31.0218989599,30.1026104284,0.0],[31.0425147361,30.0928837941,0.0],[31.047201633,30.0915513183,0.0],[31.0513692855,30.0913207467,0.0],[31.0611905793,30.0921890403,0.0],[31.0678894013,30.0933580724,0.0],[31.0744293822,30.0950779274,0.0]]}},
{"type":"Feature","properties":{"OID_":null,"Name":"وصلة دهشور الجنوبية","FolderPath":null,"SymbolID":null,"AltMode":null,"Base":null,"Clamped":null,"Extruded":null,"Snippet":null,"PopupInfo":null,"Shape_Leng":null,"length":17.288521823838252,"GlobalID":"{B8E8F13D-796B-420E-8BC4-5E06D455C5CE}","SHAPE_Length":17288.457173004925},"geometry":{"type":"LineString","coordinates":[[30.9131536583,29.933296383,0.0],[30.900214706,29.947727591,0.0],[30.8952280745,29.955690435,0.0],[30.8906407362,29.9613293993,0.0],[30.8845195935,29.9667746986,0.0],[30.8813456494,29.9684397571,0.0],[30.8747422544,29.9710085907,0.0],[30.8696094347,29.9746446201,0.0],[30.8552490685,29.9912234108,0.0],[30.8524273584,29.9951804665,0.0],[30.85006812,29.9993606647,0.0],[30.8471328119,30.0071758154,0.0],[30.8457166153,30.0159862905,0.0],[30.8458908415,30.0674118016,0.0]]}},
{"type":"Feature","properties":{"OID_":null,"Name":"طريق اسكندرية الصحراوي","FolderPath":null,"SymbolID":null,"AltMode":null,"Base":null,"Clamped":null,"Extruded":null,"Snippet":null,"PopupInfo":null,"Shape_Leng":null,"length":68.012410794105293,"GlobalID":"{DC8A0104-B3D1-4D05-8E05-0587B0E29B76}","SHAPE_Length":68012.054002550838},"geometry":{"type":"LineString","coordinates":[[31.111294494,30.0032431804,0.0],[31.1058809005,30.0077943306,0.0],[31.0983108933,30.019872913,0.0],[31.0967452174,30.0235271946,0.0],[31.0955304472,30.0247605897,0.0],[31.0932733626,30.0255044593,0.0],[31.0876076655,30.0253711873,0.0],[31.0837113443,30.0241458968,0.0],[31.0784475023,30.0236004104,0.0],[31.0734011477,30.022044028,0.0],[31.0712543998,30.0220874124,0.0],[31.0692671831,30.0227954436,0.0],[31.0658983612,30.0252727915,0.0],[31.0633613019,30.0277452263,0.0],[31.0615385452,30.0323359973,0.0],[31.0569268362,30.040207978,0.0],[31.0537223831,30.0452227446,0.0],[31.050864191,30.0480571369,0.0],[30.9988814028,30.0793460021,0.0],[30.9896330668,30.0845753791,0.0],[30.9724149705,30.0891052111,0.0],[30.9697838286,30.0893352581,0.0],[30.9674542523,30.0890542105,0.0],[30.964486199,30.087951022,0.0],[30.9551968601,30.0822799233,0.0],[30.9442822773,30.0745672245,0.0],[30.9417809628,30.0736039897,0.0],[30.9387921152,30.073318668,0.0],[30.878622194,30.0875056848,0.0],[30.8765901524,30.0883070432,0.0],[30.8741801484,30.0904579347,0.0],[30.8730978324,30.0933097308,0.0],[30.873507494,30.1050985596,0.0],[30.8753149983,30.1179634469,0.0],[30.8756042031,30.1238838057,0.0],[30.8748672604,30.1273430789,0.0],[30.8726848313,30.1306194533,0.0],[30.8708873656,30.1321268778,0.0],[30.7845186546,30.1900595058,0.0],[30.7711658131,30.2013558306,0.0],[30.741748186,30.2274691072,0.0],[30.7395089364,30.2286948633,0.0],[30.7369947231,30.2294138608,0.0],[30.7130792094,30.2325522939,0.0],[30.7068517045,30.2348358309,0.0],[30.6227406205,30.2761215322,0.0],[30.6068183661,30.2842806069,0.0],[30.5975250182,30.2898787207,0.0],[30.5698453457,30.3036229595,0.0]]}}
]
}
