{"type":"FeatureCollection","features":[{"type":"Feature","properties":{"source_layer":"Field_Points","source_feature_count":1,"Id":null,"x":null,"y":null,"GlobalID":"{2C9C9DB6-DEC5-4259-9450-56E71B16FA2A}"},"geometry":{"type":"Point","coordinates":[30.764653,30.131684]}},{"type":"Feature","properties":{"source_layer":"Field_Points","source_feature_count":1,"Id":null,"x":null,"y":null,"GlobalID":"{F15E6178-309F-47B0-8C31-C24C5F8FF6F2}"},"geometry":{"type":"Point","coordinates":[30.672884,30.162796]}},{"type":"Feature","properties":{"source_layer":"Field_Points","source_feature_count":1,"Id":null,"x":null,"y":null,"GlobalID":"{0985E652-3FA9-4561-9827-B5673A78ED68}"},"geometry":{"type":"Point","coordinates":[30.582926,30.163164]}},{"type":"Feature","properties":{"source_layer":"Field_Points","source_feature_count":1,"Id":null,"x":null,"y":null,"GlobalID":"{A087D9D5-AC90-40BC-8521-DC9117006FBB}"},"geometry":{"type":"Point","coordinates":[30.496178,30.172128]}},{"type":"Feature","properties":{"source_layer":"Field_Points","source_feature_count":1,"Id":null,"x":null,"y":null,"GlobalID":"{6E4ACD71-2853-4054-9F72-33CD7663A210}"},"geometry":{"type":"Point","coordinates":[30.422763,30.150585]}},{"type":"Feature","properties":{"source_layer":"Field_Points","source_feature_count":1,"Id":null,"x":null,"y":null,"GlobalID":"{EC407C9C-AF7B-49F4-8262-AEBA88F7F4C9}"},"geometry":{"type":"Point","coordinates":[30.339366,30.128011]}},{"type":"Feature","properties":{"source_layer":"Field_Points","source_feature_count":1,"Id":null,"x":null,"y":null,"GlobalID":"{BD2FC00C-796C-4A28-90C4-2B56A35CB904}"},"geometry":{"type":"Point","coordinates":[30.188944,30.11519]}},{"type":"Feature","properties":{"source_layer":"Field_Points","source_feature_count":1,"Id":null,"x":null,"y":null,"GlobalID":"{07B115A4-8DEE-4BB6-BE3B-E3AB26A96B52}"},"geometry":{"type":"Point","coordinates":[30.070849,30.113112]}},{"type":"Feature","properties":{"source_layer":"Field_Points","source_feature_count":1,"Id":null,"x":null,"y":null,"GlobalID":"{7639E5EF-AE35-46FD-AAA8-A9CCE96049CC}"},"geometry":{"type":"Point","coordinates":[29.994896,30.136607]}},{"type":"Feature","properties":{"source_layer":"Field_Points","source_feature_count":1,"Id":null,"x":null,"y":null,"GlobalID":"{AF49E792-D709-4F23-AF69-2557F05B0B0E}"},"geometry":{"type":"Point","coordinates":[29.884477,30.170655]}},{"type":"Feature","properties":{"source_layer":"Field_Points","source_feature_count":1,"Id":null,"x":null,"y":null,"GlobalID":"{AFED9208-3A9E-4E1D-9AE9-77EA157C8894}"},"geometry":{"type":"Point","coordinates":[29.81926,30.218768]}},{"type":"Feature","properties":{"source_layer":"Field_Points","source_feature_count":1,"Id":null,"x":null,"y":null,"GlobalID":"{FC4328E4-305C-4374-99C3-1ADF276659D8}"},"geometry":{"type":"Point","coordinates":[29.749592,30.272858]}},{"type":"Feature","properties":{"source_layer":"Field_Points","source_feature_count":1,"Id":null,"x":null,"y":null,"GlobalID":"{8D03DA9F-FA4E-414C-8837-0C78FD1935B1}"},"geometry":{"type":"Point","coordinates":[29.88786,30.129852]}},{"type":"Feature","properties":{"source_layer":"Field_Points","source_feature_count":1,"Id":null,"x":null,"y":null,"GlobalID":"{7B3E3B40-8C2B-4619-B3C7-667EB16DE24E}"},"geometry":{"type":"Point","coordinates":[29.994451,30.074894]}},{"type":"Feature","properties":{"source_layer":"Field_Points","source_feature_count":1,"Id":null,"x":null,"y":null,"GlobalID":"{F24F6D9C-8034-4D5C-84E8-EC695310B76D}"},"geometry":{"type":"Point","coordinates":[30.074823,30.061105]}},{"type":"Feature","properties":{"source_layer":"Field_Points","source_feature_count":1,"Id":null,"x":null,"y":null,"GlobalID":"{7BDEF544-1A81-4D0F-B957-7F2361FD2CA9}"},"geometry":{"type":"Point","coordinates":[30.135376,30.088178]}},{"type":"Feature","properties":{"source_layer":"Field_Points","source_feature_count":1,"Id":null,"x":null,"y":null,"GlobalID":"{169759C1-E442-4BB9-AE33-55EF401B5E48}"},"geometry":{"type":"Point","coordinates":[30.259513,30.099106]}},{"type":"Feature","properties":{"source_layer":"Field_Points","source_feature_count":1,"Id":null,"x":null,"y":null,"GlobalID":"{37535493-D895-4DD8-9EA0-72BB549F07D4}"},"geometry":{"type":"Point","coordinates":[30.45168,30.143429]}},{"type":"Feature","properties":{"source_layer":"Field_Points","source_feature_count":1,"Id":null,"x":null,"y":null,"GlobalID":"{DFE27974-E3F4-4867-8AE6-578BF30680DB}"},"geometry":{"type":"Point","coordinates":[30.524513,30.086245]}},{"type":"Feature","properties":{"source_layer":"Field_Points","source_feature_count":1,"Id":null,"x":null,"y":null,"GlobalID":"{8CE27494-4F7A-4ED7-8D8C-B45072DA271B}"},"geometry":{"type":"Point","coordinates":[30.644981,30.084933]}},{"type":"Feature","properties":{"source_layer":"Field_Points","source_feature_count":1,"Id":null,"x":null,"y":null,"GlobalID":"{7C38C48A-FB4B-42B6-93AE-C6FF5DEBC29E}"},"geometry":{"type":"Point","coordinates":[30.704861,29.946867]}},{"type":"Feature","properties":{"source_layer":"Field_Points","source_feature_count":1,"Id":null,"x":null,"y":null,"GlobalID":"{13B7D784-7CE7-4658-8C40-1F6CF1441B80}"},"geometry":{"type":"Point","coordinates":[30.879474,29.95218]}},{"type":"Feature","properties":{"source_layer":"Field_Points","source_feature_count":1,"Id":null,"x":null,"y":null,"GlobalID":"{C5B06ED1-E73A-4D5F-AA50-44BD785A02DE}"},"geometry":{"type":"Point","coordinates":[30.943265,29.982433]}},{"type":"Feature","properties":{"source_layer":"Field_Points","source_feature_count":1,"Id":null,"x":null,"y":null,"GlobalID":"{CCA598C1-168C-4FD2-9F64-22F8B7EFA299}"},"geometry":{"type":"Point","coordinates":[30.980141,30.057001]}},{"type":"Feature","properties":{"source_layer":"Field_Points","source_feature_count":1,"Id":null,"x":null,"y":null,"GlobalID":"{D598A442-AC11-41E9-A063-5C6D8B942255}"},"geometry":{"type":"Point","coordinates":[31.048429,30.072952]}},{"type":"Feature","properties":{"source_layer":"Field_Points","source_feature_count":1,"Id":null,"x":null,"y":null,"GlobalID":"{0C5FD442-19B0-4696-BDD0-7555D3A86A30}"},"geometry":{"type":"Point","coordinates":[30.909976,30.098869]}},{"type":"Feature","properties":{"source_layer":"Field_Points","source_feature_count":1,"Id":null,"x":null,"y":null,"GlobalID":"{92209111-B4DC-4753-9AFA-17B214159A7F}"},"geometry":{"type":"Point","coordinates":[30.746884,30.088415]}},{"type":"Feature","properties":{"source_layer":"Field_Points","source_feature_count":1,"Id":null,"x":null,"y":null,"GlobalID":"{4230CB9B-AFAE-4288-87E0-DB404965B35F}"},"geometry":{"type":"Point","coordinates":[30.333023,30.220866]}},{"type":"Feature","properties":{"source_layer":"Field_Points","source_feature_count":1,"Id":null,"x":null,"y":null,"GlobalID":"{F909C15B-8D31-4E73-9B06-26620633A334}"},"geometry":{"type":"Point","coordinates":[30.06815,30.00224]}},{"type":"Feature","properties":{"source_layer":"Field_Points","source_feature_count":1,"Id":null,"x":null,"y":null,"GlobalID":"{6E15067B-A6AB-4184-B541-50EEDA90AAA7}"},"geometry":{"type":"Point","coordinates":[29.828476,30.296108]}},{"type":"Feature","properties":{"source_layer":"Field_Points","source_feature_count":1,"Id":null,"x":null,"y":null,"GlobalID":"{30B1895F-AAB4-41CC-8B63-ACDF3E2F7775}"},"geometry":{"type":"Point","coordinates":[30.052227,30.215444]}},{"type":"Feature","properties":{"source_layer":"Field_Points","source_feature_count":1,"Id":null,"x":null,"y":null,"GlobalID":"{073E7897-F8C5-4A63-BCF2-B63A193DEA9B}"},"geometry":{"type":"Point","coordinates":[30.254927,30.014623]}},{"type":"Feature","properties":{"source_layer":"Field_Points","source_feature_count":1,"Id":null,"x":null,"y":null,"GlobalID":"{B1EE5792-F77D-486B-BE28-BF3BD67C132D}"},"geometry":{"type":"Point","coordinates":[30.42315,30.057405]}},{"type":"Feature","properties":{"source_layer":"Field_Points","source_feature_count":1,"Id":null,"x":null,"y":null,"GlobalID":"{188F3E1A-1F30-4A59-83C4-9DEA92A8854E}"},"geometry":{"type":"Point","coordinates":[30.195983,30.208459]}},{"type":"Feature","properties":{"source_layer":"Field_Points","source_feature_count":1,"Id":null,"x":null,"y":null,"GlobalID":"{AD3B4CEB-3C36-4247-B33B-B643F596CDBC}"},"geometry":{"type":"Point","coordinates":[30.547627,30.238186]}}]}