{
"type": "FeatureCollection",
"name": "Study_Area",
"xy_coordinate_resolution": 8.98315e-10,
"z_coordinate_resolution": 0.0001,
"features": [
{"type":"Feature","properties":{"OID_":0,"Name":" ","FolderPath":" ","SymbolID":0,"AltMode":0,"Base":0.0,"Clamped":0,"Extruded":0,"Snippet":" ","PopupInfo":" ","Shape_Leng":0.0,"length":149.86457388,"BUFF_DIST":15000.0,"ORIG_FID":1,"Area_KM":4452.154819330196,"GlobalID":"{79D09541-4F6F-4303-9C3B-610995DD4C64}","SHAPE_Length":356437.33213137637,"SHAPE_Area":4452137650.3540144},"geometry":{"type":"MultiPolygon","coordinates":[[[[30.694308642,30.2898675807],[30.6788103377,30.2947634736],[30.6639646406,30.2983774961],[30.6524616426,30.3004951042],[30.6405520798,30.3020896244],[30.6321212021,30.3028244582],[30.6021028832,30.3038320228],[30.4982283139,30.3059980281],[30.4868093641,30.3058541382],[30.4753371284,30.3052288411],[30.4602324737,30.3037079199],[30.4457123714,30.3014835886],[30.4301326673,30.2982383241],[30.4155953786,30.2943728889],[30.4026630185,30.2902168427],[30.290945373,30.2508032621],[30.19015874,30.2450338762],[30.1488933963,30.2458061163],[30.1015839924,30.2456750104],[30.0853771378,30.2445096738],[30.0692867054,30.2423548141],[30.0456950964,30.240932745],[30.0354372672,30.2481574781],[30.0254067206,30.2544181967],[30.014361642,30.2605054863],[30.0035668734,30.2657222502],[29.9901936607,30.2712776533],[29.9135836438,30.3000373063],[29.8561600251,30.35277297],[29.8347571067,30.3740520224],[29.8081114652,30.3986413897],[29.5812293052,30.2132887768],[29.6052104906,30.1912008414],[29.6266287964,30.1699465633],[29.6979090069,30.1041911277],[29.7159845016,30.0897205034],[29.7370267743,30.0760048333],[29.748355418,30.0696546689],[29.7584738809,30.0645720008],[29.7664407411,30.0610365147],[29.7781269914,30.0562967359],[29.850366464,30.0291009423],[29.8653657625,30.0170478519],[29.8813150706,30.0060269935],[29.8958674668,29.997589921],[29.9119446978,29.9897895376],[29.927184079,29.9836766841],[29.9428952701,29.9785498236],[29.9589945349,29.9744363232],[29.9754336308,29.9713524476],[29.9870145711,29.9697808635],[29.9993714078,29.9687124217],[30.0099969243,29.9682880772],[30.022414188,29.9683671364],[30.096537583,29.9729037191],[30.1176096631,29.9751210769],[30.1463062056,29.975333823],[30.190757125,29.9744225101],[30.2013648075,29.9745290233],[30.3204523197,29.9813336571],[30.3372339175,29.9828424613],[30.3507227347,29.9847491149],[30.3631768197,29.9870730576],[30.3763791378,29.9901470125],[30.3893806764,29.9938137431],[30.507835186,30.0352629883],[30.5691817269,30.0339164589],[30.5738088539,30.0242398496],[30.579443858,30.0143943431],[30.5858462313,30.0049115152],[30.5929856284,29.9958359861],[30.6008274319,29.9872115494],[30.6090062296,29.9793724896],[30.618115027,29.9717503527],[30.6278057332,29.9646943183],[30.6380328682,29.9582374611],[30.6487463502,29.9524113334],[30.6576098123,29.9482333381],[30.668946047,29.9436534841],[30.6807410927,29.9397207738],[30.6928276711,29.9365047591],[30.7051236673,29.9340265429],[30.7175945831,29.9322922583],[30.7281991021,29.9314184759],[30.7390366329,29.9311562502],[30.8713478906,29.9322158812],[30.902303701,29.9327719819],[30.9149990546,29.9334416395],[30.9244457081,29.9344508563],[30.9350558577,29.936092337],[30.9458353612,29.9383248183],[30.9546728416,29.9405970158],[30.9917492008,29.9524902953],[30.9997428848,29.9556916359],[31.009512695,29.9602527246],[31.0223295233,29.9579825677],[31.0355780894,29.9565445813],[31.0488734866,29.9559958357],[31.0610988396,29.9562758985],[31.0788513476,29.9577261127],[31.0946897895,29.9599579094],[31.1095747091,29.9629846034],[31.1256905497,29.96732827],[31.0152875631,30.2419991939],[30.9982273061,30.2434076689],[30.9823926204,30.2434276138],[30.9665293331,30.2422018283],[30.9498038288,30.2395271477],[30.9330659154,30.2353511959],[30.91651304,30.2296140421],[30.9014196223,30.2228140325],[30.8893460267,30.21607611],[30.8740288142,30.2101487992],[30.8590075492,30.2027519402],[30.8193226096,30.2026032662],[30.8106457143,30.2114227661],[30.8013017289,30.2197872159],[30.7544367129,30.2573341226],[30.747206408,30.2627340037],[30.7354690948,30.2703961309],[30.7226091197,30.2776132001],[30.7123222275,30.2825789921],[30.694308642,30.2898675807]]],[[[30.6335606377,30.3027460704],[30.6328845769,30.3027987454],[30.6335216919,30.302746616],[30.6335606377,30.3027460704]]],[[[30.6335606377,30.3027460704],[30.633577014,30.3027420893],[30.6354434856,30.3025893532],[30.6335606377,30.3027460704]]]]}}
]
}
