{
"type": "FeatureCollection",
"name": "Urban_Changes",
"xy_coordinate_resolution": 8.98315e-10,
"z_coordinate_resolution": 0.0001,
"features": [
{"type":"Feature","properties":{"Area_KM2":3.0584108178698091,"Area_M2":3058410.817869809,"Price_2014":600.0,"Price2023":8000.0,"Befor":1835046490.7218854,"After":24467286542.958473,"Difference":22632240052.236588,"Price_Difference_Meter":7400.0,"GlobalID":"{AA50CC83-E91C-438E-BE10-A482D01F728E}","SHAPE_Length":6997.8382640364598,"SHAPE_Area":3058410.817869809},"geometry":{"type":"Polygon","coordinates":[[[30.8526911269,29.9528224884],[30.83800634,29.943631295],[30.8490572057,29.9306362872],[30.863089845,29.9395292229],[30.8526911269,29.9528224884]]]}},
{"type":"Feature","properties":{"Area_KM2":2.4883406408288629,"Area_M2":2488340.6408288628,"Price_2014":700.0,"Price2023":13000.0,"Befor":1741838448.580204,"After":32348428330.775215,"Difference":30606589882.195011,"Price_Difference_Meter":12300.0,"GlobalID":"{8CF5E4E8-3400-4685-886F-7103A5BC7F11}","SHAPE_Length":6137.938252613676,"SHAPE_Area":2488292.2935563247},"geometry":{"type":"Polygon","coordinates":[[[30.8909175748,29.9883756895],[30.8791405254,29.9811851763],[30.8783795795,29.9800320128],[30.8787250926,29.9787365746],[30.8860030497,29.9703150378],[30.8879306149,29.9693519954],[30.8892767908,29.9695019744],[30.9004991358,29.9771287287],[30.8909175748,29.9883756895]]]}},
{"type":"Feature","properties":{"Area_KM2":0.071786253200660052,"Area_M2":71786.253200660052,"Price_2014":500.0,"Price2023":6000.0,"Befor":35893126.600330025,"After":430717519.2039603,"Difference":394824392.6036303,"Price_Difference_Meter":5500.0,"GlobalID":"{5F2DE738-E68A-463D-BE20-3F1CAEC548C7}","SHAPE_Length":1264.1793068839493,"SHAPE_Area":71786.253200660052},"geometry":{"type":"Polygon","coordinates":[[[30.4961779824,30.1721281463],[30.4980442609,30.1721876366],[30.4979987177,30.1729027387],[30.5003048867,30.1729467253],[30.5003034248,30.1740922521],[30.4958521469,30.1741505062],[30.4961779824,30.1721281463]]]}},
{"type":"Feature","properties":{"Area_KM2":0.28319414867713882,"Area_M2":283194.14867713884,"Price_2014":500.0,"Price2023":6000.0,"Befor":141597074.33856943,"After":1699164892.0628331,"Difference":1557567817.7242637,"Price_Difference_Meter":5500.0,"GlobalID":"{EAB91A13-70F4-42BD-8BF9-E0EBC24F5F0B}","SHAPE_Length":2721.5471398481836,"SHAPE_Area":283121.02022879513},"geometry":{"type":"Polygon","coordinates":[[[30.6761887685,30.1612312576],[30.6767127477,30.1715513987],[30.6757838167,30.17146314],[30.6741515083,30.1684507934],[30.6728835401,30.1627956284],[30.6728617062,30.1613870737],[30.6761887685,30.1612312576]]]}},
{"type":"Feature","properties":{"Area_KM2":0.033266203787498699,"Area_M2":33266.2037874987,"Price_2014":500.0,"Price2023":6000.0,"Befor":16633101.893749351,"After":199597222.72499219,"Difference":182964120.83124283,"Price_Difference_Meter":5500.0,"GlobalID":"{5E3B35D6-0376-4E1A-8D85-B6FB5D15CC87}","SHAPE_Length":745.31388154910564,"SHAPE_Area":33266.2037874987},"geometry":{"type":"Polygon","coordinates":[[[30.7403199218,30.1209842743],[30.741524658,30.1201648549],[30.7433485323,30.121093658],[30.7418729383,30.1222330382],[30.7403199218,30.1209842743]]]}},
{"type":"Feature","properties":{"Area_KM2":0.094870270706187601,"Area_M2":94870.270706187599,"Price_2014":500.0,"Price2023":6000.0,"Befor":47435135.353093803,"After":569221624.23712564,"Difference":521786488.88403183,"Price_Difference_Meter":5500.0,"GlobalID":"{0BFE98A8-BA4B-4335-A261-DFB0B3384A59}","SHAPE_Length":1306.4583570154332,"SHAPE_Area":94870.270706187599},"geometry":{"type":"Polygon","coordinates":[[[30.7597788943,30.1362297839],[30.762640974,30.1340063706],[30.7649695154,30.134981678],[30.7613926739,30.1377275962],[30.7597788943,30.1362297839]]]}},
{"type":"Feature","properties":{"Area_KM2":0.04180581248429497,"Area_M2":41805.812484294969,"Price_2014":500.0,"Price2023":6000.0,"Befor":20902906.242147483,"After":250834874.90576982,"Difference":229931968.66362235,"Price_Difference_Meter":5500.0,"GlobalID":"{81AE3505-0E1F-4F9E-A493-641CB1E80C79}","SHAPE_Length":880.63766439861593,"SHAPE_Area":41805.812484294969},"geometry":{"type":"Polygon","coordinates":[[[30.7598241794,30.1330517094],[30.7624026046,30.1341915543],[30.7608254488,30.1354167851],[30.7593542583,30.1347084847],[30.7598265735,30.1338572978],[30.7593389659,30.1335625565],[30.7598241794,30.1330517094]]]}},
{"type":"Feature","properties":{"Area_KM2":0.047936926711063678,"Area_M2":47936.926711063679,"Price_2014":500.0,"Price2023":6000.0,"Befor":23968463.355531838,"After":287621560.2663821,"Difference":263653096.91085026,"Price_Difference_Meter":5500.0,"GlobalID":"{21AAA5D7-224E-480B-BDED-7AEFAE350312}","SHAPE_Length":870.76604904457906,"SHAPE_Area":47936.926711063679},"geometry":{"type":"Polygon","coordinates":[[[30.7444785922,30.144130527],[30.7437738653,30.1432400714],[30.7457118093,30.1420704377],[30.7466452674,30.1425638304],[30.7469175731,30.1441151479],[30.7444785922,30.144130527]]]}},
{"type":"Feature","properties":{"Area_KM2":0.034334577691863793,"Area_M2":34334.577691863793,"Price_2014":500.0,"Price2023":6000.0,"Befor":17167288.845931895,"After":206007466.15118277,"Difference":188840177.30525088,"Price_Difference_Meter":5500.0,"GlobalID":"{BB07DB38-CAFC-4099-8D85-5729559F956C}","SHAPE_Length":827.76095420306774,"SHAPE_Area":34334.577691863793},"geometry":{"type":"Polygon","coordinates":[[[30.7128941845,30.0979162769],[30.7105068117,30.0978866116],[30.7105235879,30.0962066134],[30.7119246467,30.0963933315],[30.712195045,30.0970472459],[30.7129198231,30.0970764701],[30.7128941845,30.0979162769]]]}},
{"type":"Feature","properties":{"Area_KM2":0.021378977410195822,"Area_M2":21378.977410195821,"Price_2014":500.0,"Price2023":6000.0,"Befor":10689488.70509791,"After":128273864.46117492,"Difference":117584375.75607701,"Price_Difference_Meter":5500.0,"GlobalID":"{06188433-5ABB-4D8F-AD03-E60FAEDB10E5}","SHAPE_Length":676.4877512903447,"SHAPE_Area":21378.977410195821},"geometry":{"type":"Polygon","coordinates":[[[30.7572567824,30.1017347267],[30.7572461176,30.1002537463],[30.7584427838,30.1002613301],[30.7584016493,30.1013618117],[30.7590111348,30.1013578932],[30.7589940298,30.1017643851],[30.7572567824,30.1017347267]]]}},
{"type":"Feature","properties":{"Area_KM2":0.02404075499957118,"Area_M2":24040.754999571182,"Price_2014":500.0,"Price2023":6000.0,"Befor":12020377.499785591,"After":144244529.99742708,"Difference":132224152.49764149,"Price_Difference_Meter":5500.0,"GlobalID":"{AE5FCDDC-2882-4AF7-9AB1-0A9DF33A7B4D}","SHAPE_Length":620.36113171912791,"SHAPE_Area":24040.754999571178},"geometry":{"type":"Polygon","coordinates":[[[30.7606943867,30.098924632],[30.7607266151,30.0974832273],[30.7623022738,30.0975119956],[30.7622704427,30.0989244507],[30.7606943867,30.098924632]]]}},
{"type":"Feature","properties":{"Area_KM2":0.69157392069937851,"Area_M2":691573.92069937848,"Price_2014":500.0,"Price2023":6000.0,"Befor":345786960.34968925,"After":4149443524.1962709,"Difference":3803656563.8465815,"Price_Difference_Meter":5500.0,"GlobalID":"{7EB14FAE-B558-4FC3-AFBB-16ED2EA0B6AD}","SHAPE_Length":4098.3665172061301,"SHAPE_Area":691573.92069937848},"geometry":{"type":"Polygon","coordinates":[[[30.8940383866,30.1121365381],[30.8885249411,30.1111314147],[30.8891567227,30.1093084217],[30.884564391,30.1083752277],[30.8854035752,30.1060973074],[30.8897994356,30.106970026],[30.8917543229,30.1017883937],[30.8969379851,30.1027880863],[30.8940383866,30.1121365381]]]}},
{"type":"Feature","properties":{"Area_KM2":0.21021719775525713,"Area_M2":210217.19775525713,"Price_2014":800.0,"Price2023":12000.0,"Befor":168173758.20420569,"After":2522606373.0630856,"Difference":2354432614.85888,"Price_Difference_Meter":11200.0,"GlobalID":"{2BD8F9ED-B6B4-4FEB-8A02-534847590611}","SHAPE_Length":1851.1123660663652,"SHAPE_Area":210217.19775525713},"geometry":{"type":"Polygon","coordinates":[[[30.949205508,30.0491434326],[30.9518646983,30.046320507],[30.9562377796,30.0490094699],[30.953692952,30.0518772306],[30.949205508,30.0491434326]]]}},
{"type":"Feature","properties":{"Area_KM2":0.079300313946022119,"Area_M2":79300.313946022114,"Price_2014":800.0,"Price2023":12000.0,"Befor":63440251.15681769,"After":951603767.35226536,"Difference":888163516.19544768,"Price_Difference_Meter":11200.0,"GlobalID":"{309F2BE7-5800-4FD1-B9B4-49421C250B63}","SHAPE_Length":1239.0893637491533,"SHAPE_Area":79300.313946022114},"geometry":{"type":"Polygon","coordinates":[[[30.9585496888,30.0406202908],[30.9595647945,30.0391136147],[30.9606263333,30.0398763681],[30.9633015927,30.0399942167],[30.9629588634,30.0417266385],[30.9594548701,30.0413476762],[30.9585496888,30.0406202908]]]}},
{"type":"Feature","properties":{"Area_KM2":0.071906285824608354,"Area_M2":71906.285824608349,"Price_2014":800.0,"Price2023":12000.0,"Befor":57525028.659686677,"After":862875429.89530015,"Difference":805350401.23561347,"Price_Difference_Meter":11200.0,"GlobalID":"{B0958B44-2B8E-4FA8-B056-2D6457F101C1}","SHAPE_Length":1175.4274557916442,"SHAPE_Area":71906.285824608349},"geometry":{"type":"Polygon","coordinates":[[[30.9729632047,30.0323356639],[30.9739865446,30.0309473592],[30.9774782226,30.0332687592],[30.9763848873,30.0344215729],[30.9729632047,30.0323356639]]]}},
{"type":"Feature","properties":{"Area_KM2":0.017501150642116388,"Area_M2":17501.150642116387,"Price_2014":800.0,"Price2023":12000.0,"Befor":14000920.513693109,"After":210013807.70539665,"Difference":196012887.19170356,"Price_Difference_Meter":11200.0,"GlobalID":"{8D5862B5-AD8C-4848-B9C0-E5522C00C59C}","SHAPE_Length":550.25804028964069,"SHAPE_Area":17501.150642116387},"geometry":{"type":"Polygon","coordinates":[[[30.9794972282,30.0358419574],[30.9779810232,30.0348519149],[30.9788185582,30.0341367535],[30.9800318727,30.0351818086],[30.9794972282,30.0358419574]]]}},
{"type":"Feature","properties":{"Area_KM2":0.56272161395215115,"Area_M2":562721.61395215115,"Price_2014":800.0,"Price2023":12000.0,"Befor":450177291.16172093,"After":6752659367.4258137,"Difference":6302482076.2640924,"Price_Difference_Meter":11200.0,"GlobalID":"{73A556EC-B6C0-4758-B3D4-1C931CA35CD9}","SHAPE_Length":4133.3211900690685,"SHAPE_Area":562721.61395215115},"geometry":{"type":"Polygon","coordinates":[[[30.9606355214,30.0320844886],[30.9555941432,30.029106021],[30.9588092346,30.0268286394],[30.9580041642,30.0259568248],[30.9564858866,30.02575422],[30.9544585379,30.0283006574],[30.9521410964,30.0269398145],[30.9546789749,30.0235778409],[30.955926914,30.0229169468],[30.9580614032,30.0231649294],[30.9591441164,30.0245423205],[30.9613499282,30.0253284313],[30.9646385984,30.027491857],[30.9606355214,30.0320844886]]]}},
{"type":"Feature","properties":{"Area_KM2":0.65458958083492391,"Area_M2":654589.58083492389,"Price_2014":700.0,"Price2023":10000.0,"Befor":458212706.58444673,"After":6545895808.3492393,"Difference":6087683101.7647924,"Price_Difference_Meter":9300.0,"GlobalID":"{07EEF542-48E3-4BB2-B02F-CAC5CF058676}","SHAPE_Length":3887.978972415573,"SHAPE_Area":654589.58083492389},"geometry":{"type":"Polygon","coordinates":[[[30.9405105055,30.0123288971],[30.9458163746,30.008401704],[30.9473100321,30.0097856004],[30.9478476301,30.0096507673],[30.9492290011,30.010495818],[30.9503637298,30.0093319383],[30.9500846773,30.008897932],[30.9504431335,30.0074713197],[30.9534430944,30.0096305074],[30.9486961521,30.0163953158],[30.9480153779,30.015489577],[30.9426126773,30.0161212918],[30.9426003728,30.014724712],[30.9420452698,30.0137134957],[30.9405105055,30.0123288971]]]}},
{"type":"Feature","properties":{"Area_KM2":0.084039669022802202,"Area_M2":84039.669022802205,"Price_2014":700.0,"Price2023":13000.0,"Befor":58827768.315961547,"After":1092515697.2964287,"Difference":1033687928.9804671,"Price_Difference_Meter":12300.0,"GlobalID":"{B8322109-6C3A-4F6D-885B-ED1D1ACBB061}","SHAPE_Length":1187.1886112889524,"SHAPE_Area":84039.669022802205},"geometry":{"type":"Polygon","coordinates":[[[30.918985346,29.984091947],[30.9170394527,29.9827363978],[30.9173130416,29.9814517584],[30.9182302551,29.9808575873],[30.9216383677,29.9830955246],[30.918985346,29.984091947]]]}},
{"type":"Feature","properties":{"Area_KM2":0.063323649713947314,"Area_M2":63323.649713947314,"Price_2014":700.0,"Price2023":13000.0,"Befor":44326554.799763121,"After":823207446.28131509,"Difference":778880891.481552,"Price_Difference_Meter":12300.0,"GlobalID":"{2F3239E2-8F71-458A-A894-95A19FC941E0}","SHAPE_Length":966.83119728851193,"SHAPE_Area":63298.077373731321},"geometry":{"type":"Polygon","coordinates":[[[30.9131997891,29.9812219131],[30.9157973847,29.982068634],[30.9154539022,29.9838212437],[30.9145807539,29.9842728746],[30.9131991381,29.9829844726],[30.9131997891,29.9812219131]]]}},
{"type":"Feature","properties":{"Area_KM2":0.29451670395654894,"Area_M2":294516.70395654894,"Price_2014":600.0,"Price2023":8000.0,"Befor":176710022.37392935,"After":2356133631.6523914,"Difference":2179423609.2784619,"Price_Difference_Meter":7400.0,"GlobalID":"{3EC9631B-540E-4025-A536-B10AAD2B3951}","SHAPE_Length":2184.8043568022936,"SHAPE_Area":294516.70395654894},"geometry":{"type":"Polygon","coordinates":[[[30.9745244682,29.9582545933],[30.9697250138,29.9548579586],[30.9726320724,29.9510071047],[30.9771095753,29.9540549564],[30.9745244682,29.9582545933]]]}},
{"type":"Feature","properties":{"Area_KM2":0.48331418516281255,"Area_M2":483314.18516281253,"Price_2014":600.0,"Price2023":8000.0,"Befor":289988511.09768754,"After":3866513481.3025002,"Difference":3576524970.2048125,"Price_Difference_Meter":7400.0,"GlobalID":"{19391CD8-4244-419D-B87C-F2D34A34A1FF}","SHAPE_Length":2869.8303603591989,"SHAPE_Area":483275.18855831219},"geometry":{"type":"Polygon","coordinates":[[[30.9691829658,29.9545536113],[30.9651269516,29.9518175471],[30.9714662149,29.9447064952],[30.973612611,29.9465281632],[30.9743931878,29.9490481877],[30.9691829658,29.9545536113]]]}},
{"type":"Feature","properties":{"Area_KM2":0.55353770308421935,"Area_M2":553537.70308421936,"Price_2014":600.0,"Price2023":8000.0,"Befor":332122621.85053164,"After":4428301624.6737547,"Difference":4096179002.8232231,"Price_Difference_Meter":7400.0,"GlobalID":"{C10ED25C-2B38-4834-9197-C3440B52B5EE}","SHAPE_Length":3042.2368233402126,"SHAPE_Area":553537.70308421936},"geometry":{"type":"Polygon","coordinates":[[[30.984210074,29.9569996102],[30.9865339898,29.9526811979],[30.9886247358,29.9514110556],[30.9917492008,29.9524902953],[30.9958375707,29.9578645181],[30.9956241666,29.9586633177],[30.994498005,29.9590471979],[30.984210074,29.9569996102]]]}},
{"type":"Feature","properties":{"Area_KM2":0.023130397783747394,"Area_M2":23130.397783747394,"Price_2014":600.0,"Price2023":8000.0,"Befor":13878238.670248436,"After":185043182.26997915,"Difference":171164943.5997307,"Price_Difference_Meter":7400.0,"GlobalID":"{2CB71833-E164-4FA6-A2C1-F8755CF495AD}","SHAPE_Length":664.07909079895217,"SHAPE_Area":23130.397783747394},"geometry":{"type":"Polygon","coordinates":[[[31.0032235558,29.9619296525],[31.0024553823,29.961273501],[31.0043742625,29.9599061666],[31.0049772923,29.9605956117],[31.0032235558,29.9619296525]]]}},
{"type":"Feature","properties":{"Area_KM2":0.035424076662673901,"Area_M2":35424.076662673899,"Price_2014":600.0,"Price2023":8000.0,"Befor":21254445.99760434,"After":283392613.30139118,"Difference":262138167.30378684,"Price_Difference_Meter":7400.0,"GlobalID":"{BD431609-1FF2-41E6-93D3-EAC625522BE6}","SHAPE_Length":765.48532876494392,"SHAPE_Area":35424.076662673899},"geometry":{"type":"Polygon","coordinates":[[[31.0020947173,29.9608025555],[31.0011281867,29.9597853302],[31.0026799537,29.9582692254],[31.0038066247,29.9595037016],[31.0020947173,29.9608025555]]]}},
{"type":"Feature","properties":{"Area_KM2":0.054776544101082306,"Area_M2":54776.544101082305,"Price_2014":600.0,"Price2023":8000.0,"Befor":32865926.460649382,"After":438212352.80865842,"Difference":405346426.34800905,"Price_Difference_Meter":7400.0,"GlobalID":"{CDD91CFB-C758-48E3-AB4F-3FE6AEE861BE}","SHAPE_Length":1077.8548579360288,"SHAPE_Area":54776.544101082305},"geometry":{"type":"Polygon","coordinates":[[[31.0029305824,29.9560172643],[31.0044018216,29.9564692322],[31.0051617456,29.9595958447],[31.0020848303,29.9571860276],[31.0029305824,29.9560172643]]]}},
{"type":"Feature","properties":{"Area_KM2":0.18525585418739612,"Area_M2":185255.85418739612,"Price_2014":600.0,"Price2023":8000.0,"Befor":111153512.51243767,"After":1482046833.4991689,"Difference":1370893320.9867313,"Price_Difference_Meter":7400.0,"GlobalID":"{96A7EB69-16FB-4E28-B225-A6132187FF73}","SHAPE_Length":1933.9182301114695,"SHAPE_Area":185255.85418739612},"geometry":{"type":"Polygon","coordinates":[[[30.9941949245,29.9630814576],[30.988446193,29.9626715263],[30.9872302547,29.9617936152],[30.9873023867,29.9602550787],[30.9905931497,29.96019791],[30.9957396615,29.9619233897],[30.9941949245,29.9630814576]]]}},
{"type":"Feature","properties":{"Area_KM2":0.064398109967951589,"Area_M2":64398.109967951583,"Price_2014":600.0,"Price2023":8000.0,"Befor":38638865.980770953,"After":515184879.74361265,"Difference":476546013.7628417,"Price_Difference_Meter":7400.0,"GlobalID":"{57F2426B-4925-4D51-8B5A-AB867AB8AF0F}","SHAPE_Length":1083.5331642282379,"SHAPE_Area":64398.109967951583},"geometry":{"type":"Polygon","coordinates":[[[30.9862304362,29.9726274008],[30.9848535687,29.9715679779],[30.986839981,29.9689129498],[30.9883848893,29.9697958923],[30.9862304362,29.9726274008]]]}},
{"type":"Feature","properties":{"Area_KM2":0.03377022253595581,"Area_M2":33770.222535955807,"Price_2014":600.0,"Price2023":8000.0,"Befor":20262133.521573484,"After":270161780.28764647,"Difference":249899646.76607299,"Price_Difference_Meter":7400.0,"GlobalID":"{9D14FBEF-5E2A-495D-9802-4DFA155D5495}","SHAPE_Length":844.25587674781957,"SHAPE_Area":33770.222535955807},"geometry":{"type":"Polygon","coordinates":[[[30.960323388,29.9545095123],[30.9620532184,29.9523521634],[30.9630676706,29.9530123508],[30.9610890281,29.9552732771],[30.960323388,29.9545095123]]]}},
{"type":"Feature","properties":{"Area_KM2":0.45308647823699838,"Area_M2":453086.47823699837,"Price_2014":600.0,"Price2023":8000.0,"Befor":271851886.94219905,"After":3624691825.895987,"Difference":3352839938.9537878,"Price_Difference_Meter":7400.0,"GlobalID":"{FECDDF29-2AB2-4FFB-A411-66911883FEDF}","SHAPE_Length":2693.9664527399377,"SHAPE_Area":453086.47823699837},"geometry":{"type":"Polygon","coordinates":[[[31.0259142956,29.9568814314],[31.0229623421,29.9502130493],[31.0262087872,29.9482207879],[31.0303230145,29.9522568402],[31.0314551061,29.955317279],[31.0259142956,29.9568814314]]]}},
{"type":"Feature","properties":{"Area_KM2":0.44990151017627411,"Area_M2":449901.51017627411,"Price_2014":700.0,"Price2023":10000.0,"Befor":314931057.12339187,"After":4499015101.7627411,"Difference":4184084044.639349,"Price_Difference_Meter":9300.0,"GlobalID":"{B70849E3-AD2D-4978-BAAA-3388828FF951}","SHAPE_Length":2963.7529003580307,"SHAPE_Area":449938.03657742188},"geometry":{"type":"Polygon","coordinates":[[[31.0409242031,29.984611778],[31.0425701283,29.9845765853],[31.0452276614,29.9853918727],[31.0512766858,29.9915685974],[31.0485598953,29.9915764917],[31.0460410295,29.9928635442],[31.0428666101,29.9904293125],[31.0418122071,29.9882652696],[31.0409242031,29.984611778]]]}},
{"type":"Feature","properties":{"Area_KM2":0.17701369837423467,"Area_M2":177013.69837423466,"Price_2014":700.0,"Price2023":10000.0,"Befor":123909588.86196427,"After":1770136983.7423465,"Difference":1646227394.8803823,"Price_Difference_Meter":9300.0,"GlobalID":"{E7B15C46-9BCE-4E15-B854-E7E8D6FD6C15}","SHAPE_Length":1714.223006425585,"SHAPE_Area":177013.69837423466},"geometry":{"type":"Polygon","coordinates":[[[30.9941349029,30.008290671],[30.9909899784,30.0064762909],[30.9944108084,30.0027569716],[30.997059298,30.004706935],[30.9941349029,30.008290671]]]}},
{"type":"Feature","properties":{"Area_KM2":0.14132534300147634,"Area_M2":141325.34300147634,"Price_2014":700.0,"Price2023":10000.0,"Befor":98927740.101033434,"After":1413253430.0147634,"Difference":1314325689.9137299,"Price_Difference_Meter":9300.0,"GlobalID":"{106BC09A-705C-4FFE-8BEC-CB526380E426}","SHAPE_Length":1616.4682715963729,"SHAPE_Area":141325.34300147634},"geometry":{"type":"Polygon","coordinates":[[[30.9889524501,30.0041536229],[30.9927609375,30.0002493065],[30.9934073961,30.0008320519],[30.9938682352,30.0024622582],[30.9904531698,30.0058952081],[30.9894748013,30.0054505983],[30.9889524501,30.0041536229]]]}},
{"type":"Feature","properties":{"Area_KM2":0.063116158022551716,"Area_M2":63116.15802255171,"Price_2014":700.0,"Price2023":10000.0,"Befor":44181310.615786195,"After":631161580.22551715,"Difference":586980269.60973096,"Price_Difference_Meter":9300.0,"GlobalID":"{33FBE4B0-172C-49E9-8A09-86CD51CC420C}","SHAPE_Length":1095.5965334704676,"SHAPE_Area":63116.15802255171},"geometry":{"type":"Polygon","coordinates":[[[30.9629550337,29.9986932845],[30.9641817638,29.9977097242],[30.9671633469,29.9994267205],[30.9663655375,30.0008943398],[30.9629550337,29.9986932845]]]}},
{"type":"Feature","properties":{"Area_KM2":0.11034129887558937,"Area_M2":110341.29887558937,"Price_2014":700.0,"Price2023":10000.0,"Befor":77238909.21291256,"After":1103412988.7558937,"Difference":1026174079.5429811,"Price_Difference_Meter":9300.0,"GlobalID":"{251DCBAA-7A3C-4C28-9149-09E1A2D2A0BC}","SHAPE_Length":1723.2215238547326,"SHAPE_Area":110341.29887558939},"geometry":{"type":"Polygon","coordinates":[[[30.9645592842,30.0033966415],[30.9661316066,30.0016068274],[30.9670001597,30.0020499103],[30.9664910932,30.0028058869],[30.9707733308,30.005306743],[30.9695955646,30.00657756],[30.9645592842,30.0033966415]]]}},
{"type":"Feature","properties":{"Area_KM2":5.0881108570063933,"Area_M2":5088110.8570063934,"Price_2014":700.0,"Price2023":10000.0,"Befor":3561677599.9044752,"After":50881108570.063934,"Difference":47319430970.159462,"Price_Difference_Meter":9300.0,"GlobalID":"{ADF3BFEB-B6E6-4250-A7AE-B0B293D33A51}","SHAPE_Length":9493.9187296488417,"SHAPE_Area":5088110.8570063934},"geometry":{"type":"Polygon","coordinates":[[[31.0520100558,29.995462227],[31.0581669857,29.9891080992],[31.064300434,29.9909887498],[31.0661639377,29.9938806417],[31.0697418171,29.9932170364],[31.0727641387,30.0071064242],[31.0717883062,30.0079276067],[31.0662951626,30.0083244114],[31.0668464061,30.015255038],[31.0606347995,30.0173119846],[31.0598423481,30.0157487037],[31.0557221543,30.0160459384],[31.0519951214,30.0102618436],[31.0443948601,30.0062104453],[31.0520100558,29.995462227]]]}},
{"type":"Feature","properties":{"Area_KM2":0.48182868529043255,"Area_M2":481828.68529043254,"Price_2014":700.0,"Price2023":10000.0,"Befor":337280079.7033028,"After":4818286852.9043255,"Difference":4481006773.2010231,"Price_Difference_Meter":9300.0,"GlobalID":"{E7E99295-1518-4AB0-95AE-25815E4FD029}","SHAPE_Length":3090.5995060852338,"SHAPE_Area":481828.68529043254},"geometry":{"type":"Polygon","coordinates":[[[31.0719762105,29.9804788545],[31.0742469087,29.9800346693],[31.0781814144,29.9821808703],[31.0780875999,29.983492404],[31.0817605116,29.988558877],[31.0811961578,29.9893861347],[31.072899297,29.9859230031],[31.0719762105,29.9804788545]]]}},
{"type":"Feature","properties":{"Area_KM2":0.12671395440819053,"Area_M2":126713.95440819053,"Price_2014":700.0,"Price2023":10000.0,"Befor":88699768.085733369,"After":1267139544.0819054,"Difference":1178439775.996172,"Price_Difference_Meter":9300.0,"GlobalID":"{027F48D9-F979-49A1-A891-95A1FBE2CC68}","SHAPE_Length":1439.3211835472489,"SHAPE_Area":126713.95440819053},"geometry":{"type":"Polygon","coordinates":[[[31.0103416871,29.9996083603],[31.0119167271,29.9965385556],[31.0150453377,29.9980752953],[31.0127431408,30.0013060269],[31.0103416871,29.9996083603]]]}},
{"type":"Feature","properties":{"Area_KM2":0.43512250470481756,"Area_M2":435122.50470481755,"Price_2014":800.0,"Price2023":12000.0,"Befor":348098003.76385403,"After":5221470056.4578104,"Difference":4873372052.6939564,"Price_Difference_Meter":11200.0,"GlobalID":"{B1A17DFA-8E31-4554-8AB5-243584FCF27B}","SHAPE_Length":3067.1498304990778,"SHAPE_Area":435122.50470481761},"geometry":{"type":"Polygon","coordinates":[[[31.0423222192,30.0394935392],[31.0389910254,30.0381262522],[31.0398647994,30.037222652],[31.0370625651,30.035748624],[31.041125802,30.0300229941],[31.0438722492,30.0309805],[31.0427470649,30.0346302753],[31.0454925298,30.0356450256],[31.0423222192,30.0394935392]]]}},
{"type":"Feature","properties":{"Area_KM2":0.1563455736711111,"Area_M2":156345.57367111111,"Price_2014":800.0,"Price2023":12000.0,"Befor":125076458.93688889,"After":1876146884.0533333,"Difference":1751070425.1164443,"Price_Difference_Meter":11200.0,"GlobalID":"{BF73A0FC-F566-49E6-8C34-5DE6EE4AF3AA}","SHAPE_Length":1589.7693556906854,"SHAPE_Area":156345.57367111111},"geometry":{"type":"Polygon","coordinates":[[[31.0441833705,30.0372342919],[31.0473398684,30.0385321618],[31.0450062134,30.042107907],[31.0416796856,30.0403576327],[31.0441833705,30.0372342919]]]}},
{"type":"Feature","properties":{"Area_KM2":0.10092479785299556,"Area_M2":100924.79785299556,"Price_2014":800.0,"Price2023":12000.0,"Befor":80739838.282396451,"After":1211097574.2359467,"Difference":1130357735.9535501,"Price_Difference_Meter":11200.0,"GlobalID":"{B5635757-99FD-4243-A447-8603CAD975EE}","SHAPE_Length":1502.2132027237637,"SHAPE_Area":100924.79785299556},"geometry":{"type":"Polygon","coordinates":[[[31.0362853285,30.0406645829],[31.0375442855,30.0394301779],[31.0425895137,30.0423698371],[31.0420803098,30.0431499828],[31.0400699413,30.0428335859],[31.0362853285,30.0406645829]]]}},
{"type":"Feature","properties":{"Area_KM2":0.2070316620334052,"Area_M2":207031.66203340521,"Price_2014":800.0,"Price2023":12000.0,"Befor":165625329.62672418,"After":2484379944.4008627,"Difference":2318754614.7741385,"Price_Difference_Meter":11200.0,"GlobalID":"{3F1CFA07-239D-4622-AA91-3EDBD6494B1C}","SHAPE_Length":1825.1147823007366,"SHAPE_Area":207031.66203340524},"geometry":{"type":"Polygon","coordinates":[[[31.0286470567,30.0336039981],[31.0331164628,30.0364995684],[31.032509374,30.0380659365],[31.0315028871,30.0390176271],[31.0308432134,30.0390793615],[31.0263744773,30.0361479182],[31.0286470567,30.0336039981]]]}},
{"type":"Feature","properties":{"Area_KM2":0.29776024001551887,"Area_M2":297760.24001551885,"Price_2014":800.0,"Price2023":12000.0,"Befor":238208192.01241508,"After":3573122880.1862264,"Difference":3334914688.1738114,"Price_Difference_Meter":11200.0,"GlobalID":"{F1311CAC-8064-4F9F-96C0-076143D0120D}","SHAPE_Length":2982.7453945114098,"SHAPE_Area":297760.24001551891},"geometry":{"type":"Polygon","coordinates":[[[31.0195646604,30.0529099342],[31.0149530326,30.0468131328],[31.0157257758,30.0458998227],[31.0153948102,30.0452980703],[31.016367305,30.0446861497],[31.0228274309,30.0526905062],[31.0190418525,30.0550503848],[31.0181717186,30.0539631065],[31.0195646604,30.0529099342]]]}},
{"type":"Feature","properties":{"Area_KM2":0.058163985404741103,"Area_M2":58163.985404741106,"Price_2014":800.0,"Price2023":12000.0,"Befor":46531188.323792882,"After":697967824.8568933,"Difference":651436636.53310037,"Price_Difference_Meter":11200.0,"GlobalID":"{43EC45BC-F811-4B8A-AAC3-C275E24B4E9E}","SHAPE_Length":998.95325329688865,"SHAPE_Area":58163.985404741106},"geometry":{"type":"Polygon","coordinates":[[[31.00470608,30.0510764012],[31.0059679404,30.0497230093],[31.007945509,30.0520206614],[31.0064466113,30.0532212885],[31.00470608,30.0510764012]]]}},
{"type":"Feature","properties":{"Area_KM2":0.040394852875542835,"Area_M2":40394.852875542834,"Price_2014":800.0,"Price2023":12000.0,"Befor":32315882.300434269,"After":484738234.50651401,"Difference":452422352.20607972,"Price_Difference_Meter":11200.0,"GlobalID":"{349769C8-FB8E-46BE-A4BB-26840057A1FD}","SHAPE_Length":864.65299338511977,"SHAPE_Area":40394.852875542834},"geometry":{"type":"Polygon","coordinates":[[[31.016073412,30.0537846541],[31.0144024233,30.0515812627],[31.0154104655,30.0509102129],[31.017358155,30.0529984139],[31.016073412,30.0537846541]]]}},
{"type":"Feature","properties":{"Area_KM2":0.41753377084752052,"Area_M2":417533.7708475205,"Price_2014":800.0,"Price2023":12000.0,"Befor":334027016.67801642,"After":5010405250.1702461,"Difference":4676378233.4922295,"Price_Difference_Meter":11200.0,"GlobalID":"{3430C2A1-F52B-472E-B2EE-A8886C3823A6}","SHAPE_Length":3156.1300886142158,"SHAPE_Area":417533.7708475205},"geometry":{"type":"Polygon","coordinates":[[[31.0036639229,30.0482474758],[30.9992782173,30.0480316195],[30.9982628186,30.0473597343],[30.9952612437,30.0465382198],[30.9929851355,30.045459176],[30.9916979321,30.044663741],[30.9916401965,30.0441257817],[30.9937201566,30.0430237031],[30.9965790087,30.0424108646],[31.000900347,30.0458184645],[31.0046855594,30.0451896937],[31.0047904084,30.0468025251],[31.0036639229,30.0482474758]]]}},
{"type":"Feature","properties":{"Area_KM2":0.2394437777016182,"Area_M2":239443.77770161821,"Price_2014":800.0,"Price2023":12000.0,"Befor":191555022.16129458,"After":2873325332.4194183,"Difference":2681770310.2581239,"Price_Difference_Meter":11200.0,"GlobalID":"{1C8FE8E5-A91C-471E-9829-04345425E0CC}","SHAPE_Length":1951.0249582772042,"SHAPE_Area":239443.77770161821},"geometry":{"type":"Polygon","coordinates":[[[30.9738152124,30.0797932838],[30.9762045274,30.0756767434],[30.9792147889,30.0761049915],[30.9812767171,30.0772824434],[30.9783004318,30.0805784726],[30.9738152124,30.0797932838]]]}},
{"type":"Feature","properties":{"Area_KM2":0.2360415956049883,"Area_M2":236041.59560498831,"Price_2014":800.0,"Price2023":12000.0,"Befor":188833276.48399064,"After":2832499147.2598596,"Difference":2643665870.7758689,"Price_Difference_Meter":11200.0,"GlobalID":"{D79DC2A5-4735-4BB7-AA4C-462582D15265}","SHAPE_Length":2179.0984840301453,"SHAPE_Area":236041.59560498831},"geometry":{"type":"Polygon","coordinates":[[[30.9696480419,30.0741911441],[30.9696548656,30.0738570716],[30.9713010229,30.0738824964],[30.9710052311,30.0749282045],[30.9696531964,30.0766259515],[30.9675455613,30.0776913799],[30.9653593992,30.077227888],[30.9637905543,30.0761055737],[30.9622961842,30.0740296023],[30.9696480419,30.0741911441]]]}},
{"type":"Feature","properties":{"Area_KM2":0.019893916490707157,"Area_M2":19893.916490707157,"Price_2014":800.0,"Price2023":12000.0,"Befor":15915133.192565726,"After":238726997.88848588,"Difference":222811864.69592014,"Price_Difference_Meter":11200.0,"GlobalID":"{3C951649-F59A-48E5-B9E5-4171B592BAF4}","SHAPE_Length":635.29587244198535,"SHAPE_Area":19893.916490707157},"geometry":{"type":"Polygon","coordinates":[[[30.9731231804,30.0854636409],[30.9713937629,30.0857424813],[30.9712627112,30.0846328963],[30.9731421651,30.0845330089],[30.9731231804,30.0854636409]]]}},
{"type":"Feature","properties":{"Area_KM2":0.11797529348175166,"Area_M2":117975.29348175167,"Price_2014":800.0,"Price2023":12000.0,"Befor":94380234.785401329,"After":1415703521.7810199,"Difference":1321323286.9956186,"Price_Difference_Meter":11200.0,"GlobalID":"{E75C55CD-7349-4AA4-86ED-ACF29F250B23}","SHAPE_Length":1436.8920578395237,"SHAPE_Area":117975.29348175167},"geometry":{"type":"Polygon","coordinates":[[[30.9734857477,30.0842399356],[30.9730710649,30.083040045],[30.9738850802,30.0808088312],[30.9772060458,30.0808122623],[30.9774345314,30.0817228368],[30.9768335505,30.0829309492],[30.9757085696,30.0829136204],[30.9752377388,30.0831211937],[30.9750849846,30.0838826765],[30.9744823035,30.083825646],[30.9744730611,30.084279031],[30.9734857477,30.0842399356]]]}},
{"type":"Feature","properties":{"Area_KM2":0.5810637087091125,"Area_M2":581063.70870911248,"Price_2014":700.0,"Price2023":13000.0,"Befor":406744596.09637874,"After":7553828213.218462,"Difference":7147083617.1220837,"Price_Difference_Meter":12300.0,"GlobalID":"{F6C30065-6388-4B21-9F9F-B4C3F051F310}","SHAPE_Length":3010.0063513395212,"SHAPE_Area":581063.70870911248},"geometry":{"type":"Polygon","coordinates":[[[30.9111431138,29.991806972],[30.9150726404,29.9868208295],[30.9156908841,29.9867590106],[30.9223505128,29.9908744204],[30.9180129505,29.9957111127],[30.9175165169,29.9958464764],[30.9111431138,29.991806972]]]}},
{"type":"Feature","properties":{"Area_KM2":0.047883157265977666,"Area_M2":47883.157265977665,"Price_2014":700.0,"Price2023":13000.0,"Befor":33518210.086184364,"After":622481044.45770967,"Difference":588962834.37152529,"Price_Difference_Meter":12300.0,"GlobalID":"{476E7A78-E120-4A2D-B69B-558F0E00B33A}","SHAPE_Length":877.09399953363152,"SHAPE_Area":47883.157265977658},"geometry":{"type":"Polygon","coordinates":[[[30.9056408355,29.9972334199],[30.9039789688,29.9960612201],[30.9052897829,29.9943634759],[30.9070338787,29.9955369677],[30.9056408355,29.9972334199]]]}},
{"type":"Feature","properties":{"Area_KM2":0.033400085104049917,"Area_M2":33400.085104049918,"Price_2014":700.0,"Price2023":13000.0,"Befor":23380059.572834942,"After":434201106.35264891,"Difference":410821046.77981395,"Price_Difference_Meter":12300.0,"GlobalID":"{F072026F-E845-4E0A-8DC6-E604B82FF5EF}","SHAPE_Length":767.21645003927586,"SHAPE_Area":33400.085104049918},"geometry":{"type":"Polygon","coordinates":[[[30.906314763,29.9945230033],[30.9078311101,29.9928285019],[30.9089726825,29.993312102],[30.907573696,29.99529492],[30.906314763,29.9945230033]]]}},
{"type":"Feature","properties":{"Area_KM2":0.033057708214251497,"Area_M2":33057.708214251499,"Price_2014":700.0,"Price2023":13000.0,"Befor":23140395.74997605,"After":429750206.7852695,"Difference":406609811.03529346,"Price_Difference_Meter":12300.0,"GlobalID":"{6181A98E-71D4-4479-AB16-CDC02F9384FC}","SHAPE_Length":742.32899501177894,"SHAPE_Area":33057.708214251499},"geometry":{"type":"Polygon","coordinates":[[[30.9077571329,29.9924334758],[30.9091500692,29.9907369942],[30.9103252433,29.9915791624],[30.9090884048,29.9931638393],[30.9077571329,29.9924334758]]]}},
{"type":"Feature","properties":{"Area_KM2":0.016979616631194065,"Area_M2":16979.616631194065,"Price_2014":700.0,"Price2023":13000.0,"Befor":11885731.641835846,"After":220735016.20552284,"Difference":208849284.563687,"Price_Difference_Meter":12300.0,"GlobalID":"{3B970FF3-D413-4973-9B6D-F8398CCBECC9}","SHAPE_Length":524.5418029305664,"SHAPE_Area":16979.616631194065},"geometry":{"type":"Polygon","coordinates":[[[30.9046649639,29.9927781337],[30.9036116779,29.9920094663],[30.9045365886,29.991057475],[30.9054291571,29.9916445539],[30.9046649639,29.9927781337]]]}},
{"type":"Feature","properties":{"Area_KM2":0.042035899058866739,"Area_M2":42035.899058866737,"Price_2014":700.0,"Price2023":13000.0,"Befor":29425129.341206715,"After":546466687.76526761,"Difference":517041558.42406088,"Price_Difference_Meter":12300.0,"GlobalID":"{203EDD5D-A33A-4092-B450-FA0FB91F0F47}","SHAPE_Length":935.84698102871721,"SHAPE_Area":42035.899058866737},"geometry":{"type":"Polygon","coordinates":[[[30.9077571329,29.9924334758],[30.9046316096,29.9907439081],[30.9055871376,29.9898998087],[30.9084536071,29.9915852372],[30.9077571329,29.9924334758]]]}},
{"type":"Feature","properties":{"Area_KM2":0.37064161861492284,"Area_M2":370641.61861492286,"Price_2014":700.0,"Price2023":13000.0,"Befor":259449133.03044599,"After":4818341041.9939976,"Difference":4558891908.9635515,"Price_Difference_Meter":12300.0,"GlobalID":"{4B192CF3-E371-4E36-BEED-26B29660F7D5}","SHAPE_Length":3157.7769612333418,"SHAPE_Area":370641.61861492286},"geometry":{"type":"Polygon","coordinates":[[[30.8837231749,29.9916961891],[30.8844569233,29.9903020719],[30.8851688849,29.9906715562],[30.8890363558,29.9909424995],[30.8892152533,29.9905873264],[30.8872899775,29.9892436119],[30.8872321913,29.9887354576],[30.8879555211,29.9885680447],[30.8880030479,29.9879422318],[30.8887562161,29.9879841515],[30.8888376725,29.9873743975],[30.8935394737,29.9904214876],[30.8897374182,29.9951583598],[30.8837231749,29.9916961891]]]}},
{"type":"Feature","properties":{"Area_KM2":0.65755698458637113,"Area_M2":657556.98458637111,"Price_2014":700.0,"Price2023":13000.0,"Befor":460289889.21045977,"After":8548240799.6228247,"Difference":8087950910.412365,"Price_Difference_Meter":12300.0,"GlobalID":"{726E806F-5551-427A-8E9B-D93DB5E31030}","SHAPE_Length":5726.7904248152836,"SHAPE_Area":657556.98458637111},"geometry":{"type":"Polygon","coordinates":[[[30.8919406206,29.9924135256],[30.8935394737,29.9904214876],[30.8998304551,29.9943375778],[30.8996076062,29.9967806548],[30.9001146999,29.9971169543],[30.9026423047,29.9975451429],[30.9035501849,29.9967540087],[30.9119727446,30.0021392417],[30.9084950067,30.0061418508],[30.9073964786,30.0062138956],[30.9064569592,30.005244165],[30.9059468636,30.0034159894],[30.9059297035,30.0009690801],[30.9055291348,30.0004554753],[30.904618938,29.9997248961],[30.9013049917,29.9991946951],[30.8984488199,29.9964637853],[30.8919406206,29.9924135256]]]}},
{"type":"Feature","properties":{"Area_KM2":0.095840107276936676,"Area_M2":95840.107276936673,"Price_2014":700.0,"Price2023":13000.0,"Befor":67088075.093855672,"After":1245921394.6001768,"Difference":1178833319.5063212,"Price_Difference_Meter":12300.0,"GlobalID":"{20FC4C3C-FBF4-450D-A3CE-F21050EB253B}","SHAPE_Length":1842.2543042947761,"SHAPE_Area":95840.107276936658},"geometry":{"type":"Polygon","coordinates":[[[30.9119727446,30.0021392417],[30.9051815041,29.9977971298],[30.9065893023,29.9973096175],[30.9127777937,30.0013464124],[30.9128388375,30.0017054251],[30.9119727446,30.0021392417]]]}},
{"type":"Feature","properties":{"Area_KM2":0.17549830658505172,"Area_M2":175498.30658505173,"Price_2014":700.0,"Price2023":13000.0,"Befor":122848814.60953622,"After":2281477985.6056724,"Difference":2158629170.9961362,"Price_Difference_Meter":12300.0,"GlobalID":"{29A7ECEF-3FBE-42DD-A128-0E336449BD57}","SHAPE_Length":1665.2953834838384,"SHAPE_Area":175498.30658505173},"geometry":{"type":"Polygon","coordinates":[[[30.8983816023,29.9849273278],[30.8988059491,29.9843075249],[30.9005561133,29.9825750636],[30.9046510806,29.985057112],[30.9028858877,29.9875054786],[30.8983816023,29.9849273278]]]}},
{"type":"Feature","properties":{"Area_KM2":0.075358875073074219,"Area_M2":75358.875073074218,"Price_2014":700.0,"Price2023":13000.0,"Befor":52751212.551151954,"After":979665375.94996488,"Difference":926914163.39881289,"Price_Difference_Meter":12300.0,"GlobalID":"{DFBB3E7B-B39D-4A14-97D4-C202D13B63BD}","SHAPE_Length":1081.7899018572268,"SHAPE_Area":75358.875073074218},"geometry":{"type":"Polygon","coordinates":[[[30.8982624981,29.988953424],[30.9000215492,29.986803397],[30.9019582564,29.9876100444],[30.901946336,29.9881767577],[30.900430919,29.9901516751],[30.8982624981,29.988953424]]]}},
{"type":"Feature","properties":{"Area_KM2":0.95406995701218233,"Area_M2":954069.95701218233,"Price_2014":700.0,"Price2023":13000.0,"Befor":667848969.90852761,"After":12402909441.158371,"Difference":11735060471.249844,"Price_Difference_Meter":12300.0,"GlobalID":"{CFE57D6C-FD06-45B6-ACC1-80959C67C749}","SHAPE_Length":4026.596361934397,"SHAPE_Area":954069.95701218233},"geometry":{"type":"Polygon","coordinates":[[[30.9281452217,29.9767567613],[30.9249245791,29.9750649869],[30.9244088182,29.9751463692],[30.9197699196,29.9724474758],[30.9229788518,29.969753102],[30.9269677117,29.9641468602],[30.930610515,29.9669491963],[30.9314104407,29.9680359112],[30.9342161795,29.9699000407],[30.9281452217,29.9767567613]]]}},
{"type":"Feature","properties":{"Area_KM2":0.088080039893111514,"Area_M2":88080.03989311152,"Price_2014":700.0,"Price2023":13000.0,"Befor":61656027.925178066,"After":1145040518.6104498,"Difference":1083384490.6852717,"Price_Difference_Meter":12300.0,"GlobalID":"{980005CC-D7F9-4485-8AAE-775D6EAE5A85}","SHAPE_Length":1190.9102484201712,"SHAPE_Area":88080.03989311152},"geometry":{"type":"Polygon","coordinates":[[[30.9238470815,29.9999422226],[30.9213522586,29.9979335838],[30.9232051056,29.9962024408],[30.9257416412,29.9978536552],[30.9238470815,29.9999422226]]]}},
{"type":"Feature","properties":{"Area_KM2":0.38337681205785767,"Area_M2":383376.81205785769,"Price_2014":700.0,"Price2023":13000.0,"Befor":268363768.44050038,"After":4983898556.7521496,"Difference":4715534788.3116493,"Price_Difference_Meter":12300.0,"GlobalID":"{5C8AF200-59C6-4024-95B5-0C66E0909621}","SHAPE_Length":3681.6212706605638,"SHAPE_Area":383376.81205785769},"geometry":{"type":"Polygon","coordinates":[[[30.9296178256,30.0003673169],[30.9281498128,29.999747468],[30.9268337777,29.9984139023],[30.9257711793,29.99939969],[30.927836843,30.0002915457],[30.9280298782,30.0015596841],[30.9263368127,30.0038483843],[30.9252835851,30.004380786],[30.9237727218,30.0045001743],[30.9225484486,30.0040273252],[30.9218500622,30.0033240749],[30.9224272206,30.0019487435],[30.9267708856,29.9974819894],[30.9273685407,29.9977539719],[30.9283463847,29.9968861849],[30.9281543424,29.9955703221],[30.9287648775,29.9952218846],[30.9313404587,29.9966468449],[30.9313231313,29.9974820163],[30.9304191295,29.9987567738],[30.9299236853,29.998844461],[30.9296178256,30.0003673169]]]}},
{"type":"Feature","properties":{"Area_KM2":0.0096707174584953516,"Area_M2":9670.7174584953518,"Price_2014":700.0,"Price2023":13000.0,"Befor":6769502.2209467459,"After":125719326.96043958,"Difference":118949824.73949283,"Price_Difference_Meter":12300.0,"GlobalID":"{836803BB-FA58-4DB3-936A-D4B67A1B25D6}","SHAPE_Length":569.43737860054273,"SHAPE_Area":9670.7174584953518},"geometry":{"type":"Polygon","coordinates":[[[30.9351944992,30.0022473246],[30.9351380748,30.0011317169],[30.9358215341,30.0007056206],[30.9359295575,30.002640774],[30.9351944992,30.0022473246]]]}},
{"type":"Feature","properties":{"Area_KM2":0.0075111966049111085,"Area_M2":7511.1966049111088,"Price_2014":700.0,"Price2023":13000.0,"Befor":5257837.6234377762,"After":97645555.86384441,"Difference":92387718.240406632,"Price_Difference_Meter":12300.0,"GlobalID":"{84D8CD3A-AB32-4ED1-99DA-2F63722F4BCE}","SHAPE_Length":391.86695015095336,"SHAPE_Area":7511.1966049111088},"geometry":{"type":"Polygon","coordinates":[[[30.9344185564,29.9999158802],[30.935333694,30.0004258517],[30.9349653582,30.0011290067],[30.9347186208,30.0011251345],[30.9344185564,29.9999158802]]]}},
{"type":"Feature","properties":{"Area_KM2":0.15696516805432864,"Area_M2":156965.16805432865,"Price_2014":800.0,"Price2023":12000.0,"Befor":125572134.44346292,"After":1883582016.6519437,"Difference":1758009882.2084808,"Price_Difference_Meter":11200.0,"GlobalID":"{4581E399-B91B-417D-AD47-1E52061E6F33}","SHAPE_Length":1596.1328694114534,"SHAPE_Area":156965.16805432862},"geometry":{"type":"Polygon","coordinates":[[[31.0212623025,30.057838233],[31.0190418525,30.0550503848],[31.0228274309,30.0526905062],[31.0246451003,30.055382727],[31.0212623025,30.057838233]]]}},
{"type":"Feature","properties":{"Area_KM2":0.14402747142246639,"Area_M2":144027.47142246639,"Price_2014":800.0,"Price2023":12000.0,"Befor":115221977.13797311,"After":1728329657.0695968,"Difference":1613107679.9316237,"Price_Difference_Meter":11200.0,"GlobalID":"{DA6BB7DA-B6F5-4266-BE50-9A57FEBA2896}","SHAPE_Length":1814.0599603700607,"SHAPE_Area":144027.47142246639},"geometry":{"type":"Polygon","coordinates":[[[31.0303271091,30.0594424041],[31.0263795589,30.0613166885],[31.0258942831,30.0608797359],[31.0261142411,30.0601669289],[31.0274118889,30.0590764382],[31.0250614808,30.0572150638],[31.0273416827,30.0563899704],[31.0287761934,30.0566979335],[31.0303271091,30.0594424041]]]}},
{"type":"Feature","properties":{"Area_KM2":0.072202769655324309,"Area_M2":72202.769655324315,"Price_2014":800.0,"Price2023":12000.0,"Befor":57762215.724259451,"After":866433235.86389172,"Difference":808671020.13963223,"Price_Difference_Meter":11200.0,"GlobalID":"{960DD54A-974E-4F2C-8002-EE722B992203}","SHAPE_Length":1375.1276226813713,"SHAPE_Area":72202.769655324315},"geometry":{"type":"Polygon","coordinates":[[[31.0191703702,30.0471366976],[31.0243645595,30.0446368508],[31.0245099475,30.0456057857],[31.0200506137,30.0484031486],[31.0191703702,30.0471366976]]]}},
{"type":"Feature","properties":{"Area_KM2":0.029766831070384296,"Area_M2":29766.831070384294,"Price_2014":800.0,"Price2023":12000.0,"Befor":23813464.856307436,"After":357201972.84461153,"Difference":333388507.98830408,"Price_Difference_Meter":11200.0,"GlobalID":"{1E9294D2-24B5-426C-8E08-9C5141F3E418}","SHAPE_Length":849.00443645635403,"SHAPE_Area":29766.831070384294},"geometry":{"type":"Polygon","coordinates":[[[31.0262118502,30.0562506743],[31.0255263061,30.0555362041],[31.0287554546,30.0539018058],[31.028814813,30.0543681677],[31.0262118502,30.0562506743]]]}},
{"type":"Feature","properties":{"Area_KM2":0.052111441334786984,"Area_M2":52111.441334786985,"Price_2014":800.0,"Price2023":12000.0,"Befor":41689153.067829587,"After":625337296.01744378,"Difference":583648142.94961417,"Price_Difference_Meter":11200.0,"GlobalID":"{240989A9-919A-4681-8ED8-89EF6D940DF8}","SHAPE_Length":958.70548383553501,"SHAPE_Area":52111.441334786985},"geometry":{"type":"Polygon","coordinates":[[[31.0296300607,30.0533838018],[31.0317114879,30.0521975918],[31.0327061449,30.0532389071],[31.03187046,30.0538708998],[31.0321883095,30.0544485474],[31.0308011395,30.0552154983],[31.0296300607,30.0533838018]]]}},
{"type":"Feature","properties":{"Area_KM2":0.35977581002103637,"Area_M2":359775.81002103636,"Price_2014":800.0,"Price2023":12000.0,"Befor":287820648.01682907,"After":4317309720.2524366,"Difference":4029489072.2356076,"Price_Difference_Meter":11200.0,"GlobalID":"{48ECC8AA-7ECA-4779-8956-AB73FACADCC7}","SHAPE_Length":4881.1886402989385,"SHAPE_Area":359775.81002103636},"geometry":{"type":"Polygon","coordinates":[[[31.0650043932,30.0718036751],[31.0638835543,30.0702937513],[31.0716887128,30.0668995258],[31.0726653626,30.0682689289],[31.0706453443,30.0694717892],[31.0718782633,30.070993733],[31.0737457705,30.0697837653],[31.0750952935,30.0716758525],[31.0728663779,30.0762263451],[31.0694197208,30.0777512112],[31.0685842816,30.0766259203],[31.0731812151,30.0738560836],[31.0697563097,30.0693181464],[31.0650043932,30.0718036751]]]}},
{"type":"Feature","properties":{"Area_KM2":0.71276896004425871,"Area_M2":712768.96004425874,"Price_2014":700.0,"Price2023":13000.0,"Befor":498938272.03098112,"After":9265996480.5753632,"Difference":8767058208.5443821,"Price_Difference_Meter":12300.0,"GlobalID":"{4C57AC0C-8608-465B-8C2A-23A97A143D74}","SHAPE_Length":3957.447481473534,"SHAPE_Area":728307.25402111653},"geometry":{"type":"Polygon","coordinates":[[[30.8774944769,29.9807692323],[30.8783795795,29.9800320128],[30.8790413469,29.9811115912],[30.8829631833,29.9835194132],[30.8811202076,29.9853674046],[30.8772072876,29.9872437523],[30.8677430736,29.9810339218],[30.8712525178,29.9771820993],[30.8737216862,29.978713842],[30.8737876024,29.9804454416],[30.8774944769,29.9807692323]]]}},
{"type":"Feature","properties":{"Area_KM2":0.27697389018775542,"Area_M2":276973.8901877554,"Price_2014":600.0,"Price2023":8000.0,"Befor":166184334.11265326,"After":2215791121.5020432,"Difference":2049606787.38939,"Price_Difference_Meter":7400.0,"GlobalID":"{59B43472-E47B-4D01-8CC6-F412A2B2E96D}","SHAPE_Length":2895.529787920414,"SHAPE_Area":276973.8901877554},"geometry":{"type":"Polygon","coordinates":[[[30.8920762978,30.0543696953],[30.9026106727,30.0544665931],[30.9026360415,30.0548250396],[30.9046444881,30.054828427],[30.9047080795,30.0557173842],[30.8958219673,30.0570792085],[30.8919771679,30.0567168506],[30.8920762978,30.0543696953]]]}},
{"type":"Feature","properties":{"Area_KM2":0.09534965467795449,"Area_M2":95349.654677954488,"Price_2014":600.0,"Price2023":8000.0,"Befor":57209792.806772694,"After":762797237.42363596,"Difference":705587444.61686325,"Price_Difference_Meter":7400.0,"GlobalID":"{3C0F5D13-6EF7-4FD0-88C2-E3DE172BBC80}","SHAPE_Length":1282.4030973002632,"SHAPE_Area":95349.654677954488},"geometry":{"type":"Polygon","coordinates":[[[30.9041687543,30.0615842479],[30.8995586712,30.0615870354],[30.8995430037,30.0602500996],[30.9005438171,30.0596359369],[30.9042744137,30.0596954732],[30.9041687543,30.0615842479]]]}},
{"type":"Feature","properties":{"Area_KM2":0.0066495808545990343,"Area_M2":6649.580854599034,"Price_2014":600.0,"Price2023":8000.0,"Befor":3989748.5127594206,"After":53196646.836792275,"Difference":49206898.324032858,"Price_Difference_Meter":7400.0,"GlobalID":"{7E2C9D9F-40DC-4BEB-BE50-B9C2B763E758}","SHAPE_Length":387.15066796783475,"SHAPE_Area":6649.580854599034},"geometry":{"type":"Polygon","coordinates":[[[30.9058997822,30.0622599742],[30.9066775293,30.0622723638],[30.9066433843,30.0632165725],[30.90603315,30.0632008837],[30.9061991575,30.0628038949],[30.9058997822,30.0622599742]]]}},
{"type":"Feature","properties":{"Area_KM2":0.011482499418865984,"Area_M2":11482.499418865984,"Price_2014":600.0,"Price2023":8000.0,"Befor":6889499.6513195904,"After":91859995.350927874,"Difference":84970495.699608281,"Price_Difference_Meter":7400.0,"GlobalID":"{795A248B-CC62-4C61-ADD8-17ABBE0C6BF0}","SHAPE_Length":428.65836868740723,"SHAPE_Area":11482.499418865986},"geometry":{"type":"Polygon","coordinates":[[[30.9057595303,30.061707823],[30.9057664154,30.0607292864],[30.9068908448,30.0607591325],[30.9068570407,30.0617133716],[30.9057595303,30.061707823]]]}},
{"type":"Feature","properties":{"Area_KM2":0.007958654374540252,"Area_M2":7958.6543745402523,"Price_2014":600.0,"Price2023":8000.0,"Befor":4775192.6247241516,"After":63669234.996322021,"Difference":58894042.371597871,"Price_Difference_Meter":7400.0,"GlobalID":"{6C377078-F95A-450B-A576-9ABEDB9514C1}","SHAPE_Length":357.67957279727665,"SHAPE_Area":7958.6543745402523},"geometry":{"type":"Polygon","coordinates":[[[30.9058684547,30.0604444786],[30.9059249246,30.0597173601],[30.9068448658,30.0596842744],[30.9068826535,30.0604964383],[30.9058684547,30.0604444786]]]}},
{"type":"Feature","properties":{"Area_KM2":0.13864238796539655,"Area_M2":138642.38796539654,"Price_2014":600.0,"Price2023":8000.0,"Befor":83185432.779237926,"After":1109139103.7231724,"Difference":1025953670.9439344,"Price_Difference_Meter":7400.0,"GlobalID":"{98FAD839-171E-407E-A4D4-FE538A3E8007}","SHAPE_Length":1951.9268868417635,"SHAPE_Area":138642.38796539654},"geometry":{"type":"Polygon","coordinates":[[[30.9065982752,30.057711118],[30.9061319591,30.0577036904],[30.9059563241,30.0582260199],[30.9051194428,30.0582246191],[30.9045804163,30.0590633924],[30.901451051,30.0591208789],[30.900067201,30.0583826945],[30.900073888,30.057416091],[30.9010618793,30.0574080014],[30.901703597,30.0569050548],[30.9022524508,30.0569018807],[30.902284034,30.0573559035],[30.9036488723,30.0570435063],[30.9037534264,30.0566393929],[30.9044518876,30.056698269],[30.9045637267,30.0559481645],[30.9063449119,30.0560600897],[30.9065982752,30.057711118]]]}},
{"type":"Feature","properties":{"Area_KM2":0.01707762447147846,"Area_M2":17077.624471478459,"Price_2014":600.0,"Price2023":8000.0,"Befor":10246574.682887075,"After":136620995.77182767,"Difference":126374421.08894059,"Price_Difference_Meter":7400.0,"GlobalID":"{E36D4638-8233-448B-8F5A-B9AF026D09A6}","SHAPE_Length":531.84576301739526,"SHAPE_Area":17077.624471478459},"geometry":{"type":"Polygon","coordinates":[[[30.891383807,30.0647938202],[30.8902590921,30.0647757699],[30.8902894672,30.063344099],[30.89141366,30.06338601],[30.891383807,30.0647938202]]]}},
{"type":"Feature","properties":{"Area_KM2":0.0081590323176850537,"Area_M2":8159.0323176850543,"Price_2014":600.0,"Price2023":8000.0,"Befor":4895419.390611033,"After":65272258.541480437,"Difference":60376839.150869407,"Price_Difference_Meter":7400.0,"GlobalID":"{3F401AF1-47EE-477A-923D-B55C46D1CCE5}","SHAPE_Length":365.33692795322276,"SHAPE_Area":8159.0323176850543},"geometry":{"type":"Polygon","coordinates":[[[30.8886937984,30.0622443567],[30.8887369333,30.0615051011],[30.889805735,30.0615700044],[30.889791558,30.0622381168],[30.8886937984,30.0622443567]]]}},
{"type":"Feature","properties":{"Area_KM2":0.2049770172947987,"Area_M2":204977.01729479869,"Price_2014":600.0,"Price2023":8000.0,"Befor":122986210.37687922,"After":1639816138.3583894,"Difference":1516829927.9815102,"Price_Difference_Meter":7400.0,"GlobalID":"{86BB86EE-6C79-43C4-8CCE-3184B4480363}","SHAPE_Length":1946.6013904698532,"SHAPE_Area":204977.01729479869},"geometry":{"type":"Polygon","coordinates":[[[30.8878883427,30.0665756262],[30.8816063132,30.0664745131],[30.8799903889,30.0650401707],[30.8815276148,30.0637282822],[30.88797102,30.0639752024],[30.8878883427,30.0665756262]]]}},
{"type":"Feature","properties":{"Area_KM2":0.01524700127182994,"Area_M2":15247.00127182994,"Price_2014":600.0,"Price2023":8000.0,"Befor":9148200.7630979642,"After":121976010.17463952,"Difference":112827809.41154155,"Price_Difference_Meter":7400.0,"GlobalID":"{D089E4E2-462A-4780-A6AB-323F208DF733}","SHAPE_Length":497.5765471280659,"SHAPE_Area":15247.00127182994},"geometry":{"type":"Polygon","coordinates":[[[30.8836667031,30.0560529695],[30.8836661802,30.0547878883],[30.884790269,30.0548298513],[30.8848187438,30.0560715128],[30.8836667031,30.0560529695]]]}},
{"type":"Feature","properties":{"Area_KM2":0.016117678291638588,"Area_M2":16117.678291638589,"Price_2014":600.0,"Price2023":8000.0,"Befor":9670606.9749831539,"After":128941426.33310871,"Difference":119270819.35812555,"Price_Difference_Meter":7400.0,"GlobalID":"{97082185-96CD-40C2-9CB0-F00ECD310F53}","SHAPE_Length":499.97555442560548,"SHAPE_Area":16117.678291638589},"geometry":{"type":"Polygon","coordinates":[[[30.8808568261,30.0630133247],[30.8809904357,30.0625380947],[30.8815413491,30.062439564],[30.8824415001,30.0626927629],[30.8828009007,30.0632117418],[30.8822027392,30.0635959468],[30.8808568261,30.0630133247]]]}},
{"type":"Feature","properties":{"Area_KM2":0.011068571440901207,"Area_M2":11068.571440901207,"Price_2014":600.0,"Price2023":8000.0,"Befor":6641142.8645407241,"After":88548571.527209654,"Difference":81907428.662668929,"Price_Difference_Meter":7400.0,"GlobalID":"{093280B2-42FF-496E-9CA9-66DB445CD2DD}","SHAPE_Length":423.77376396620531,"SHAPE_Area":11068.571440901207},"geometry":{"type":"Polygon","coordinates":[[[30.9006275261,30.0469144291],[30.9015482793,30.0469673205],[30.9015484818,30.0479984837],[30.9005168009,30.048001108],[30.9006275261,30.0469144291]]]}},
{"type":"Feature","properties":{"Area_KM2":0.026135808155038166,"Area_M2":26135.808155038165,"Price_2014":600.0,"Price2023":8000.0,"Befor":15681484.893022899,"After":209086465.2403053,"Difference":193404980.34728241,"Price_Difference_Meter":7400.0,"GlobalID":"{91BAFE87-59D8-41F8-80DA-66AC779700E2}","SHAPE_Length":857.62911117770875,"SHAPE_Area":26135.808155038165},"geometry":{"type":"Polygon","coordinates":[[[30.9015844988,30.04316788],[30.9008266283,30.0426783937],[30.9024840517,30.0411008158],[30.9041111063,30.0420051587],[30.9037739525,30.0423816955],[30.9026861607,30.0419251503],[30.9015844988,30.04316788]]]}},
{"type":"Feature","properties":{"Area_KM2":0.10049751469387973,"Area_M2":100497.51469387973,"Price_2014":600.0,"Price2023":8000.0,"Befor":60298508.816327833,"After":803980117.55103779,"Difference":743681608.73470998,"Price_Difference_Meter":7400.0,"GlobalID":"{D480E200-D0A4-4A2C-859D-692A0497680E}","SHAPE_Length":1998.3153781904271,"SHAPE_Area":100497.51469387973},"geometry":{"type":"Polygon","coordinates":[[[30.9065918538,30.0461502328],[30.9055758587,30.045408419],[30.9065637767,30.0443548002],[30.9046814046,30.0430645058],[30.9025871649,30.0445396651],[30.9019808556,30.0441480802],[30.9053238783,30.0417380508],[30.9086055296,30.0443300063],[30.9065918538,30.0461502328]]]}},
{"type":"Feature","properties":{"Area_KM2":0.55460111731439821,"Area_M2":554601.11731439817,"Price_2014":600.0,"Price2023":8000.0,"Befor":332760670.38863891,"After":4436808938.5151854,"Difference":4104048268.1265464,"Price_Difference_Meter":7400.0,"GlobalID":"{417792E8-4BAF-4516-B28D-D1DD07E6CC06}","SHAPE_Length":2978.6636957814335,"SHAPE_Area":554601.11731439817},"geometry":{"type":"Polygon","coordinates":[[[30.876517451,30.0857484302],[30.8738881967,30.0790702853],[30.8810093667,30.0771803175],[30.8831634836,30.0842803246],[30.876517451,30.0857484302]]]}},
{"type":"Feature","properties":{"Area_KM2":0.9000328520976888,"Area_M2":900032.85209768882,"Price_2014":500.0,"Price2023":6000.0,"Befor":450016426.0488444,"After":5400197112.586133,"Difference":4950180686.5372887,"Price_Difference_Meter":5500.0,"GlobalID":"{6A7646CF-638D-4110-8BDF-43A1AF3D7331}","SHAPE_Length":5106.2781139043882,"SHAPE_Area":900032.85209768882},"geometry":{"type":"Polygon","coordinates":[[[29.6479592937,30.267911939],[29.6442171722,30.2648511248],[29.6493108261,30.259643701],[29.6470919382,30.2570103531],[29.6441922037,30.2588826941],[29.6434907042,30.2581776327],[29.6490906132,30.2525383654],[29.6558037256,30.2607259271],[29.6479592937,30.267911939]]]}},
{"type":"Feature","properties":{"Area_KM2":0.22446002801174439,"Area_M2":224460.02801174438,"Price_2014":500.0,"Price2023":6000.0,"Befor":112230014.00587219,"After":1346760168.0704663,"Difference":1234530154.064594,"Price_Difference_Meter":5500.0,"GlobalID":"{CD9372AB-9887-4756-BA6E-A8D8972E133E}","SHAPE_Length":2417.3560199830436,"SHAPE_Area":224460.02801174438},"geometry":{"type":"Polygon","coordinates":[[[29.6642436051,30.2635168756],[29.6679757016,30.2596623609],[29.6709860534,30.262315526],[29.6691622592,30.2635859945],[29.6698717218,30.264062106],[29.668991791,30.2647267762],[29.6684839029,30.2641412816],[29.6678714427,30.2646982433],[29.6672937913,30.2642254794],[29.6660533705,30.2657970418],[29.6632295362,30.2629123417],[29.6635403804,30.2627413449],[29.6642436051,30.2635168756]]]}},
{"type":"Feature","properties":{"Area_KM2":0.13128984384042952,"Area_M2":131289.84384042953,"Price_2014":500.0,"Price2023":6000.0,"Befor":65644921.920214765,"After":787739063.04257715,"Difference":722094141.12236238,"Price_Difference_Meter":5500.0,"GlobalID":"{47E06A08-E6DB-497E-B245-CD07BE08EC66}","SHAPE_Length":1775.120536537966,"SHAPE_Area":131289.84384042953},"geometry":{"type":"Polygon","coordinates":[[[30.4227634309,30.1505850369],[30.4227114825,30.1493096214],[30.4240749563,30.1494652751],[30.4243952846,30.1491851839],[30.4293432018,30.1510005331],[30.4291430267,30.1513068565],[30.4297899942,30.1517729733],[30.4291034089,30.152833448],[30.4227634309,30.1505850369]]]}},
{"type":"Feature","properties":{"Area_KM2":0.073826188142576743,"Area_M2":73826.18814257675,"Price_2014":500.0,"Price2023":6000.0,"Befor":36913094.071288377,"After":442957128.85546052,"Difference":406044034.78417218,"Price_Difference_Meter":5500.0,"GlobalID":"{DE7B8F8A-F0F4-47A1-BBC5-FF8143CEDF89}","SHAPE_Length":1138.5217971427883,"SHAPE_Area":73826.18814257675},"geometry":{"type":"Polygon","coordinates":[[[30.6393894399,30.0899241489],[30.6393853029,30.0929521335],[30.6389136479,30.0926572676],[30.6368889441,30.0926208527],[30.6368871314,30.089928604],[30.6393894399,30.0899241489]]]}},
{"type":"Feature","properties":{"Area_KM2":0.013525558221162602,"Area_M2":13525.558221162602,"Price_2014":500.0,"Price2023":6000.0,"Befor":6762779.1105813012,"After":81153349.326975614,"Difference":74390570.216394305,"Price_Difference_Meter":5500.0,"GlobalID":"{76613ACB-8B30-49C8-BFDF-220949C49B9D}","SHAPE_Length":500.50575189532759,"SHAPE_Area":13525.558221162604},"geometry":{"type":"Polygon","coordinates":[[[30.7295283755,30.1389161885],[30.7288223596,30.138155058],[30.7297393898,30.1376816366],[30.7305988526,30.1379232477],[30.7295283755,30.1389161885]]]}},
{"type":"Feature","properties":{"Area_KM2":0.015600302071310008,"Area_M2":15600.302071310009,"Price_2014":500.0,"Price2023":6000.0,"Befor":7800151.035655004,"After":93601812.427860051,"Difference":85801661.392205045,"Price_Difference_Meter":5500.0,"GlobalID":"{62DBA297-195E-41A5-9863-FAE334DF552C}","SHAPE_Length":564.75645899140704,"SHAPE_Area":15600.302071310009},"geometry":{"type":"Polygon","coordinates":[[[30.7154547815,30.0908935852],[30.715382547,30.0927642569],[30.7145894286,30.0927163522],[30.7146871225,30.0908563623],[30.7154547815,30.0908935852]]]}}
]
}
