{"type":"FeatureCollection","name":"Agricultural_Changes_ring_link","xy_coordinate_resolution":8.98315e-10,"z_coordinate_resolution":0.0001,"features":[{"type":"Feature","properties":{"سعر_الايجار_زراعية_2024":null,"نوع_ملكية_الأرض":null,"أنواع_المحاصيل_المزروعة":null,"اسم_المحور":"2","المساحة_كم2":null,"نسبة_المساحة":null,"المساحة_فدان":null,"فرق_السعر":null,"اسم_القطاع":"10","وصف_الاستخدام":null,"Shape_Length":324.9745393635873,"Shape_Area":6557.373105344257},"geometry":{"type":"Polygon","coordinates":[[[31.5508168308,30.096934457],[31.5517267774,30.0971229403],[31.5514842736,30.0977672307],[31.5506415791,30.0976083966],[31.5508168308,30.096934457]]]}},{"type":"Feature","properties":{"سعر_الايجار_زراعية_2024":null,"نوع_ملكية_الأرض":null,"أنواع_المحاصيل_المزروعة":null,"اسم_المحور":"2","المساحة_كم2":null,"نسبة_المساحة":null,"المساحة_فدان":null,"فرق_السعر":null,"اسم_القطاع":"10","وصف_الاستخدام":null,"Shape_Length":406.0500384538715,"Shape_Area":8331.357843554439},"geometry":{"type":"Polygon","coordinates":[[[31.5507457955,30.0999752431],[31.5512178185,30.0987397705],[31.5518147601,30.0988634932],[31.5513015302,30.1001119841],[31.5507457955,30.0999752431]]]}},{"type":"Feature","properties":{"سعر_الايجار_زراعية_2024":null,"نوع_ملكية_الأرض":null,"أنواع_المحاصيل_المزروعة":null,"اسم_المحور":"2","المساحة_كم2":null,"نسبة_المساحة":null,"المساحة_فدان":null,"فرق_السعر":null,"اسم_القطاع":"10","وصف_الاستخدام":null,"Shape_Length":444.58897400004633,"Shape_Area":12267.775765381768},"geometry":{"type":"Polygon","coordinates":[[[31.5520900417,30.0981202958],[31.5531153895,30.0984028263],[31.5527700573,30.0993955803],[31.5517009643,30.0991403177],[31.5520900417,30.0981202958]]]}}]}
