{
"type": "FeatureCollection",
"name": "Axis_Road",
"xy_coordinate_resolution": 8.98315e-10,
"z_coordinate_resolution": 0.0001,
"features": [
{"type":"Feature","properties":{"اسم_المحور":"2","طول_المحور_كم":null,"اسم_القطاع":"10","Shape_Length":96969.459536656883},"geometry":{"type":"LineString","coordinates":[[31.5862256005,30.1027834114,0.0],[31.6051600612,30.1059001341,0.0],[31.6193381304,30.1109362228,0.0],[31.6261925376,30.1141184939,0.0],[31.63663125,30.1157544645,0.0],[31.6448426821,30.1175283741,0.0],[31.647236837,30.1176346581,0.0],[31.6608645666,30.1139157014,0.0],[31.6666778595,30.110706021,0.0],[31.6695634133,30.1099072072,0.0],[31.7084052502,30.110669793,0.0],[31.7384438222,30.1054515168,0.0],[31.8224441512,30.0973174592,0.0],[31.848150367,30.0952226797,0.0],[31.858016743,30.0932307662,0.0],[31.8866679387,30.0886898281,0.0],[31.9430493378,30.0861426785,0.0],[31.95336055,30.0874144367,0.0],[31.9620162353,30.0868265375,0.0],[31.9899167437,30.0824691158,0.0],[32.0447621112,30.0759507936,0.0],[32.0514081129,30.0746447407,0.0],[32.0779088167,30.0673603035,0.0],[32.0880122523,30.0653738523,0.0],[32.1037322251,30.0642188556,0.0],[32.1332934445,30.0628145816,0.0],[32.1690955231,30.0637341038,0.0],[32.1773730531,30.0651922766,0.0],[32.1945666208,30.0694628749,0.0],[32.1966437403,30.070295682,0.0],[32.2042006629,30.0748281907,0.0],[32.2109138083,30.0813272636,0.0],[32.2140528514,30.0831299392,0.0],[32.2185185624,30.0844292386,0.0],[32.2252022542,30.0855657583,0.0],[32.2362258793,30.0866338249,0.0],[32.2504674059,30.0903184026,0.0],[32.2840050998,30.0941413172,0.0],[32.2893995899,30.0943318596,0.0],[32.3010344309,30.0929913987,0.0],[32.3030143284,30.0925307916,0.0],[32.3144282855,30.0882077074,0.0],[32.3274734228,30.0867139736,0.0],[32.3303458613,30.0860820716,0.0],[32.3378224064,30.0832244928,0.0],[32.3538827465,30.0762668483,0.0],[32.392668967,30.063602434,0.0],[32.3970623788,30.0609424602,0.0],[32.4027589882,30.0552850835,0.0],[32.4065673149,30.0528470184,0.0],[32.4087978634,30.052012729,0.0],[32.4119878208,30.0514214999,0.0],[32.4187927259,30.0516949544,0.0],[32.4215974097,30.0512063774,0.0],[32.4348348836,30.0444593338,0.0],[32.4509755076,30.0333964657,0.0],[32.4668188892,30.015701012,0.0],[32.4919658883,29.9963941673,0.0],[32.5071039036,29.9774926715,0.0],[32.5117661983,29.9703509337,0.0],[32.5124848035,29.9684556605,0.0],[32.5132997359,29.9620274998,0.0]]}},
{"type":"Feature","properties":{"اسم_المحور":"2","طول_المحور_كم":17565.768590054111,"اسم_القطاع":"10","Shape_Length":17565.768590054111},"geometry":{"type":"LineString","coordinates":[[31.6075191692,30.1067268125,0.0],[31.6023491516,30.1053349718,0.0],[31.5862891419,30.1027954192,0.0],[31.5708499254,30.0991131019,0.0],[31.5636437316,30.0942622627,0.0],[31.5606020946,30.0927646593,0.0],[31.5379786991,30.0851690442,0.0],[31.5322204263,30.0847135842,0.0],[31.4910341392,30.0940413664,0.0],[31.4859710331,30.0947765833,0.0],[31.4837435936,30.0947150912,0.0],[31.4758551757,30.0932637806,0.0],[31.4639976601,30.0897921743,0.0],[31.4592199814,30.0877379888,0.0],[31.4500240776,30.0825358591,0.0],[31.4443000457,30.0805975662,0.0],[31.4354999792,30.0797406946,0.0]]}}
]
}
