{"type":"FeatureCollection","name":"Study_Area_ring_link","xy_coordinate_resolution":8.98315e-10,"z_coordinate_resolution":0.0001,"features":[{"type":"Feature","properties":{"اسم_المحور":"2","مساحة_المنطقة_كم2":154.306451391,"اسم_القطاع":"10","Shape_Length":61050.182222058465,"Shape_Area":208064757.9143881},"geometry":{"type":"Polygon","coordinates":[[[31.5855684164,30.1498653809],[31.5901866884,30.15703113],[31.592165487,30.1624452519],[31.5925589245,30.1651132523],[31.5924093131,30.1724354648],[31.591011303,30.1761586642],[31.5047358725,30.1649301144],[31.4306360431,30.15052258],[31.4385077764,30.0347120454],[31.4495524146,30.0356025745],[31.4607468111,30.0378220664],[31.4729070569,30.0420608873],[31.4857975234,30.048583558],[31.5205642769,30.040763361],[31.5306533138,30.0396296075],[31.5385365744,30.0398175428],[31.5450484042,30.0404856522],[31.5548949399,30.0425326032],[31.5857159839,30.0444252728],[31.6067302133,30.0451107232],[31.6117118546,30.0518914057],[31.612189263,30.0531963777],[31.612015073,30.0551346368],[31.5994111658,30.0798623076],[31.5975168048,30.0814231744],[31.5915695909,30.0835952123],[31.5897097695,30.0856267847],[31.5862256005,30.1027834114],[31.5827512665,30.1170516919],[31.5827852646,30.1193883187],[31.584088623,30.1234784012],[31.5844117814,30.1266210712],[31.5841783226,30.1304940806],[31.5831178082,30.1364736505],[31.5830740838,30.1410475666],[31.5838365583,30.1453852365],[31.5855684164,30.1498653809]]]}}]}
