{"type":"FeatureCollection","name":"Urban_Changes_ring_link","xy_coordinate_resolution":8.98315e-10,"z_coordinate_resolution":0.0001,"features":[{"type":"Feature","properties":{"نمط_العمران":"خدمات ","اسم_المحور":"2","نوع_طبيعة_المنطقة":null,"مساحة_التغير_كم2":null,"نسبة_المساحه":null,"مساحة_التغير_بالمتر":null,"اسم_القطاع":"10","وصف_الاستخدام":null,"SHAPE_Length":1096.085870041729,"SHAPE_Area":73270.41536856664},"geometry":{"type":"Polygon","coordinates":[[[31.4807851714,30.0636180163],[31.4807532685,30.0657065544],[31.4775039359,30.0656689587],[31.4774696719,30.0635796566],[31.4807851714,30.0636180163]]]}},{"type":"Feature","properties":{"نمط_العمران":"خدمات ","اسم_المحور":"2","نوع_طبيعة_المنطقة":null,"مساحة_التغير_كم2":null,"نسبة_المساحه":null,"مساحة_التغير_بالمتر":null,"اسم_القطاع":"10","وصف_الاستخدام":null,"SHAPE_Length":769.9918826616471,"SHAPE_Area":34024.96497467178},"geometry":{"type":"Polygon","coordinates":[[[31.4857034331,30.0712656973],[31.4851819778,30.0718028048],[31.4829867384,30.07018963],[31.4846297255,30.0694610778],[31.4857034331,30.0712656973]]]}},{"type":"Feature","properties":{"نمط_العمران":"خدمات ","اسم_المحور":"2","نوع_طبيعة_المنطقة":null,"مساحة_التغير_كم2":null,"نسبة_المساحه":null,"مساحة_التغير_بالمتر":null,"اسم_القطاع":"10","وصف_الاستخدام":null,"SHAPE_Length":2325.456459467763,"SHAPE_Area":302375.2147540205},"geometry":{"type":"Polygon","coordinates":[[[31.5024700038,30.0673626447],[31.5016459279,30.0667497474],[31.5005917187,30.0666096724],[31.4996006482,30.0669857239],[31.4989937306,30.0677743844],[31.4971754331,30.0667006385],[31.4971252741,30.0645580524],[31.4979884917,30.0645788986],[31.4995870666,30.0632244385],[31.4996153016,30.0624831113],[31.5034386414,30.0625168876],[31.5047960051,30.0638930124],[31.505013878,30.0646673164],[31.5046768356,30.0656373045],[31.5024700038,30.0673626447]]]}},{"type":"Feature","properties":{"نمط_العمران":"كمبوند","اسم_المحور":"2","نوع_طبيعة_المنطقة":null,"مساحة_التغير_كم2":null,"نسبة_المساحه":null,"مساحة_التغير_بالمتر":null,"اسم_القطاع":"10","وصف_الاستخدام":null,"SHAPE_Length":2029.317978503362,"SHAPE_Area":254819.64047000394},"geometry":{"type":"Polygon","coordinates":[[[31.5044680722,30.0659028221],[31.5049673267,30.0642818881],[31.5109632392,30.0631470417],[31.5116132162,30.0647506122],[31.5115006177,30.0661153615],[31.5101794936,30.0684230172],[31.5044680722,30.0659028221]]]}},{"type":"Feature","properties":{"نمط_العمران":"كمبوند","اسم_المحور":"2","نوع_طبيعة_المنطقة":null,"مساحة_التغير_كم2":null,"نسبة_المساحه":null,"مساحة_التغير_بالمتر":null,"اسم_القطاع":"10","وصف_الاستخدام":null,"SHAPE_Length":5551.319630561548,"SHAPE_Area":1464024.9182701542},"geometry":{"type":"Polygon","coordinates":[[[31.4647372257,30.078581461],[31.4640103214,30.0778848578],[31.4633157971,30.078261178],[31.461029437,30.07756052],[31.4591184826,30.0789124224],[31.4585284499,30.0798446683],[31.4565322052,30.0796483211],[31.4566042353,30.0771400953],[31.4541492911,30.0734250992],[31.4617540035,30.0699775706],[31.4640858202,30.0694330792],[31.4672911248,30.0694661625],[31.4743060999,30.0706981428],[31.4716011684,30.0770860149],[31.4684462773,30.0767803451],[31.4684999325,30.0792310372],[31.4665905649,30.0783099759],[31.4647372257,30.078581461]]]}},{"type":"Feature","properties":{"نمط_العمران":"كمبوند","اسم_المحور":"2","نوع_طبيعة_المنطقة":null,"مساحة_التغير_كم2":null,"نسبة_المساحه":null,"مساحة_التغير_بالمتر":null,"اسم_القطاع":"10","وصف_الاستخدام":null,"SHAPE_Length":2823.130286137717,"SHAPE_Area":358215.7693885225},"geometry":{"type":"Polygon","coordinates":[[[31.5241607573,30.0691150041],[31.521111704,30.0705135648],[31.5173160605,30.0613428339],[31.5205724828,30.0600741058],[31.5241607573,30.0691150041]]]}},{"type":"Feature","properties":{"نمط_العمران":"اسكان اجتماعى شباب","اسم_المحور":"2","نوع_طبيعة_المنطقة":null,"مساحة_التغير_كم2":null,"نسبة_المساحه":null,"مساحة_التغير_بالمتر":null,"اسم_القطاع":"10","وصف_الاستخدام":null,"SHAPE_Length":4020.53300994239,"SHAPE_Area":899278.7632966487},"geometry":{"type":"Polygon","coordinates":[[[31.5305383252,30.0651556737],[31.5295539902,30.0623831693],[31.5272351635,30.0632882772],[31.5243517181,30.0578486009],[31.5289920878,30.0544863239],[31.5318402955,30.0517801565],[31.5359211612,30.0595836229],[31.5355416601,30.0613988561],[31.5305383252,30.0651556737]]]}},{"type":"Feature","properties":{"نمط_العمران":"خدمات ","اسم_المحور":"2","نوع_طبيعة_المنطقة":null,"مساحة_التغير_كم2":null,"نسبة_المساحه":null,"مساحة_التغير_بالمتر":null,"اسم_القطاع":"10","وصف_الاستخدام":null,"SHAPE_Length":987.2054673770801,"SHAPE_Area":61067.58737927234},"geometry":{"type":"Polygon","coordinates":[[[31.5111469383,30.0590055441],[31.5095682993,30.0598542309],[31.5075174368,30.0587959034],[31.5084763473,30.0570335675],[31.5105467497,30.0578747028],[31.5111469383,30.0590055441]]]}},{"type":"Feature","properties":{"نمط_العمران":"كمبوند","اسم_المحور":"2","نوع_طبيعة_المنطقة":null,"مساحة_التغير_كم2":null,"نسبة_المساحه":null,"مساحة_التغير_بالمتر":null,"اسم_القطاع":"10","وصف_الاستخدام":null,"SHAPE_Length":1997.8287711952787,"SHAPE_Area":240577.94054095697},"geometry":{"type":"Polygon","coordinates":[[[31.4965326379,30.0737387009],[31.4986430736,30.0706193736],[31.5012189318,30.0700426609],[31.5021946735,30.0753449926],[31.4977018841,30.0761803137],[31.4965326379,30.0737387009]]]}},{"type":"Feature","properties":{"نمط_العمران":"اسكان اجتماعى شباب","اسم_المحور":"2","نوع_طبيعة_المنطقة":null,"مساحة_التغير_كم2":null,"نسبة_المساحه":null,"مساحة_التغير_بالمتر":null,"اسم_القطاع":"10","وصف_الاستخدام":null,"SHAPE_Length":1326.6358009639791,"SHAPE_Area":109312.44660407164},"geometry":{"type":"Polygon","coordinates":[[[31.5043606459,30.0731320756],[31.5018114609,30.0735198605],[31.5012189318,30.0700426609],[31.5030445196,30.0697726401],[31.5048482287,30.070315245],[31.504261956,30.0717426726],[31.5043606459,30.0731320756]]]}},{"type":"Feature","properties":{"نمط_العمران":"صناعي","اسم_المحور":"2","نوع_طبيعة_المنطقة":null,"مساحة_التغير_كم2":null,"نسبة_المساحه":null,"مساحة_التغير_بالمتر":null,"اسم_القطاع":"10","وصف_الاستخدام":null,"SHAPE_Length":8134.589096912035,"SHAPE_Area":3319201.212875854},"geometry":{"type":"Polygon","coordinates":[[[31.5843185633,30.1106285804],[31.5772301556,30.1099300442],[31.5661780474,30.1096987346],[31.5609458099,30.1085160114],[31.5548831028,30.1065166687],[31.5598919949,30.0930580772],[31.5636992316,30.0946645048],[31.5713015406,30.099628342],[31.5783635206,30.1015852466],[31.5861585526,30.1030749902],[31.5843185633,30.1106285804]]]}},{"type":"Feature","properties":{"نمط_العمران":"قوات  مسلحة","اسم_المحور":"2","نوع_طبيعة_المنطقة":null,"مساحة_التغير_كم2":null,"نسبة_المساحه":null,"مساحة_التغير_بالمتر":null,"اسم_القطاع":"10","وصف_الاستخدام":null,"SHAPE_Length":6066.8290855732275,"SHAPE_Area":1570836.9085834515},"geometry":{"type":"Polygon","coordinates":[[[31.5161758806,30.1164829823],[31.5024975605,30.1193644727],[31.5048401618,30.1124810919],[31.5009586493,30.1111724514],[31.5013973379,30.1101300025],[31.5023452312,30.1096049513],[31.5092149404,30.1092353167],[31.5106040843,30.1088399352],[31.511768044,30.1077153155],[31.5135845886,30.1037892671],[31.5187039447,30.1046872536],[31.5161758806,30.1164829823]]]}},{"type":"Feature","properties":{"نمط_العمران":"كمبوند","اسم_المحور":"2","نوع_طبيعة_المنطقة":null,"مساحة_التغير_كم2":null,"نسبة_المساحه":null,"مساحة_التغير_بالمتر":null,"اسم_القطاع":"10","وصف_الاستخدام":null,"SHAPE_Length":1317.0972232961788,"SHAPE_Area":105359.39799687934},"geometry":{"type":"Polygon","coordinates":[[[31.5161650376,30.052568057],[31.5134325616,30.0537628936],[31.5118796477,30.0505806257],[31.5142070453,30.0495299539],[31.5161650376,30.052568057]]]}},{"type":"Feature","properties":{"نمط_العمران":"ديني","اسم_المحور":"2","نوع_طبيعة_المنطقة":null,"مساحة_التغير_كم2":null,"نسبة_المساحه":null,"مساحة_التغير_بالمتر":null,"اسم_القطاع":"10","وصف_الاستخدام":null,"SHAPE_Length":2525.755023061216,"SHAPE_Area":184905.2916327065},"geometry":{"type":"Polygon","coordinates":[[[31.552779376,30.0944454342],[31.5518331172,30.0941807946],[31.5516801747,30.0946451639],[31.5508908549,30.0944775778],[31.550334546,30.0967063844],[31.5508443774,30.0968285228],[31.5504184932,30.0984663018],[31.5491932841,30.0982823629],[31.5507196841,30.0899007413],[31.5540970268,30.0910329551],[31.552779376,30.0944454342]]]}},{"type":"Feature","properties":{"نمط_العمران":"خدمات ","اسم_المحور":"2","نوع_طبيعة_المنطقة":null,"مساحة_التغير_كم2":null,"نسبة_المساحه":null,"مساحة_التغير_بالمتر":null,"اسم_القطاع":"10","وصف_الاستخدام":null,"SHAPE_Length":555.9500165638478,"SHAPE_Area":18721.806918478444},"geometry":{"type":"Polygon","coordinates":[[[31.468864559,30.0328909473],[31.4688673856,30.0339575275],[31.467190843,30.0339201524],[31.4671918108,30.0328859279],[31.468864559,30.0328909473]]]}},{"type":"Feature","properties":{"نمط_العمران":"ديني","اسم_المحور":"2","نوع_طبيعة_المنطقة":null,"مساحة_التغير_كم2":null,"نسبة_المساحه":null,"مساحة_التغير_بالمتر":null,"اسم_القطاع":"10","وصف_الاستخدام":null,"SHAPE_Length":613.744177546294,"SHAPE_Area":22075.65032505555},"geometry":{"type":"Polygon","coordinates":[[[31.468859285,30.0309014596],[31.4671623465,30.0309351255],[31.4671509002,30.0301852612],[31.4688550796,30.0293153241],[31.468859285,30.0309014596]]]}},{"type":"Feature","properties":{"نمط_العمران":"تعليمي","اسم_المحور":"2","نوع_طبيعة_المنطقة":null,"مساحة_التغير_كم2":null,"نسبة_المساحه":null,"مساحة_التغير_بالمتر":null,"اسم_القطاع":"10","وصف_الاستخدام":null,"SHAPE_Length":519.1016543059748,"SHAPE_Area":16411.741848930633},"geometry":{"type":"Polygon","coordinates":[[[31.4673262067,30.0415921578],[31.4688875625,30.0415762076],[31.468892959,30.0425623698],[31.467332232,30.0425729106],[31.4673262067,30.0415921578]]]}},{"type":"Feature","properties":{"نمط_العمران":"خدمات ","اسم_المحور":"2","نوع_طبيعة_المنطقة":null,"مساحة_التغير_كم2":null,"نسبة_المساحه":null,"مساحة_التغير_بالمتر":null,"اسم_القطاع":"10","وصف_الاستخدام":null,"SHAPE_Length":715.5073199062971,"SHAPE_Area":20972.78762995747},"geometry":{"type":"Polygon","coordinates":[[[31.4665422669,30.0533014569],[31.4672519707,30.05277196],[31.468377225,30.0526264273],[31.4691002321,30.0528624885],[31.4697908109,30.0537662933],[31.4668128655,30.0533216199],[31.4665422669,30.0533014569]]]}},{"type":"Feature","properties":{"نمط_العمران":"تعليمي","اسم_المحور":"2","نوع_طبيعة_المنطقة":null,"مساحة_التغير_كم2":null,"نسبة_المساحه":null,"مساحة_التغير_بالمتر":null,"اسم_القطاع":"10","وصف_الاستخدام":null,"SHAPE_Length":481.5763824142898,"SHAPE_Area":12394.05800714851},"geometry":{"type":"Polygon","coordinates":[[[31.4681521163,30.0495438388],[31.4673788732,30.049546948],[31.4673655157,30.0480487498],[31.468138722,30.0480426895],[31.4681521163,30.0495438388]]]}},{"type":"Feature","properties":{"نمط_العمران":"خدمات ","اسم_المحور":"2","نوع_طبيعة_المنطقة":null,"مساحة_التغير_كم2":null,"نسبة_المساحه":null,"مساحة_التغير_بالمتر":null,"اسم_القطاع":"10","وصف_الاستخدام":null,"SHAPE_Length":1007.5371637916838,"SHAPE_Area":50691.34076625117},"geometry":{"type":"Polygon","coordinates":[[[31.44942842,30.0638651968],[31.4472193374,30.0643894376],[31.4467079149,30.0634404552],[31.4456984133,30.0628167369],[31.4468643523,30.0618056982],[31.4479548667,30.0627369709],[31.4490785705,30.0627199714],[31.44942842,30.0638651968]]]}},{"type":"Feature","properties":{"نمط_العمران":"ديني","اسم_المحور":"2","نوع_طبيعة_المنطقة":null,"مساحة_التغير_كم2":null,"نسبة_المساحه":null,"مساحة_التغير_بالمتر":null,"اسم_القطاع":"10","وصف_الاستخدام":null,"SHAPE_Length":414.2978247547669,"SHAPE_Area":7927.456576242212},"geometry":{"type":"Polygon","coordinates":[[[31.4477752497,30.0663863892],[31.449359882,30.0660333954],[31.4494748966,30.0665060036],[31.447918539,30.0668123369],[31.4477752497,30.0663863892]]]}},{"type":"Feature","properties":{"نمط_العمران":"صناعي","اسم_المحور":"2","نوع_طبيعة_المنطقة":null,"مساحة_التغير_كم2":null,"نسبة_المساحه":null,"مساحة_التغير_بالمتر":null,"اسم_القطاع":"10","وصف_الاستخدام":null,"SHAPE_Length":407.63906335480806,"SHAPE_Area":10289.393369276971},"geometry":{"type":"Polygon","coordinates":[[[31.5036063985,30.0458115476],[31.5023251119,30.0456589492],[31.5021492285,30.0451857414],[31.5032611431,30.0448587117],[31.5036063985,30.0458115476]]]}},{"type":"Feature","properties":{"نمط_العمران":"اسكان مخطط اقتصادى","اسم_المحور":"2","نوع_طبيعة_المنطقة":null,"مساحة_التغير_كم2":null,"نسبة_المساحه":null,"مساحة_التغير_بالمتر":null,"اسم_القطاع":"10","وصف_الاستخدام":null,"SHAPE_Length":1194.138071632766,"SHAPE_Area":28277.955712429335},"geometry":{"type":"Polygon","coordinates":[[[31.5017352613,30.0493607293],[31.5023043193,30.0510693303],[31.5018559075,30.0511523703],[31.5015638169,30.0500421903],[31.5000967375,30.0490951738],[31.4997796465,30.0477962919],[31.5000308479,30.0473938926],[31.5007910926,30.0476929231],[31.500279512,30.0479008118],[31.5005726061,30.0488451468],[31.5007934573,30.0486297804],[31.5017352613,30.0493607293]]]}},{"type":"Feature","properties":{"نمط_العمران":"اسكان مخطط اقتصادى","اسم_المحور":"2","نوع_طبيعة_المنطقة":null,"مساحة_التغير_كم2":null,"نسبة_المساحه":null,"مساحة_التغير_بالمتر":null,"اسم_القطاع":"10","وصف_الاستخدام":null,"SHAPE_Length":751.5051466168283,"SHAPE_Area":28733.034793641385},"geometry":{"type":"Polygon","coordinates":[[[31.5032755129,30.0470090186],[31.5042902508,30.0493283637],[31.5034663467,30.0496689544],[31.5023740322,30.0472064372],[31.5032755129,30.0470090186]]]}},{"type":"Feature","properties":{"نمط_العمران":"خدمات ","اسم_المحور":"2","نوع_طبيعة_المنطقة":null,"مساحة_التغير_كم2":null,"نسبة_المساحه":null,"مساحة_التغير_بالمتر":null,"اسم_القطاع":"10","وصف_الاستخدام":null,"SHAPE_Length":1092.7469997072637,"SHAPE_Area":46293.68378357873},"geometry":{"type":"Polygon","coordinates":[[[31.4405322722,30.0516285795],[31.4421021244,30.0515539163],[31.4418458349,30.0528030129],[31.437305199,30.0529355702],[31.4373085823,30.0526741732],[31.4405322722,30.0516285795]]]}},{"type":"Feature","properties":{"نمط_العمران":"حكومي","اسم_المحور":"2","نوع_طبيعة_المنطقة":null,"مساحة_التغير_كم2":null,"نسبة_المساحه":null,"مساحة_التغير_بالمتر":null,"اسم_القطاع":"10","وصف_الاستخدام":null,"SHAPE_Length":893.8758679029283,"SHAPE_Area":52453.86562608687},"geometry":{"type":"Polygon","coordinates":[[[31.5254711267,30.0682965836],[31.5262568951,30.0684896613],[31.5269684643,30.0704815216],[31.5246816671,30.0708784331],[31.5241607573,30.0691150041],[31.5254711267,30.0682965836]]]}},{"type":"Feature","properties":{"نمط_العمران":"حكومي","اسم_المحور":"2","نوع_طبيعة_المنطقة":null,"مساحة_التغير_كم2":null,"نسبة_المساحه":null,"مساحة_التغير_بالمتر":null,"اسم_القطاع":"10","وصف_الاستخدام":null,"SHAPE_Length":690.8177780045503,"SHAPE_Area":26390.562349514632},"geometry":{"type":"Polygon","coordinates":[[[31.5173933048,30.0502677786],[31.5165359077,30.0507445621],[31.5152348548,30.0489982026],[31.5162024182,30.0484562213],[31.5173933048,30.0502677786]]]}},{"type":"Feature","properties":{"نمط_العمران":"خدمات ","اسم_المحور":"2","نوع_طبيعة_المنطقة":null,"مساحة_التغير_كم2":null,"نسبة_المساحه":null,"مساحة_التغير_بالمتر":null,"اسم_القطاع":"10","وصف_الاستخدام":null,"SHAPE_Length":997.3599053947141,"SHAPE_Area":52732.74171991956},"geometry":{"type":"Polygon","coordinates":[[[31.5200595471,30.0458318353],[31.5209770194,30.0467199021],[31.5204433957,30.0471371662],[31.5208932799,30.0475726261],[31.5193390524,30.0487307149],[31.517680427,30.0475441938],[31.5200595471,30.0458318353]]]}},{"type":"Feature","properties":{"نمط_العمران":"اسكان مخطط اقتصادى","اسم_المحور":"2","نوع_طبيعة_المنطقة":null,"مساحة_التغير_كم2":null,"نسبة_المساحه":null,"مساحة_التغير_بالمتر":null,"اسم_القطاع":"10","وصف_الاستخدام":null,"SHAPE_Length":12062.165547201846,"SHAPE_Area":6373222.996988251},"geometry":{"type":"Polygon","coordinates":[[[31.5484638475,30.0554742407],[31.5550579574,30.0583645545],[31.562024296,30.0487124036],[31.5696335264,30.0515110316],[31.5688651683,30.0541404785],[31.5669342369,30.0572443774],[31.5615535661,30.0633358544],[31.5634365839,30.0652282832],[31.5643566735,30.0680290235],[31.561802783,30.0816570728],[31.5457241918,30.0781339008],[31.5421058648,30.0787468409],[31.541799827,30.0799609933],[31.5383007391,30.0808607371],[31.538872463,30.0737277083],[31.5382193765,30.0672917866],[31.5444576457,30.060719672],[31.5484638475,30.0554742407]]]}},{"type":"Feature","properties":{"نمط_العمران":"خدمات ","اسم_المحور":"2","نوع_طبيعة_المنطقة":null,"مساحة_التغير_كم2":null,"نسبة_المساحه":null,"مساحة_التغير_بالمتر":null,"اسم_القطاع":"10","وصف_الاستخدام":null,"SHAPE_Length":644.6306885353573,"SHAPE_Area":24358.16470802773},"geometry":{"type":"Polygon","coordinates":[[[31.537481658,30.0641451244],[31.5396474655,30.0640457688],[31.5397260011,30.065146018],[31.5377654224,30.065236957],[31.537481658,30.0641451244]]]}},{"type":"Feature","properties":{"نمط_العمران":"اسكان مخطط اقتصادى","اسم_المحور":"2","نوع_طبيعة_المنطقة":null,"مساحة_التغير_كم2":null,"نسبة_المساحه":null,"مساحة_التغير_بالمتر":null,"اسم_القطاع":"10","وصف_الاستخدام":null,"SHAPE_Length":1716.1877215713666,"SHAPE_Area":81411.61805588214},"geometry":{"type":"Polygon","coordinates":[[[31.5436194044,30.0390332152],[31.5455986126,30.0396631732],[31.5453199506,30.0403354474],[31.5442378727,30.0406694234],[31.5436955614,30.0418601257],[31.5465346447,30.0428388994],[31.5462404594,30.0435303663],[31.5421629111,30.042273005],[31.5436194044,30.0390332152]]]}},{"type":"Feature","properties":{"نمط_العمران":"خدمات ","اسم_المحور":"2","نوع_طبيعة_المنطقة":null,"مساحة_التغير_كم2":null,"نسبة_المساحه":null,"مساحة_التغير_بالمتر":null,"اسم_القطاع":"10","وصف_الاستخدام":null,"SHAPE_Length":1694.114087512391,"SHAPE_Area":129139.41940782165},"geometry":{"type":"Polygon","coordinates":[[[31.5548426718,30.0426871902],[31.5523928628,30.04865813],[31.550344069,30.044784033],[31.5548426718,30.0426871902]]]}},{"type":"Feature","properties":{"نمط_العمران":"كمبوند","اسم_المحور":"2","نوع_طبيعة_المنطقة":null,"مساحة_التغير_كم2":null,"نسبة_المساحه":null,"مساحة_التغير_بالمتر":null,"اسم_القطاع":"10","وصف_الاستخدام":null,"SHAPE_Length":3973.9160617864645,"SHAPE_Area":728048.6273561174},"geometry":{"type":"Polygon","coordinates":[[[31.5443171702,30.0465300577],[31.5349573336,30.0575806105],[31.5312286075,30.0506417939],[31.5328687478,30.0505246607],[31.5346246013,30.0485942019],[31.5381503026,30.0469234802],[31.5396526109,30.0447709891],[31.5443171702,30.0465300577]]]}},{"type":"Feature","properties":{"نمط_العمران":"ديني","اسم_المحور":"2","نوع_طبيعة_المنطقة":null,"مساحة_التغير_كم2":null,"نسبة_المساحه":null,"مساحة_التغير_بالمتر":null,"اسم_القطاع":"10","وصف_الاستخدام":null,"SHAPE_Length":537.5176071831959,"SHAPE_Area":17349.214750489882},"geometry":{"type":"Polygon","coordinates":[[[31.5038895988,30.0585688692],[31.5031157833,30.0579911274],[31.5032236622,30.0576545139],[31.5049440672,30.0572250505],[31.5050558613,30.0580238882],[31.5038895988,30.0585688692]]]}},{"type":"Feature","properties":{"نمط_العمران":"خدمات ","اسم_المحور":"2","نوع_طبيعة_المنطقة":null,"مساحة_التغير_كم2":null,"نسبة_المساحه":null,"مساحة_التغير_بالمتر":null,"اسم_القطاع":"10","وصف_الاستخدام":null,"SHAPE_Length":380.7658317170512,"SHAPE_Area":9050.153455304304},"geometry":{"type":"Polygon","coordinates":[[[31.5045004674,30.0741535202],[31.5046147639,30.0749884905],[31.5036278128,30.0751327201],[31.5035452389,30.0742477044],[31.5045004674,30.0741535202]]]}},{"type":"Feature","properties":{"نمط_العمران":"صناعي","اسم_المحور":"2","نوع_طبيعة_المنطقة":null,"مساحة_التغير_كم2":null,"نسبة_المساحه":null,"مساحة_التغير_بالمتر":null,"اسم_القطاع":"10","وصف_الاستخدام":null,"SHAPE_Length":280.63768522794,"SHAPE_Area":4193.93859717787},"geometry":{"type":"Polygon","coordinates":[[[31.4530813872,30.0412857615],[31.4530843254,30.0415382217],[31.4520781332,30.0415587954],[31.4520676419,30.0411703101],[31.4530813872,30.0412857615]]]}},{"type":"Feature","properties":{"نمط_العمران":"ديني","اسم_المحور":"2","نوع_طبيعة_المنطقة":null,"مساحة_التغير_كم2":null,"نسبة_المساحه":null,"مساحة_التغير_بالمتر":null,"اسم_القطاع":"10","وصف_الاستخدام":null,"SHAPE_Length":295.4673428635072,"SHAPE_Area":5308.112152685166},"geometry":{"type":"Polygon","coordinates":[[[31.4495305265,30.0408340274],[31.4497798966,30.0400878231],[31.4504555407,30.0403106432],[31.4500175389,30.0410047995],[31.4495305265,30.0408340274]]]}},{"type":"Feature","properties":{"نمط_العمران":"خدمات ","اسم_المحور":"2","نوع_طبيعة_المنطقة":null,"مساحة_التغير_كم2":null,"نسبة_المساحه":null,"مساحة_التغير_بالمتر":null,"اسم_القطاع":"10","وصف_الاستخدام":null,"SHAPE_Length":382.62084360472,"SHAPE_Area":8555.436233686207},"geometry":{"type":"Polygon","coordinates":[[[31.4530462917,30.0508985654],[31.4520566956,30.0509058887],[31.4520437725,30.0500061592],[31.4530495074,30.0501075087],[31.4530462917,30.0508985654]]]}},{"type":"Feature","properties":{"نمط_العمران":"ديني","اسم_المحور":"2","نوع_طبيعة_المنطقة":null,"مساحة_التغير_كم2":null,"نسبة_المساحه":null,"مساحة_التغير_بالمتر":null,"اسم_القطاع":"10","وصف_الاستخدام":null,"SHAPE_Length":396.5707466137389,"SHAPE_Area":10203.18411894983},"geometry":{"type":"Polygon","coordinates":[[[31.4520507122,30.0367411488],[31.452451623,30.0372091612],[31.4514950244,30.037793337],[31.4509014978,30.0371445134],[31.4520507122,30.0367411488]]]}},{"type":"Feature","properties":{"نمط_العمران":"تعليمي","اسم_المحور":"2","نوع_طبيعة_المنطقة":null,"مساحة_التغير_كم2":null,"نسبة_المساحه":null,"مساحة_التغير_بالمتر":null,"اسم_القطاع":"10","وصف_الاستخدام":null,"SHAPE_Length":824.2264625024225,"SHAPE_Area":32455.95007526791},"geometry":{"type":"Polygon","coordinates":[[[31.4505193797,30.0434603037],[31.451133693,30.0434557403],[31.4511403524,30.0439800724],[31.4521147016,30.0436916975],[31.4521567102,30.0455781693],[31.4505567644,30.0456466662],[31.4505193797,30.0434603037]]]}},{"type":"Feature","properties":{"نمط_العمران":"خدمات ","اسم_المحور":"2","نوع_طبيعة_المنطقة":null,"مساحة_التغير_كم2":null,"نسبة_المساحه":null,"مساحة_التغير_بالمتر":null,"اسم_القطاع":"10","وصف_الاستخدام":null,"SHAPE_Length":606.168059197366,"SHAPE_Area":20271.608573419184},"geometry":{"type":"Polygon","coordinates":[[[31.4517823116,30.049875536],[31.4505770421,30.0495457267],[31.4505970912,30.0480051471],[31.4517631752,30.0481197777],[31.4517823116,30.049875536]]]}},{"type":"Feature","properties":{"نمط_العمران":"اسكان مخطط اقتصادى","اسم_المحور":"2","نوع_طبيعة_المنطقة":null,"مساحة_التغير_كم2":null,"نسبة_المساحه":null,"مساحة_التغير_بالمتر":null,"اسم_القطاع":"10","وصف_الاستخدام":null,"SHAPE_Length":1174.8524192573352,"SHAPE_Area":76564.5113426507},"geometry":{"type":"Polygon","coordinates":[[[31.5302679759,30.0412955748],[31.5292875683,30.0429065024],[31.5257600588,30.0410869657],[31.5267335413,30.0396101267],[31.5302679759,30.0412955748]]]}},{"type":"Feature","properties":{"نمط_العمران":"قوات  مسلحة","اسم_المحور":"2","نوع_طبيعة_المنطقة":null,"مساحة_التغير_كم2":null,"نسبة_المساحه":null,"مساحة_التغير_بالمتر":null,"اسم_القطاع":"10","وصف_الاستخدام":null,"SHAPE_Length":2894.305623819583,"SHAPE_Area":480335.2537375901},"geometry":{"type":"Polygon","coordinates":[[[31.5475376835,30.1045500218],[31.5456710054,30.1088223191],[31.5367934422,30.10761587],[31.5376166435,30.1027495403],[31.5475376835,30.1045500218]]]}},{"type":"Feature","properties":{"نمط_العمران":"قوات  مسلحة","اسم_المحور":"2","نوع_طبيعة_المنطقة":null,"مساحة_التغير_كم2":null,"نسبة_المساحه":null,"مساحة_التغير_بالمتر":null,"اسم_القطاع":"10","وصف_الاستخدام":null,"SHAPE_Length":2518.5749985994307,"SHAPE_Area":263905.7154449858},"geometry":{"type":"Polygon","coordinates":[[[31.5561352507,30.1171085289],[31.5554222121,30.1203362918],[31.5590349435,30.1209324906],[31.5585363257,30.1236582006],[31.552476266,30.1226567755],[31.55379425,30.1167207678],[31.5561352507,30.1171085289]]]}},{"type":"Feature","properties":{"نمط_العمران":"قوات  مسلحة","اسم_المحور":"2","نوع_طبيعة_المنطقة":null,"مساحة_التغير_كم2":null,"نسبة_المساحه":null,"مساحة_التغير_بالمتر":null,"اسم_القطاع":"10","وصف_الاستخدام":null,"SHAPE_Length":2308.6020259045245,"SHAPE_Area":286327.7537741107},"geometry":{"type":"Polygon","coordinates":[[[31.457639947,30.084706422],[31.4656450612,30.0846855518],[31.4648056929,30.0897544666],[31.4575897008,30.0862586258],[31.457639947,30.084706422]]]}},{"type":"Feature","properties":{"نمط_العمران":"ديني","اسم_المحور":"2","نوع_طبيعة_المنطقة":null,"مساحة_التغير_كم2":null,"نسبة_المساحه":null,"مساحة_التغير_بالمتر":null,"اسم_القطاع":"10","وصف_الاستخدام":null,"SHAPE_Length":400.86713279386464,"SHAPE_Area":6973.764484154606},"geometry":{"type":"Polygon","coordinates":[[[31.5169852527,30.0521568722],[31.5165728692,30.0523665794],[31.5157713044,30.0511446855],[31.5161638672,30.0509514434],[31.5169852527,30.0521568722]]]}},{"type":"Feature","properties":{"نمط_العمران":"خدمات ","اسم_المحور":"2","نوع_طبيعة_المنطقة":null,"مساحة_التغير_كم2":null,"نسبة_المساحه":null,"مساحة_التغير_بالمتر":null,"اسم_القطاع":"10","وصف_الاستخدام":null,"SHAPE_Length":1887.85063908424,"SHAPE_Area":209366.4209358748},"geometry":{"type":"Polygon","coordinates":[[[31.4774606461,30.0727592353],[31.475529655,30.0766942584],[31.4742923473,30.0769656757],[31.4719340495,30.0763289084],[31.4743060999,30.0706981428],[31.4774606461,30.0727592353]]]}},{"type":"Feature","properties":{"نمط_العمران":"خدمات ","اسم_المحور":"2","نوع_طبيعة_المنطقة":null,"مساحة_التغير_كم2":null,"نسبة_المساحه":null,"مساحة_التغير_بالمتر":null,"اسم_القطاع":"10","وصف_الاستخدام":null,"SHAPE_Length":295.22451293522266,"SHAPE_Area":4451.50550738786},"geometry":{"type":"Polygon","coordinates":[[[31.4673619052,30.0452920218],[31.4677916986,30.0452860359],[31.4678091891,30.0462364198],[31.467362737,30.0462426374],[31.4673619052,30.0452920218]]]}},{"type":"Feature","properties":{"نمط_العمران":"خدمات ","اسم_المحور":"2","نوع_طبيعة_المنطقة":null,"مساحة_التغير_كم2":null,"نسبة_المساحه":null,"مساحة_التغير_بالمتر":null,"اسم_القطاع":"10","وصف_الاستخدام":null,"SHAPE_Length":611.4449816804042,"SHAPE_Area":23353.4399449068},"geometry":{"type":"Polygon","coordinates":[[[31.4689187279,30.0444971938],[31.4673612295,30.0445184946],[31.467340599,30.0431177828],[31.4689000362,30.0430937478],[31.4689187279,30.0444971938]]]}},{"type":"Feature","properties":{"نمط_العمران":"حكومي","اسم_المحور":"2","نوع_طبيعة_المنطقة":null,"مساحة_التغير_كم2":null,"نسبة_المساحه":null,"مساحة_التغير_بالمتر":null,"اسم_القطاع":"10","وصف_الاستخدام":null,"SHAPE_Length":614.3452939381257,"SHAPE_Area":23912.687823298296},"geometry":{"type":"Polygon","coordinates":[[[31.5118524723,30.0533953397],[31.5104079699,30.0538699226],[31.5095524225,30.052879006],[31.5113430202,30.0522671203],[31.5118524723,30.0533953397]]]}},{"type":"Feature","properties":{"نمط_العمران":"اسكان مخطط اقتصادى","اسم_المحور":"2","نوع_طبيعة_المنطقة":null,"مساحة_التغير_كم2":null,"نسبة_المساحه":null,"مساحة_التغير_بالمتر":null,"اسم_القطاع":"10","وصف_الاستخدام":null,"SHAPE_Length":8033.455831380039,"SHAPE_Area":1718071.939279805},"geometry":{"type":"Polygon","coordinates":[[[31.5813926363,30.0720179576],[31.5758435249,30.069873774],[31.5762943107,30.0690621762],[31.5781239414,30.0697170216],[31.5788401811,30.0683830643],[31.5804703769,30.0680115371],[31.580950739,30.0670474502],[31.5801735576,30.0666928883],[31.5822433504,30.0624170375],[31.5818510375,30.060581627],[31.5826609257,30.0589416572],[31.5810860585,30.0583314064],[31.5802513992,30.0599612712],[31.572760338,30.0574548636],[31.5745818118,30.0530182023],[31.5748186654,30.0492491107],[31.5827207173,30.051968589],[31.5898712365,30.0553513638],[31.5813926363,30.0720179576]]]}},{"type":"Feature","properties":{"نمط_العمران":"كمبوند","اسم_المحور":"2","نوع_طبيعة_المنطقة":null,"مساحة_التغير_كم2":null,"نسبة_المساحه":null,"مساحة_التغير_بالمتر":null,"اسم_القطاع":"10","وصف_الاستخدام":null,"SHAPE_Length":3061.5655980373162,"SHAPE_Area":459740.0463585092},"geometry":{"type":"Polygon","coordinates":[[[31.591668739,30.0688349205],[31.5913318061,30.0697141313],[31.5901817875,30.0693437909],[31.5890540155,30.0684326919],[31.5884772792,30.0671825155],[31.5887915897,30.0653454405],[31.5896368954,30.0655522394],[31.5906992246,30.0632180317],[31.600267909,30.0671484351],[31.5990126911,30.0683847479],[31.5973014081,30.0690861137],[31.5963871875,30.0691968767],[31.5941711233,30.0685789388],[31.591668739,30.0688349205]]]}},{"type":"Feature","properties":{"نمط_العمران":"كمبوند","اسم_المحور":"2","نوع_طبيعة_المنطقة":null,"مساحة_التغير_كم2":null,"نسبة_المساحه":null,"مساحة_التغير_بالمتر":null,"اسم_القطاع":"10","وصف_الاستخدام":null,"SHAPE_Length":2264.7021312156367,"SHAPE_Area":280738.7242862058},"geometry":{"type":"Polygon","coordinates":[[[31.5813926363,30.0720179576],[31.579963404,30.0750344864],[31.5726187253,30.0723049461],[31.5741862072,30.0692303155],[31.5813926363,30.0720179576]]]}},{"type":"Feature","properties":{"نمط_العمران":"اسكان مخطط اقتصادى","اسم_المحور":"2","نوع_طبيعة_المنطقة":null,"مساحة_التغير_كم2":null,"نسبة_المساحه":null,"مساحة_التغير_بالمتر":null,"اسم_القطاع":"10","وصف_الاستخدام":null,"SHAPE_Length":3150.755325418332,"SHAPE_Area":401940.1049649371},"geometry":{"type":"Polygon","coordinates":[[[31.5869054662,30.0672176712],[31.5876490826,30.0675205886],[31.588518583,30.0673677807],[31.5895175579,30.0689071672],[31.5913318061,30.0697141313],[31.5889208015,30.0747729386],[31.5813926363,30.0720179576],[31.5828846582,30.068975689],[31.5859211015,30.0700876952],[31.587761291,30.0698357238],[31.5878994924,30.0693884074],[31.5869054662,30.0672176712]]]}},{"type":"Feature","properties":{"نمط_العمران":"اسكان اجتماعى شباب","اسم_المحور":"2","نوع_طبيعة_المنطقة":null,"مساحة_التغير_كم2":null,"نسبة_المساحه":null,"مساحة_التغير_بالمتر":null,"اسم_القطاع":"10","وصف_الاستخدام":null,"SHAPE_Length":2464.3118690389347,"SHAPE_Area":226271.01255906618},"geometry":{"type":"Polygon","coordinates":[[[31.5899409871,30.0599058409],[31.5907386423,30.0609976977],[31.5886968561,30.0624443985],[31.5868830969,30.0617169302],[31.5905028096,30.0540931288],[31.5933409335,30.0552258968],[31.5919552678,30.0571299512],[31.5904294756,30.0581803741],[31.5899387693,30.0589547708],[31.5899409871,30.0599058409]]]}},{"type":"Feature","properties":{"نمط_العمران":"كمبوند","اسم_المحور":"2","نوع_طبيعة_المنطقة":null,"مساحة_التغير_كم2":null,"نسبة_المساحه":null,"مساحة_التغير_بالمتر":null,"اسم_القطاع":"10","وصف_الاستخدام":null,"SHAPE_Length":1354.4478443825037,"SHAPE_Area":91985.04177976715},"geometry":{"type":"Polygon","coordinates":[[[31.5927142796,30.0600733905],[31.5916085143,30.0592918052],[31.5898774314,30.059568156],[31.5904294756,30.0581803741],[31.5919552678,30.0571299512],[31.5947691697,30.0587554223],[31.5952215399,30.05910045],[31.5927142796,30.0600733905]]]}},{"type":"Feature","properties":{"نمط_العمران":"كمبوند","اسم_المحور":"2","نوع_طبيعة_المنطقة":null,"مساحة_التغير_كم2":null,"نسبة_المساحه":null,"مساحة_التغير_بالمتر":null,"اسم_القطاع":"10","وصف_الاستخدام":null,"SHAPE_Length":1545.7880698464921,"SHAPE_Area":148510.782749929},"geometry":{"type":"Polygon","coordinates":[[[31.5879083877,30.0694178866],[31.5876472352,30.069905951],[31.5859211015,30.0700876952],[31.5828846582,30.068975689],[31.5844988143,30.0656841437],[31.5861174544,30.065881206],[31.5879083877,30.0694178866]]]}},{"type":"Feature","properties":{"نمط_العمران":"اسكان اجتماعى شباب","اسم_المحور":"2","نوع_طبيعة_المنطقة":null,"مساحة_التغير_كم2":null,"نسبة_المساحه":null,"مساحة_التغير_بالمتر":null,"اسم_القطاع":"10","وصف_الاستخدام":null,"SHAPE_Length":2029.8118581450392,"SHAPE_Area":238111.89296300246},"geometry":{"type":"Polygon","coordinates":[[[31.5101794936,30.0684230172],[31.5088577779,30.0699072554],[31.5072934922,30.0703917365],[31.5015728294,30.0688636188],[31.5013811771,30.0685328119],[31.5044680722,30.0659028221],[31.5101794936,30.0684230172]]]}},{"type":"Feature","properties":{"نمط_العمران":"كمبوند","اسم_المحور":"2","نوع_طبيعة_المنطقة":null,"مساحة_التغير_كم2":null,"نسبة_المساحه":null,"مساحة_التغير_بالمتر":null,"اسم_القطاع":"10","وصف_الاستخدام":null,"SHAPE_Length":1864.63642838049,"SHAPE_Area":200441.04891857173},"geometry":{"type":"Polygon","coordinates":[[[31.5475909653,30.0439468115],[31.550344069,30.044784033],[31.5523928628,30.04865813],[31.5519735839,30.0495060031],[31.5461119144,30.0472068223],[31.5475909653,30.0439468115]]]}},{"type":"Feature","properties":{"نمط_العمران":"اسكان مخطط اقتصادى","اسم_المحور":"2","نوع_طبيعة_المنطقة":null,"مساحة_التغير_كم2":null,"نسبة_المساحه":null,"مساحة_التغير_بالمتر":null,"اسم_القطاع":"10","وصف_الاستخدام":null,"SHAPE_Length":3292.0184545998586,"SHAPE_Area":328482.8189690756},"geometry":{"type":"Polygon","coordinates":[[[31.4711592246,30.0811707555],[31.4707124967,30.0830910207],[31.4635163574,30.082559021],[31.4561487065,30.0815169941],[31.4565322052,30.0796483211],[31.4711592246,30.0811707555]]]}},{"type":"Feature","properties":{"نمط_العمران":"كمبوند","اسم_المحور":"2","نوع_طبيعة_المنطقة":null,"مساحة_التغير_كم2":null,"نسبة_المساحه":null,"مساحة_التغير_بالمتر":null,"اسم_القطاع":"10","وصف_الاستخدام":null,"SHAPE_Length":3466.626368797624,"SHAPE_Area":335782.2988500595},"geometry":{"type":"Polygon","coordinates":[[[31.4647372257,30.078581461],[31.4665905649,30.0783099759],[31.4684999325,30.0792310372],[31.4684462773,30.0767803451],[31.4716011684,30.0770860149],[31.4711592246,30.0811707555],[31.4585284499,30.0798446683],[31.4591184826,30.0789124224],[31.461029437,30.07756052],[31.4633157971,30.078261178],[31.4640103214,30.0778848578],[31.4647372257,30.078581461]]]}},{"type":"Feature","properties":{"نمط_العمران":"صناعي","اسم_المحور":"2","نوع_طبيعة_المنطقة":null,"مساحة_التغير_كم2":null,"نسبة_المساحه":null,"مساحة_التغير_بالمتر":null,"اسم_القطاع":"10","وصف_الاستخدام":null,"SHAPE_Length":3633.2331986220415,"SHAPE_Area":629743.371615913},"geometry":{"type":"Polygon","coordinates":[[[31.5187039447,30.1046872536],[31.5279631786,30.106242273],[31.5270830637,30.1102020592],[31.5227552713,30.1095059715],[31.5218846805,30.1135487195],[31.5169624936,30.1128130526],[31.5187039447,30.1046872536]]]}},{"type":"Feature","properties":{"نمط_العمران":"خدمات ","اسم_المحور":"2","نوع_طبيعة_المنطقة":null,"مساحة_التغير_كم2":null,"نسبة_المساحه":null,"مساحة_التغير_بالمتر":null,"اسم_القطاع":"10","وصف_الاستخدام":null,"SHAPE_Length":362.9440252700234,"SHAPE_Area":7217.711665230996},"geometry":{"type":"Polygon","coordinates":[[[31.4511807737,30.0495864804],[31.4511665559,30.0506793896],[31.450562365,30.0506734397],[31.4505770421,30.0495457267],[31.4511807737,30.0495864804]]]}},{"type":"Feature","properties":{"نمط_العمران":"تعليمي","اسم_المحور":"2","نوع_طبيعة_المنطقة":null,"مساحة_التغير_كم2":null,"نسبة_المساحه":null,"مساحة_التغير_بالمتر":null,"اسم_القطاع":"10","وصف_الاستخدام":null,"SHAPE_Length":486.8212534742564,"SHAPE_Area":14935.035863755624},"geometry":{"type":"Polygon","coordinates":[[[31.4517240413,30.0479317401],[31.4530590058,30.0477708647],[31.4530545619,30.0488641244],[31.451771622,30.0488947783],[31.4517240413,30.0479317401]]]}},{"type":"Feature","properties":{"نمط_العمران":"تعليمي","اسم_المحور":"2","نوع_طبيعة_المنطقة":null,"مساحة_التغير_كم2":null,"نسبة_المساحه":null,"مساحة_التغير_بالمتر":null,"اسم_القطاع":"10","وصف_الاستخدام":null,"SHAPE_Length":649.138673919932,"SHAPE_Area":26095.120263531448},"geometry":{"type":"Polygon","coordinates":[[[31.4490346324,30.0622597945],[31.4500505018,30.0613493324],[31.4510095923,30.0618848205],[31.4512623161,30.0626839429],[31.4491946049,30.0631223661],[31.4490346324,30.0622597945]]]}},{"type":"Feature","properties":{"نمط_العمران":"خدمات ","اسم_المحور":"2","نوع_طبيعة_المنطقة":null,"مساحة_التغير_كم2":null,"نسبة_المساحه":null,"مساحة_التغير_بالمتر":null,"اسم_القطاع":"10","وصف_الاستخدام":null,"SHAPE_Length":470.37100899319125,"SHAPE_Area":12286.375664697758},"geometry":{"type":"Polygon","coordinates":[[[31.4672386136,30.0685904961],[31.4680370699,30.0686130809],[31.468018085,30.0695852646],[31.4663857066,30.0693768224],[31.4672386136,30.0685904961]]]}},{"type":"Feature","properties":{"نمط_العمران":"حكومي","اسم_المحور":"2","نوع_طبيعة_المنطقة":null,"مساحة_التغير_كم2":null,"نسبة_المساحه":null,"مساحة_التغير_بالمتر":null,"اسم_القطاع":"10","وصف_الاستخدام":null,"SHAPE_Length":487.68996654647196,"SHAPE_Area":14051.903000703844},"geometry":{"type":"Polygon","coordinates":[[[31.4690213085,30.067087473],[31.4674581043,30.0671058012],[31.4674405244,30.0662538146],[31.4689973263,30.0662538149],[31.4690213085,30.067087473]]]}},{"type":"Feature","properties":{"نمط_العمران":"تعليمي","اسم_المحور":"2","نوع_طبيعة_المنطقة":null,"مساحة_التغير_كم2":null,"نسبة_المساحه":null,"مساحة_التغير_بالمتر":null,"اسم_القطاع":"10","وصف_الاستخدام":null,"SHAPE_Length":1091.3369577591338,"SHAPE_Area":59815.5439171843},"geometry":{"type":"Polygon","coordinates":[[[31.5540970268,30.0910329551],[31.5555147331,30.0915047078],[31.5543490915,30.0948560651],[31.552779376,30.0944454342],[31.5540970268,30.0910329551]]]}},{"type":"Feature","properties":{"نمط_العمران":"ديني","اسم_المحور":"2","نوع_طبيعة_المنطقة":null,"مساحة_التغير_كم2":null,"نسبة_المساحه":null,"مساحة_التغير_بالمتر":null,"اسم_القطاع":"10","وصف_الاستخدام":null,"SHAPE_Length":573.5735669264355,"SHAPE_Area":18413.240726753218},"geometry":{"type":"Polygon","coordinates":[[[31.5527754327,30.0965408542],[31.5536910264,30.0967479681],[31.5531153895,30.0984028263],[31.5520900406,30.0981202985],[31.5527754327,30.0965408542]]]}},{"type":"Feature","properties":{"نمط_العمران":"تعليمي","اسم_المحور":"2","نوع_طبيعة_المنطقة":null,"مساحة_التغير_كم2":null,"نسبة_المساحه":null,"مساحة_التغير_بالمتر":null,"اسم_القطاع":"10","وصف_الاستخدام":null,"SHAPE_Length":448.6680970273962,"SHAPE_Area":12557.684617901523},"geometry":{"type":"Polygon","coordinates":[[[31.5527700573,30.0993955803],[31.5524247105,30.1003883312],[31.5513015302,30.1001119841],[31.5517009643,30.0991403177],[31.5527700573,30.0993955803]]]}},{"type":"Feature","properties":{"نمط_العمران":"خدمات ","اسم_المحور":"2","نوع_طبيعة_المنطقة":null,"مساحة_التغير_كم2":null,"نسبة_المساحه":null,"مساحة_التغير_بالمتر":null,"اسم_القطاع":"10","وصف_الاستخدام":null,"SHAPE_Length":562.2724169634477,"SHAPE_Area":19246.0063338015},"geometry":{"type":"Polygon","coordinates":[[[31.468859285,30.0309014596],[31.4688622003,30.0320012375],[31.4671780745,30.0319653852],[31.4671623465,30.0309351255],[31.468859285,30.0309014596]]]}},{"type":"Feature","properties":{"نمط_العمران":"اسكان مخطط اقتصادى","اسم_المحور":"2","نوع_طبيعة_المنطقة":null,"مساحة_التغير_كم2":null,"نسبة_المساحه":null,"مساحة_التغير_بالمتر":null,"اسم_القطاع":"10","وصف_الاستخدام":null,"SHAPE_Length":3561.1477236052547,"SHAPE_Area":481721.2940893158},"geometry":{"type":"Polygon","coordinates":[[[31.5095751017,30.0894716504],[31.508634975,30.0877061473],[31.5053310747,30.086540009],[31.5049313925,30.0857117092],[31.5050687809,30.0848370471],[31.5055507191,30.0842046881],[31.5100046934,30.0843304006],[31.5199047247,30.0865519341],[31.5209520687,30.0864506489],[31.5210045902,30.0868348108],[31.5095751017,30.0894716504]]]}},{"type":"Feature","properties":{"نمط_العمران":"كمبوند","اسم_المحور":"2","نوع_طبيعة_المنطقة":null,"مساحة_التغير_كم2":null,"نسبة_المساحه":null,"مساحة_التغير_بالمتر":null,"اسم_القطاع":"10","وصف_الاستخدام":null,"SHAPE_Length":3378.413309007208,"SHAPE_Area":598013.8264213621},"geometry":{"type":"Polygon","coordinates":[[[31.5985879121,30.0618708539],[31.5967454926,30.0617025801],[31.5967694329,30.0611728364],[31.5957492168,30.0611189701],[31.5952215399,30.05910045],[31.5919552678,30.0571299512],[31.5929826876,30.05600286],[31.5946751311,30.0528136467],[31.5991920631,30.0546296474],[31.6032353006,30.0593529209],[31.602482393,30.061260422],[31.5990334383,30.0603875846],[31.5985879121,30.0618708539]]]}}]}
