{
"type": "FeatureCollection",
"name": "Eklimy_Road",
"xy_coordinate_resolution": 8.98315e-10,
"z_coordinate_resolution": 0.0001,
"features": [
{"type":"Feature","properties":{"Shape_Length":126312.88597936154,"اسم_المحور":"محور الدائرى الاقليمى","اسم_المحافظة":"محافظة القاهرة","طول_المحور_كم":126.31288597936154},"geometry":{"type":"LineString","coordinates":[[31.5288828773,30.3964638931,0.0],[31.5321768755,30.3934054196,0.0],[31.5445553075,30.3779338253,0.0],[31.5548458404,30.3585055728,0.0],[31.555342841,30.35613635,0.0],[31.5551704515,30.3530504159,0.0],[31.5522271597,30.3442104794,0.0],[31.55215833,30.3408682536,0.0],[31.5526874052,30.3388109641,0.0],[31.5653490135,30.3121532176,0.0],[31.5686877117,30.3081325116,0.0],[31.5722985318,30.3055205561,0.0],[31.5876307189,30.2966945779,0.0],[31.5896930164,30.295851671,0.0],[31.5954646758,30.2949364189,0.0],[31.6250749678,30.2960480832,0.0],[31.6291039926,30.2950872519,0.0],[31.6338760145,30.2926547128,0.0],[31.7238186439,30.1933635041,0.0],[31.741065018,30.1744537144,0.0],[31.7442457743,30.1714775367,0.0],[31.7483807369,30.1691507409,0.0],[31.7503480699,30.168479097,0.0],[31.7566602282,30.1673699419,0.0],[31.7621206587,30.1680186996,0.0],[31.7708026995,30.17010519,0.0],[31.7751773343,30.1702239119,0.0],[31.7854000172,30.1686778481,0.0],[31.7905049124,30.1675116364,0.0],[31.7930665779,30.1665315286,0.0],[31.7985389426,30.1628821809,0.0],[31.8006795,30.1605631872,0.0],[31.8035494848,30.1549073344,0.0],[31.8055086422,30.1431265024,0.0],[31.8058352523,30.1385188807,0.0],[31.8029933762,30.1119185184,0.0],[31.8011167437,30.0964908492,0.0],[31.8002380991,30.0924606302,0.0],[31.7969456876,30.0869891363,0.0],[31.7954539045,30.0854689068,0.0],[31.7932202625,30.0840348826,0.0],[31.7562697914,30.0655229689,0.0],[31.7463631792,30.0609450361,0.0],[31.7341298276,30.0539906441,0.0],[31.7285112029,30.0481422732,0.0],[31.7247628635,30.042761393,0.0],[31.7152003877,30.0187153109,0.0],[31.6907843255,29.9762199141,0.0],[31.6847914883,29.9665521991,0.0],[31.6826585534,29.958734532,0.0],[31.6836859664,29.9490785211,0.0],[31.6847672427,29.9453164022,0.0],[31.6893644818,29.937992498,0.0],[31.6938647184,29.9294419069,0.0],[31.6952806164,29.9254374151,0.0],[31.6959779715,29.9197113173,0.0],[31.6917979013,29.882837391,0.0],[31.6893400263,29.877881331,0.0],[31.6845239223,29.8727677349,0.0],[31.6811916786,29.8696871913,0.0],[31.6613519236,29.8541115732,0.0],[31.6568008012,29.8483268117,0.0],[31.6530988652,29.8417455353,0.0],[31.6446644495,29.8314056803,0.0],[31.6398794145,29.8280406378,0.0],[31.633160571,29.8257632292,0.0],[31.6303862437,29.8237108736,0.0],[31.627200473,29.8202609109,0.0],[31.6260619917,29.8180044596,0.0],[31.6238843809,29.8161389382,0.0],[31.6176779987,29.8123034294,0.0],[31.6086274336,29.801505275,0.0],[31.605677884,29.7998552451,0.0],[31.6022390575,29.7985100337,0.0],[31.5976864161,29.7976073284,0.0],[31.5941431468,29.7963039736,0.0],[31.5909907991,29.7947012432,0.0],[31.5846002503,29.7905367701,0.0],[31.5816591664,29.7881802747,0.0],[31.5756272484,29.7847433369,0.0],[31.5730355963,29.7833892183,0.0],[31.5698900265,29.7823151551,0.0],[31.5665340925,29.7816748681,0.0],[31.5636269018,29.7816090222,0.0],[31.5591811478,29.7824262359,0.0],[31.546948343,29.7871900049,0.0],[31.532829998,29.7911448229,0.0],[31.523501571,29.7923381326,0.0],[31.5179007197,29.7912646097,0.0],[31.510464844,29.7882175627,0.0],[31.5008627668,29.7834809311,0.0],[31.4970504342,29.7812218692,0.0],[31.4810877745,29.7686262809,0.0],[31.4734301247,29.7635410241,0.0],[31.4666877043,29.7596774869,0.0],[31.4633140179,29.7578405679,0.0],[31.4575450096,29.7555619214,0.0],[31.4497035152,29.7536697121,0.0],[31.4468600263,29.7523663133,0.0],[31.4436281152,29.7502877281,0.0],[31.4410398324,29.7476597522,0.0],[31.4386242442,29.7440840144,0.0],[31.4284475787,29.731537173,0.0],[31.4254935709,29.7285932668,0.0],[31.4132976885,29.7207313619,0.0],[31.403271885,29.715404757,0.0],[31.3882389075,29.71075154,0.0],[31.3842578981,29.7098770514,0.0],[31.3680347176,29.7095053237,0.0],[31.3386708943,29.7077270178,0.0],[31.3360694539,29.7079682419,0.0],[31.3301544611,29.7093149778,0.0],[31.3264490231,29.7088579509,0.0],[31.3189692235,29.7057232946,0.0],[31.3152218267,29.7046322133,0.0],[31.2978434521,29.6959379146,0.0],[31.2887027479,29.6904966609,0.0],[31.2836979927,29.6884394902,0.0],[31.2781696941,29.6867181311,0.0],[31.2700548638,29.685337155,0.0]]}},
{"type":"Feature","properties":{"Shape_Length":29186.419799886546,"اسم_المحور":"القطار الكهربائى","اسم_المحافظة":"محافظة القاهرة","طول_المحور_كم":29.186419799886547},"geometry":{"type":"LineString","coordinates":[[31.7256908684,30.1727052041,0.0],[31.7555259868,30.1658894223,0.0],[31.7590437228,30.1660992054,0.0],[31.7702829415,30.1693206129,0.0],[31.7736509019,30.1697505663,0.0],[31.7767262029,30.1694374419,0.0],[31.7867145309,30.1669786696,0.0],[31.7934494266,30.1669775604,0.0],[31.7967380905,30.1662377343,0.0],[31.7990260785,30.1650232989,0.0],[31.8009385084,30.1632658058,0.0],[31.8045509337,30.1567902368,0.0],[31.8051861503,30.1545226243,0.0],[31.807033531,30.1415508061,0.0],[31.8052589305,30.1175218839,0.0],[31.8034035259,30.111913919,0.0],[31.8036851968,30.1067866458,0.0],[31.8025966826,30.0981817178,0.0],[31.8005326357,30.0897197067,0.0],[31.7993604572,30.0869372618,0.0],[31.7969113747,30.0838307679,0.0],[31.7936586777,30.0814810386,0.0],[31.7417759541,30.0557345593,0.0],[31.7362868094,30.0518870513,0.0],[31.7316864818,30.0473601094,0.0],[31.7289053815,30.0436594428,0.0],[31.7267046188,30.0397743226,0.0],[31.7229483891,30.0304043997,0.0],[31.7224861254,30.0283665057,0.0],[31.722802039,30.0259464538,0.0],[31.72481423,30.0214212738,0.0],[31.7251431644,30.0151267022,0.0],[31.7290897297,30.0088045216,0.0],[31.7294780056,30.0070503733,0.0],[31.7292594454,30.0051868492,0.0]]}},
{"type":"Feature","properties":{"Shape_Length":45286.441039082572,"اسم_المحور":"خط سكة حديد الروبيكي","اسم_المحافظة":"محافظة القاهرة","طول_المحور_كم":45.286441039082575},"geometry":{"type":"LineString","coordinates":[[31.8213474571,30.1679423577,0.0],[31.7834827874,30.1703712152,0.0],[31.7742902113,30.1714430876,0.0],[31.7688835929,30.1710100969,0.0],[31.7613505911,30.1688712453,0.0],[31.7576061379,30.1683699922,0.0],[31.7527813906,30.1689004056,0.0],[31.7488343143,30.1704401639,0.0],[31.7448314935,30.1735875874,0.0],[31.7360882394,30.1851559994,0.0],[31.7276012819,30.1919018344,0.0],[31.7199827779,30.2003590131,0.0],[31.7119952969,30.2073222478,0.0],[31.7001062379,30.2205618773,0.0],[31.6968110185,30.2251327861,0.0],[31.6658559565,30.2592737506,0.0],[31.6616511912,30.2654433547,0.0],[31.6509460435,30.2773115302,0.0],[31.6366159211,30.2923230134,0.0],[31.6311578106,30.2954084094,0.0],[31.6248670919,30.2968762509,0.0],[31.5963870515,30.2958611881,0.0],[31.5917862454,30.2963682522,0.0],[31.5876415982,30.2979810111,0.0],[31.5728344263,30.3061866946,0.0],[31.5697451125,30.3083832866,0.0],[31.567603176,30.3105958062,0.0],[31.5656428582,30.3136152931,0.0],[31.5544394546,30.3369447807,0.0],[31.5534533793,30.3397437072,0.0],[31.553064902,30.3435655692,0.0],[31.5538988726,30.3478870963,0.0],[31.5557011961,30.3513909134,0.0],[31.5608509865,30.3581178598,0.0],[31.5616148215,30.3604172332,0.0],[31.5616824641,30.3631492861,0.0],[31.5603782347,30.366721308,0.0],[31.5541645996,30.3752685097,0.0],[31.5504109909,30.3842658143,0.0],[31.5448482748,30.3915534683,0.0],[31.5437024295,30.3945815784,0.0],[31.5420361966,30.403511851,0.0],[31.5360069006,30.4144997607,0.0],[31.5358347391,30.4163671351,0.0],[31.5366500682,30.4182668281,0.0],[31.5378899764,30.4194040248,0.0],[31.5410507893,30.4210648673,0.0]]}}
]
}
