{"type":"FeatureCollection","features":[{"type":"Feature","properties":{"source_layer":"Landmarks","source_feature_count":1,"LDMK_TYPE":null,"SUB_CLASS":0,"Name":"مدرسة","اسم_المحور":null,"اسم_المحافظة":null},"geometry":{"type":"Point","coordinates":[31.558196,30.270898]}},{"type":"Feature","properties":{"source_layer":"Landmarks","source_feature_count":1,"LDMK_TYPE":null,"SUB_CLASS":0,"Name":"حضانة","اسم_المحور":null,"اسم_المحافظة":null},"geometry":{"type":"Point","coordinates":[31.565749,30.274511]}},{"type":"Feature","properties":{"source_layer":"Landmarks","source_feature_count":1,"LDMK_TYPE":null,"SUB_CLASS":0,"Name":"مدرسة تعليم اساسى","اسم_المحور":null,"اسم_المحافظة":null},"geometry":{"type":"Point","coordinates":[31.565133,30.274048]}},{"type":"Feature","properties":{"source_layer":"Landmarks","source_feature_count":1,"LDMK_TYPE":null,"SUB_CLASS":0,"Name":"حضانة منطقة الياقوت","اسم_المحور":null,"اسم_المحافظة":null},"geometry":{"type":"Point","coordinates":[31.563449,30.275516]}},{"type":"Feature","properties":{"source_layer":"Landmarks","source_feature_count":1,"LDMK_TYPE":null,"SUB_CLASS":0,"Name":"مدرسة الحي١٤قطعة٦شركة الاصدقاءللمقاولات والتوريدات","اسم_المحور":null,"اسم_المحافظة":null},"geometry":{"type":"Point","coordinates":[31.56323,30.276359]}},{"type":"Feature","properties":{"source_layer":"Landmarks","source_feature_count":1,"LDMK_TYPE":null,"SUB_CLASS":0,"Name":"مول وسوق تجاري قطعه 54","اسم_المحور":null,"اسم_المحافظة":null},"geometry":{"type":"Point","coordinates":[31.560611,30.278654]}},{"type":"Feature","properties":{"source_layer":"Landmarks","source_feature_count":1,"LDMK_TYPE":null,"SUB_CLASS":0,"Name":"حضانة","اسم_المحور":null,"اسم_المحافظة":null},"geometry":{"type":"Point","coordinates":[31.553873,30.272497]}},{"type":"Feature","properties":{"source_layer":"Landmarks","source_feature_count":1,"LDMK_TYPE":null,"SUB_CLASS":0,"Name":"دار الاصلاح والتاهيل","اسم_المحور":null,"اسم_المحافظة":null},"geometry":{"type":"Point","coordinates":[31.62014,30.333165]}},{"type":"Feature","properties":{"source_layer":"Landmarks","source_feature_count":1,"LDMK_TYPE":null,"SUB_CLASS":0,"Name":"مجمع سجون العاشرمن رمضان","اسم_المحور":null,"اسم_المحافظة":null},"geometry":{"type":"Point","coordinates":[31.615237,30.333222]}},{"type":"Feature","properties":{"source_layer":"Landmarks","source_feature_count":1,"LDMK_TYPE":null,"SUB_CLASS":0,"Name":"محكمة العاشر من رمضان طريق بلبيس العاشر","اسم_المحور":null,"اسم_المحافظة":null},"geometry":{"type":"Point","coordinates":[31.613953,30.335399]}},{"type":"Feature","properties":{"source_layer":"Landmarks","source_feature_count":1,"LDMK_TYPE":null,"SUB_CLASS":0,"Name":"Alburouj Sports Club","اسم_المحور":null,"اسم_المحافظة":null},"geometry":{"type":"Point","coordinates":[31.671264,30.199699]}},{"type":"Feature","properties":{"source_layer":"Landmarks","source_feature_count":1,"LDMK_TYPE":null,"SUB_CLASS":0,"Name":"Orchard park","اسم_المحور":null,"اسم_المحافظة":null},"geometry":{"type":"Point","coordinates":[31.674902,30.20134]}},{"type":"Feature","properties":{"source_layer":"Landmarks","source_feature_count":1,"LDMK_TYPE":null,"SUB_CLASS":0,"Name":"Gastec","اسم_المحور":null,"اسم_المحافظة":null},"geometry":{"type":"Point","coordinates":[31.673932,30.207812]}},{"type":"Feature","properties":{"source_layer":"Landmarks","source_feature_count":1,"LDMK_TYPE":null,"SUB_CLASS":0,"Name":"Chill out gas station","اسم_المحور":null,"اسم_المحافظة":null},"geometry":{"type":"Point","coordinates":[31.673313,30.207412]}},{"type":"Feature","properties":{"source_layer":"Landmarks","source_feature_count":1,"LDMK_TYPE":null,"SUB_CLASS":0,"Name":"محطة وقود وطنية مدينة الجلود","اسم_المحور":null,"اسم_المحافظة":null},"geometry":{"type":"Point","coordinates":[31.771385,30.175468]}},{"type":"Feature","properties":{"source_layer":"Landmarks","source_feature_count":1,"LDMK_TYPE":null,"SUB_CLASS":0,"Name":"محطة وقود وطنيه","اسم_المحور":null,"اسم_المحافظة":null},"geometry":{"type":"Point","coordinates":[31.740713,30.175853]}},{"type":"Feature","properties":{"source_layer":"Landmarks","source_feature_count":1,"LDMK_TYPE":null,"SUB_CLASS":0,"Name":"Robeiky Textile Complex","اسم_المحور":null,"اسم_المحافظة":null},"geometry":{"type":"Point","coordinates":[31.73208,30.174856]}},{"type":"Feature","properties":{"source_layer":"Landmarks","source_feature_count":1,"LDMK_TYPE":null,"SUB_CLASS":0,"Name":"محطة بدر التبادلية القطار الكهربائي الخفيف LRT","اسم_المحور":null,"اسم_المحافظة":null},"geometry":{"type":"Point","coordinates":[31.716073,30.175098]}},{"type":"Feature","properties":{"source_layer":"Landmarks","source_feature_count":1,"LDMK_TYPE":null,"SUB_CLASS":0,"Name":"محطة معالجة مياه الصرف الصحي","اسم_المحور":null,"اسم_المحافظة":null},"geometry":{"type":"Point","coordinates":[31.706359,30.174452]}},{"type":"Feature","properties":{"source_layer":"Landmarks","source_feature_count":1,"LDMK_TYPE":null,"SUB_CLASS":0,"Name":"El Robaikey","اسم_المحور":null,"اسم_المحافظة":null},"geometry":{"type":"Point","coordinates":[31.752409,30.166517]}},{"type":"Feature","properties":{"source_layer":"Landmarks","source_feature_count":1,"LDMK_TYPE":null,"SUB_CLASS":0,"Name":"مسجد الفاروق","اسم_المحور":null,"اسم_المحافظة":null},"geometry":{"type":"Point","coordinates":[31.769543,30.162615]}},{"type":"Feature","properties":{"source_layer":"Landmarks","source_feature_count":1,"LDMK_TYPE":null,"SUB_CLASS":0,"Name":"Petrol station","اسم_المحور":null,"اسم_المحافظة":null},"geometry":{"type":"Point","coordinates":[31.769221,30.159943]}},{"type":"Feature","properties":{"source_layer":"Landmarks","source_feature_count":1,"LDMK_TYPE":null,"SUB_CLASS":0,"Name":"مدرسة محمد أنور السادات","اسم_المحور":null,"اسم_المحافظة":null},"geometry":{"type":"Point","coordinates":[31.764488,30.15899]}},{"type":"Feature","properties":{"source_layer":"Landmarks","source_feature_count":1,"LDMK_TYPE":null,"SUB_CLASS":0,"Name":"مسجد الحي السابع","اسم_المحور":null,"اسم_المحافظة":null},"geometry":{"type":"Point","coordinates":[31.764054,30.159589]}},{"type":"Feature","properties":{"source_layer":"Landmarks","source_feature_count":1,"LDMK_TYPE":null,"SUB_CLASS":0,"Name":"حضانة أطفال","اسم_المحور":null,"اسم_المحافظة":null},"geometry":{"type":"Point","coordinates":[31.758415,30.160931]}},{"type":"Feature","properties":{"source_layer":"Landmarks","source_feature_count":1,"LDMK_TYPE":null,"SUB_CLASS":0,"Name":"محطة تخفيض ضغط غاز طبيعي","اسم_المحور":null,"اسم_المحافظة":null},"geometry":{"type":"Point","coordinates":[31.765216,30.155743]}},{"type":"Feature","properties":{"source_layer":"Landmarks","source_feature_count":1,"LDMK_TYPE":null,"SUB_CLASS":0,"Name":"مدرسه محمد على باشا","اسم_المحور":null,"اسم_المحافظة":null},"geometry":{"type":"Point","coordinates":[31.759601,30.155466]}},{"type":"Feature","properties":{"source_layer":"Landmarks","source_feature_count":1,"LDMK_TYPE":null,"SUB_CLASS":0,"Name":"حضانة الحى السابع","اسم_المحور":null,"اسم_المحافظة":null},"geometry":{"type":"Point","coordinates":[31.76018,30.155997]}},{"type":"Feature","properties":{"source_layer":"Landmarks","source_feature_count":1,"LDMK_TYPE":null,"SUB_CLASS":0,"Name":"مدرسة","اسم_المحور":null,"اسم_المحافظة":null},"geometry":{"type":"Point","coordinates":[31.752212,30.163016]}},{"type":"Feature","properties":{"source_layer":"Landmarks","source_feature_count":1,"LDMK_TYPE":null,"SUB_CLASS":0,"Name":"مدرسة مجدي يعقوب الرسمية","اسم_المحور":null,"اسم_المحافظة":null},"geometry":{"type":"Point","coordinates":[31.745115,30.163265]}},{"type":"Feature","properties":{"source_layer":"Landmarks","source_feature_count":1,"LDMK_TYPE":null,"SUB_CLASS":0,"Name":"مركز طبي الاندلس 2","اسم_المحور":null,"اسم_المحافظة":null},"geometry":{"type":"Point","coordinates":[31.740689,30.160351]}},{"type":"Feature","properties":{"source_layer":"Landmarks","source_feature_count":1,"LDMK_TYPE":null,"SUB_CLASS":0,"Name":"مدرسة آدم","اسم_المحور":null,"اسم_المحافظة":null},"geometry":{"type":"Point","coordinates":[31.729112,30.166425]}},{"type":"Feature","properties":{"source_layer":"Landmarks","source_feature_count":1,"LDMK_TYPE":null,"SUB_CLASS":0,"Name":"مركز تسوق الحى السادس","اسم_المحور":null,"اسم_المحافظة":null},"geometry":{"type":"Point","coordinates":[31.726945,30.16462]}},{"type":"Feature","properties":{"source_layer":"Landmarks","source_feature_count":1,"LDMK_TYPE":null,"SUB_CLASS":0,"Name":"حضانة أطفال","اسم_المحور":null,"اسم_المحافظة":null},"geometry":{"type":"Point","coordinates":[31.727386,30.164581]}},{"type":"Feature","properties":{"source_layer":"Landmarks","source_feature_count":1,"LDMK_TYPE":null,"SUB_CLASS":0,"Name":"Sewer Station - 6 neighbourhood","اسم_المحور":null,"اسم_المحافظة":null},"geometry":{"type":"Point","coordinates":[31.704116,30.159807]}},{"type":"Feature","properties":{"source_layer":"Landmarks","source_feature_count":1,"LDMK_TYPE":null,"SUB_CLASS":0,"Name":"عيادة بدر الشامله للتأمين الصحي","اسم_المحور":null,"اسم_المحافظة":null},"geometry":{"type":"Point","coordinates":[31.701212,30.170781]}},{"type":"Feature","properties":{"source_layer":"Landmarks","source_feature_count":1,"LDMK_TYPE":null,"SUB_CLASS":0,"Name":"حضانة هورايزون بدر","اسم_المحور":null,"اسم_المحافظة":null},"geometry":{"type":"Point","coordinates":[31.70171,30.170561]}},{"type":"Feature","properties":{"source_layer":"Landmarks","source_feature_count":1,"LDMK_TYPE":null,"SUB_CLASS":0,"Name":"مسجد الحمد البنفسج بدر","اسم_المحور":null,"اسم_المحافظة":null},"geometry":{"type":"Point","coordinates":[31.699696,30.172879]}},{"type":"Feature","properties":{"source_layer":"Landmarks","source_feature_count":1,"LDMK_TYPE":null,"SUB_CLASS":0,"Name":"مدرسة أحمد عرابي للتعليم الأساسي","اسم_المحور":null,"اسم_المحافظة":null},"geometry":{"type":"Point","coordinates":[31.73248,30.149354]}},{"type":"Feature","properties":{"source_layer":"Landmarks","source_feature_count":1,"LDMK_TYPE":null,"SUB_CLASS":0,"Name":"الملعب الخماسي بعمارات المخابرات","اسم_المحور":null,"اسم_المحافظة":null},"geometry":{"type":"Point","coordinates":[31.732756,30.151098]}},{"type":"Feature","properties":{"source_layer":"Landmarks","source_feature_count":1,"LDMK_TYPE":null,"SUB_CLASS":0,"Name":"حضانة","اسم_المحور":null,"اسم_المحافظة":null},"geometry":{"type":"Point","coordinates":[31.726916,30.148512]}},{"type":"Feature","properties":{"source_layer":"Landmarks","source_feature_count":1,"LDMK_TYPE":null,"SUB_CLASS":0,"Name":"مسجد","اسم_المحور":null,"اسم_المحافظة":null},"geometry":{"type":"Point","coordinates":[31.789649,30.16137]}},{"type":"Feature","properties":{"source_layer":"Landmarks","source_feature_count":1,"LDMK_TYPE":null,"SUB_CLASS":0,"Name":"مسجد سجن بدر الجديد","اسم_المحور":null,"اسم_المحافظة":null},"geometry":{"type":"Point","coordinates":[31.788155,30.162577]}},{"type":"Feature","properties":{"source_layer":"Landmarks","source_feature_count":1,"LDMK_TYPE":null,"SUB_CLASS":0,"Name":"رئاسة قطاع الامن المركزي","اسم_المحور":null,"اسم_المحافظة":null},"geometry":{"type":"Point","coordinates":[31.783209,30.162357]}},{"type":"Feature","properties":{"source_layer":"Landmarks","source_feature_count":1,"LDMK_TYPE":null,"SUB_CLASS":0,"Name":"مسجد رئاسة قطاع الامن المركزي","اسم_المحور":null,"اسم_المحافظة":null},"geometry":{"type":"Point","coordinates":[31.784042,30.163707]}},{"type":"Feature","properties":{"source_layer":"Landmarks","source_feature_count":1,"LDMK_TYPE":null,"SUB_CLASS":0,"Name":"مستشفي الطب الشرعي","اسم_المحور":null,"اسم_المحافظة":null},"geometry":{"type":"Point","coordinates":[31.786329,30.166151]}},{"type":"Feature","properties":{"source_layer":"Landmarks","source_feature_count":1,"LDMK_TYPE":null,"SUB_CLASS":0,"Name":"وزارة العدل مصلحة الطب الشرعى المشرحة","اسم_المحور":null,"اسم_المحافظة":null},"geometry":{"type":"Point","coordinates":[31.785547,30.165839]}},{"type":"Feature","properties":{"source_layer":"Landmarks","source_feature_count":1,"LDMK_TYPE":null,"SUB_CLASS":0,"Name":"سجن بدر الجديد","اسم_المحور":null,"اسم_المحافظة":null},"geometry":{"type":"Point","coordinates":[31.78654,30.16193]}},{"type":"Feature","properties":{"source_layer":"Landmarks","source_feature_count":1,"LDMK_TYPE":null,"SUB_CLASS":0,"Name":"حضانة سكن مصر","اسم_المحور":null,"اسم_المحافظة":null},"geometry":{"type":"Point","coordinates":[31.77603,30.125348]}},{"type":"Feature","properties":{"source_layer":"Landmarks","source_feature_count":1,"LDMK_TYPE":null,"SUB_CLASS":0,"Name":"مدرسة 30 يونيو للتعليم الأساسي","اسم_المحور":null,"اسم_المحافظة":null},"geometry":{"type":"Point","coordinates":[31.778284,30.125866]}},{"type":"Feature","properties":{"source_layer":"Landmarks","source_feature_count":1,"LDMK_TYPE":null,"SUB_CLASS":0,"Name":"مدرسة المشير محمد حسين طنطاوى الثانوى المشتركة","اسم_المحور":null,"اسم_المحافظة":null},"geometry":{"type":"Point","coordinates":[31.779822,30.125872]}},{"type":"Feature","properties":{"source_layer":"Landmarks","source_feature_count":1,"LDMK_TYPE":null,"SUB_CLASS":0,"Name":"كومبوند زهره العاصمه مسجد سكن مصر","اسم_المحور":null,"اسم_المحافظة":null},"geometry":{"type":"Point","coordinates":[31.779496,30.125165]}},{"type":"Feature","properties":{"source_layer":"Landmarks","source_feature_count":1,"LDMK_TYPE":null,"SUB_CLASS":0,"Name":"مجمع المحلات التجارية","اسم_المحور":null,"اسم_المحافظة":null},"geometry":{"type":"Point","coordinates":[31.78043,30.12522]}},{"type":"Feature","properties":{"source_layer":"Landmarks","source_feature_count":1,"LDMK_TYPE":null,"SUB_CLASS":0,"Name":"مدرسة مصطفى كامل للتعليم الأساسي","اسم_المحور":null,"اسم_المحافظة":null},"geometry":{"type":"Point","coordinates":[31.790673,30.125632]}},{"type":"Feature","properties":{"source_layer":"Landmarks","source_feature_count":1,"LDMK_TYPE":null,"SUB_CLASS":0,"Name":"مسجد","اسم_المحور":null,"اسم_المحافظة":null},"geometry":{"type":"Point","coordinates":[31.790163,30.124654]}},{"type":"Feature","properties":{"source_layer":"Landmarks","source_feature_count":1,"LDMK_TYPE":null,"SUB_CLASS":0,"Name":"مسجد","اسم_المحور":null,"اسم_المحافظة":null},"geometry":{"type":"Point","coordinates":[31.780781,30.123334]}},{"type":"Feature","properties":{"source_layer":"Landmarks","source_feature_count":1,"LDMK_TYPE":null,"SUB_CLASS":0,"Name":"ملعب الرواد","اسم_المحور":null,"اسم_المحافظة":null},"geometry":{"type":"Point","coordinates":[31.76975,30.139534]}},{"type":"Feature","properties":{"source_layer":"Landmarks","source_feature_count":1,"LDMK_TYPE":null,"SUB_CLASS":0,"Name":"The main bus station","اسم_المحور":null,"اسم_المحافظة":null},"geometry":{"type":"Point","coordinates":[31.735065,30.134909]}},{"type":"Feature","properties":{"source_layer":"Landmarks","source_feature_count":1,"LDMK_TYPE":null,"SUB_CLASS":0,"Name":"ملعب كره خماسى منطقه الياسمين حى الزهور","اسم_المحور":null,"اسم_المحافظة":null},"geometry":{"type":"Point","coordinates":[31.80697,30.160688]}},{"type":"Feature","properties":{"source_layer":"Landmarks","source_feature_count":1,"LDMK_TYPE":null,"SUB_CLASS":0,"Name":"وحدة طب الأسرة منطقة الياسمين حى الزهور","اسم_المحور":null,"اسم_المحافظة":null},"geometry":{"type":"Point","coordinates":[31.807722,30.160501]}},{"type":"Feature","properties":{"source_layer":"Landmarks","source_feature_count":1,"LDMK_TYPE":null,"SUB_CLASS":0,"Name":"مدرسة حدائق العاصمة","اسم_المحور":null,"اسم_المحافظة":null},"geometry":{"type":"Point","coordinates":[31.80914,30.158318]}},{"type":"Feature","properties":{"source_layer":"Landmarks","source_feature_count":1,"LDMK_TYPE":null,"SUB_CLASS":0,"Name":"نادي حدائق العاصمه الرياضي","اسم_المحور":null,"اسم_المحافظة":null},"geometry":{"type":"Point","coordinates":[31.818608,30.163928]}},{"type":"Feature","properties":{"source_layer":"Landmarks","source_feature_count":1,"LDMK_TYPE":null,"SUB_CLASS":0,"Name":"Capital Gardens Mosque","اسم_المحور":null,"اسم_المحافظة":null},"geometry":{"type":"Point","coordinates":[31.811783,30.153592]}},{"type":"Feature","properties":{"source_layer":"Landmarks","source_feature_count":1,"LDMK_TYPE":null,"SUB_CLASS":0,"Name":"مدرسة","اسم_المحور":null,"اسم_المحافظة":null},"geometry":{"type":"Point","coordinates":[31.812152,30.148502]}},{"type":"Feature","properties":{"source_layer":"Landmarks","source_feature_count":1,"LDMK_TYPE":null,"SUB_CLASS":0,"Name":"حضانة","اسم_المحور":null,"اسم_المحافظة":null},"geometry":{"type":"Point","coordinates":[31.812176,30.147979]}},{"type":"Feature","properties":{"source_layer":"Landmarks","source_feature_count":1,"LDMK_TYPE":null,"SUB_CLASS":0,"Name":"مدرسة","اسم_المحور":null,"اسم_المحافظة":null},"geometry":{"type":"Point","coordinates":[31.812847,30.142372]}},{"type":"Feature","properties":{"source_layer":"Landmarks","source_feature_count":1,"LDMK_TYPE":null,"SUB_CLASS":0,"Name":"جهاز مدينة حدائق العاصمة الجديد","اسم_المحور":null,"اسم_المحافظة":null},"geometry":{"type":"Point","coordinates":[31.811268,30.135507]}},{"type":"Feature","properties":{"source_layer":"Landmarks","source_feature_count":1,"LDMK_TYPE":null,"SUB_CLASS":0,"Name":"مدرسة","اسم_المحور":null,"اسم_المحافظة":null},"geometry":{"type":"Point","coordinates":[31.812714,30.135213]}},{"type":"Feature","properties":{"source_layer":"Landmarks","source_feature_count":1,"LDMK_TYPE":null,"SUB_CLASS":0,"Name":"قسم شرطة حدائق العاصمة","اسم_المحور":null,"اسم_المحافظة":null},"geometry":{"type":"Point","coordinates":[31.811548,30.134739]}},{"type":"Feature","properties":{"source_layer":"Landmarks","source_feature_count":1,"LDMK_TYPE":null,"SUB_CLASS":0,"Name":"Hadayek Al Assema","اسم_المحور":null,"اسم_المحافظة":null},"geometry":{"type":"Point","coordinates":[31.806826,30.136703]}},{"type":"Feature","properties":{"source_layer":"Landmarks","source_feature_count":1,"LDMK_TYPE":null,"SUB_CLASS":0,"Name":"محطة وقود غاز طبيعي","اسم_المحور":null,"اسم_المحافظة":null},"geometry":{"type":"Point","coordinates":[31.805295,30.12906]}},{"type":"Feature","properties":{"source_layer":"Landmarks","source_feature_count":1,"LDMK_TYPE":null,"SUB_CLASS":0,"Name":"New Capital Printing Press","اسم_المحور":null,"اسم_المحافظة":null},"geometry":{"type":"Point","coordinates":[31.77419,30.030458]}},{"type":"Feature","properties":{"source_layer":"Landmarks","source_feature_count":1,"LDMK_TYPE":null,"SUB_CLASS":0,"Name":"GIS NAC","اسم_المحور":null,"اسم_المحافظة":null},"geometry":{"type":"Point","coordinates":[31.765968,30.027901]}},{"type":"Feature","properties":{"source_layer":"Landmarks","source_feature_count":1,"LDMK_TYPE":null,"SUB_CLASS":0,"Name":"House of Representatives - New Capital","اسم_المحور":null,"اسم_المحافظة":null},"geometry":{"type":"Point","coordinates":[31.758785,30.013372]}},{"type":"Feature","properties":{"source_layer":"Landmarks","source_feature_count":1,"LDMK_TYPE":null,"SUB_CLASS":0,"Name":"وزارة الإتصالات وتكنولوجيا المعلومات","اسم_المحور":null,"اسم_المحافظة":null},"geometry":{"type":"Point","coordinates":[31.752181,30.01731]}},{"type":"Feature","properties":{"source_layer":"Landmarks","source_feature_count":1,"LDMK_TYPE":null,"SUB_CLASS":0,"Name":"The Ministry of Tourism and Antiquities","اسم_المحور":null,"اسم_المحافظة":null},"geometry":{"type":"Point","coordinates":[31.750505,30.018326]}},{"type":"Feature","properties":{"source_layer":"Landmarks","source_feature_count":1,"LDMK_TYPE":null,"SUB_CLASS":0,"Name":"Ministry of Planning and Economic Development","اسم_المحور":null,"اسم_المحافظة":null},"geometry":{"type":"Point","coordinates":[31.75192,30.018354]}},{"type":"Feature","properties":{"source_layer":"Landmarks","source_feature_count":1,"LDMK_TYPE":null,"SUB_CLASS":0,"Name":"Ministry of Government Spending and New Erections","اسم_المحور":null,"اسم_المحافظة":null},"geometry":{"type":"Point","coordinates":[31.750477,30.01745]}},{"type":"Feature","properties":{"source_layer":"Landmarks","source_feature_count":1,"LDMK_TYPE":null,"SUB_CLASS":0,"Name":"وزارة الخارجية المصرية العاصمة الإدارية","اسم_المحور":null,"اسم_المحافظة":null},"geometry":{"type":"Point","coordinates":[31.750849,30.015897]}},{"type":"Feature","properties":{"source_layer":"Landmarks","source_feature_count":1,"LDMK_TYPE":null,"SUB_CLASS":0,"Name":"Ministry of state for emigration","اسم_المحور":null,"اسم_المحافظة":null},"geometry":{"type":"Point","coordinates":[31.749061,30.016253]}},{"type":"Feature","properties":{"source_layer":"Landmarks","source_feature_count":1,"LDMK_TYPE":null,"SUB_CLASS":0,"Name":"وزارة التموين والتجارة الداخلية","اسم_المحور":null,"اسم_المحافظة":null},"geometry":{"type":"Point","coordinates":[31.747185,30.016342]}},{"type":"Feature","properties":{"source_layer":"Landmarks","source_feature_count":1,"LDMK_TYPE":null,"SUB_CLASS":0,"Name":"وزارة التجارة و الصناعة","اسم_المحور":null,"اسم_المحافظة":null},"geometry":{"type":"Point","coordinates":[31.747369,30.015375]}},{"type":"Feature","properties":{"source_layer":"Landmarks","source_feature_count":1,"LDMK_TYPE":null,"SUB_CLASS":0,"Name":"Ministry of International Cooperation - Egypt","اسم_المحور":null,"اسم_المحافظة":null},"geometry":{"type":"Point","coordinates":[31.749098,30.015243]}},{"type":"Feature","properties":{"source_layer":"Landmarks","source_feature_count":1,"LDMK_TYPE":null,"SUB_CLASS":0,"Name":"الهيئة العامة للتأمين الصحي الشامل","اسم_المحور":null,"اسم_المحافظة":null},"geometry":{"type":"Point","coordinates":[31.745931,30.016369]}},{"type":"Feature","properties":{"source_layer":"Landmarks","source_feature_count":1,"LDMK_TYPE":null,"SUB_CLASS":0,"Name":"Ministry of Housing Utilities&Urban Communities","اسم_المحور":null,"اسم_المحافظة":null},"geometry":{"type":"Point","coordinates":[31.745956,30.015452]}},{"type":"Feature","properties":{"source_layer":"Landmarks","source_feature_count":1,"LDMK_TYPE":null,"SUB_CLASS":0,"Name":"وزارة التضامن الاجتماعي بالعاصمة الإدارية","اسم_المحور":null,"اسم_المحافظة":null},"geometry":{"type":"Point","coordinates":[31.744119,30.015418]}},{"type":"Feature","properties":{"source_layer":"Landmarks","source_feature_count":1,"LDMK_TYPE":null,"SUB_CLASS":0,"Name":"وزارة الدولة للأعلام بالعاصمة الإدارية","اسم_المحور":null,"اسم_المحافظة":null},"geometry":{"type":"Point","coordinates":[31.744088,30.016334]}},{"type":"Feature","properties":{"source_layer":"Landmarks","source_feature_count":1,"LDMK_TYPE":null,"SUB_CLASS":0,"Name":"وزارة التعليم العالي والبحث العلمي","اسم_المحور":null,"اسم_المحافظة":null},"geometry":{"type":"Point","coordinates":[31.742776,30.015342]}},{"type":"Feature","properties":{"source_layer":"Landmarks","source_feature_count":1,"LDMK_TYPE":null,"SUB_CLASS":0,"Name":"Ministry of Education","اسم_المحور":null,"اسم_المحافظة":null},"geometry":{"type":"Point","coordinates":[31.74121,30.015409]}},{"type":"Feature","properties":{"source_layer":"Landmarks","source_feature_count":1,"LDMK_TYPE":null,"SUB_CLASS":0,"Name":"وزارة الأوقاف بالعاصمة الإدارية","اسم_المحور":null,"اسم_المحافظة":null},"geometry":{"type":"Point","coordinates":[31.742876,30.016398]}},{"type":"Feature","properties":{"source_layer":"Landmarks","source_feature_count":1,"LDMK_TYPE":null,"SUB_CLASS":0,"Name":"وزارة الري","اسم_المحور":null,"اسم_المحافظة":null},"geometry":{"type":"Point","coordinates":[31.752164,30.009473]}},{"type":"Feature","properties":{"source_layer":"Landmarks","source_feature_count":1,"LDMK_TYPE":null,"SUB_CLASS":0,"Name":"وزارة العدل الجديدة","اسم_المحور":null,"اسم_المحافظة":null},"geometry":{"type":"Point","coordinates":[31.750843,30.011442]}},{"type":"Feature","properties":{"source_layer":"Landmarks","source_feature_count":1,"LDMK_TYPE":null,"SUB_CLASS":0,"Name":"الهيئة القومية لضمان جودة التعليم و الاعتماد","اسم_المحور":null,"اسم_المحافظة":null},"geometry":{"type":"Point","coordinates":[31.75215,30.00842]}},{"type":"Feature","properties":{"source_layer":"Landmarks","source_feature_count":1,"LDMK_TYPE":null,"SUB_CLASS":0,"Name":"Ministry of water resources and irrigation","اسم_المحور":null,"اسم_المحافظة":null},"geometry":{"type":"Point","coordinates":[31.75042,30.009358]}},{"type":"Feature","properties":{"source_layer":"Landmarks","source_feature_count":1,"LDMK_TYPE":null,"SUB_CLASS":0,"Name":"وزاره النقل في العاصمه الاداريه","اسم_المحور":null,"اسم_المحافظة":null},"geometry":{"type":"Point","coordinates":[31.749066,30.011308]}},{"type":"Feature","properties":{"source_layer":"Landmarks","source_feature_count":1,"LDMK_TYPE":null,"SUB_CLASS":0,"Name":"Ministry of youth and sports - New Capital","اسم_المحور":null,"اسم_المحافظة":null},"geometry":{"type":"Point","coordinates":[31.749161,30.010586]}},{"type":"Feature","properties":{"source_layer":"Landmarks","source_feature_count":1,"LDMK_TYPE":null,"SUB_CLASS":0,"Name":"Ministry of Culture","اسم_المحور":null,"اسم_المحافظة":null},"geometry":{"type":"Point","coordinates":[31.74778,30.010414]}},{"type":"Feature","properties":{"source_layer":"Landmarks","source_feature_count":1,"LDMK_TYPE":null,"SUB_CLASS":0,"Name":"الهيئة العامة للاعتماد والرقابة الصحية","اسم_المحور":null,"اسم_المحافظة":null},"geometry":{"type":"Point","coordinates":[31.747318,30.011361]}},{"type":"Feature","properties":{"source_layer":"Landmarks","source_feature_count":1,"LDMK_TYPE":null,"SUB_CLASS":0,"Name":"Ministry of Electricity and Renewable Energy","اسم_المحور":null,"اسم_المحافظة":null},"geometry":{"type":"Point","coordinates":[31.745718,30.011434]}},{"type":"Feature","properties":{"source_layer":"Landmarks","source_feature_count":1,"LDMK_TYPE":null,"SUB_CLASS":0,"Name":"وزارة الانتاج الحربي","اسم_المحور":null,"اسم_المحافظة":null},"geometry":{"type":"Point","coordinates":[31.744181,30.010537]}},{"type":"Feature","properties":{"source_layer":"Landmarks","source_feature_count":1,"LDMK_TYPE":null,"SUB_CLASS":0,"Name":"Egyptian Electricity Transmission Company EETC","اسم_المحور":null,"اسم_المحافظة":null},"geometry":{"type":"Point","coordinates":[31.745926,30.010515]}},{"type":"Feature","properties":{"source_layer":"Landmarks","source_feature_count":1,"LDMK_TYPE":null,"SUB_CLASS":0,"Name":"جهاز شئون البيئة(العاصمة الإدارية)","اسم_المحور":null,"اسم_المحافظة":null},"geometry":{"type":"Point","coordinates":[31.742744,30.011557]}},{"type":"Feature","properties":{"source_layer":"Landmarks","source_feature_count":1,"LDMK_TYPE":null,"SUB_CLASS":0,"Name":"Ministry of Finance","اسم_المحور":null,"اسم_المحافظة":null},"geometry":{"type":"Point","coordinates":[31.742674,30.010534]}},{"type":"Feature","properties":{"source_layer":"Landmarks","source_feature_count":1,"LDMK_TYPE":null,"SUB_CLASS":0,"Name":"وزارة التنمية المحلية العاصمة الإدارية","اسم_المحور":null,"اسم_المحافظة":null},"geometry":{"type":"Point","coordinates":[31.741186,30.011525]}},{"type":"Feature","properties":{"source_layer":"Landmarks","source_feature_count":1,"LDMK_TYPE":null,"SUB_CLASS":0,"Name":"The Central Bank of Egypt","اسم_المحور":null,"اسم_المحافظة":null},"geometry":{"type":"Point","coordinates":[31.732819,30.013638]}},{"type":"Feature","properties":{"source_layer":"Landmarks","source_feature_count":1,"LDMK_TYPE":null,"SUB_CLASS":0,"Name":"Masjid Misr","اسم_المحور":null,"اسم_المحافظة":null},"geometry":{"type":"Point","coordinates":[31.754886,30.001655]}},{"type":"Feature","properties":{"source_layer":"Landmarks","source_feature_count":1,"LDMK_TYPE":null,"SUB_CLASS":0,"Name":"Alhayah hall","اسم_المحور":null,"اسم_المحافظة":null},"geometry":{"type":"Point","coordinates":[31.755087,30.030514]}},{"type":"Feature","properties":{"source_layer":"Landmarks","source_feature_count":1,"LDMK_TYPE":null,"SUB_CLASS":0,"Name":"القصر الرئاسي الجمهوري","اسم_المحور":null,"اسم_المحافظة":null},"geometry":{"type":"Point","coordinates":[31.754997,30.038083]}},{"type":"Feature","properties":{"source_layer":"Landmarks","source_feature_count":1,"LDMK_TYPE":null,"SUB_CLASS":0,"Name":"مسجد الحرس الجمهوري","اسم_المحور":null,"اسم_المحافظة":null},"geometry":{"type":"Point","coordinates":[31.744902,30.035524]}},{"type":"Feature","properties":{"source_layer":"Landmarks","source_feature_count":1,"LDMK_TYPE":null,"SUB_CLASS":0,"Name":"City of Arts and Culture Mosque","اسم_المحور":null,"اسم_المحافظة":null},"geometry":{"type":"Point","coordinates":[31.722731,30.016092]}},{"type":"Feature","properties":{"source_layer":"Landmarks","source_feature_count":1,"LDMK_TYPE":null,"SUB_CLASS":0,"Name":"مدينة الفنون والثقافة","اسم_المحور":null,"اسم_المحافظة":null},"geometry":{"type":"Point","coordinates":[31.721146,30.015433]}},{"type":"Feature","properties":{"source_layer":"Landmarks","source_feature_count":1,"LDMK_TYPE":null,"SUB_CLASS":0,"Name":"New Opera House","اسم_المحور":null,"اسم_المحافظة":null},"geometry":{"type":"Point","coordinates":[31.721629,30.013267]}},{"type":"Feature","properties":{"source_layer":"Landmarks","source_feature_count":1,"LDMK_TYPE":null,"SUB_CLASS":0,"Name":"Capital Libary","اسم_المحور":null,"اسم_المحافظة":null},"geometry":{"type":"Point","coordinates":[31.720946,30.011509]}},{"type":"Feature","properties":{"source_layer":"Landmarks","source_feature_count":1,"LDMK_TYPE":null,"SUB_CLASS":0,"Name":"University of Canada in Egypt","اسم_المحور":null,"اسم_المحافظة":null},"geometry":{"type":"Point","coordinates":[31.712574,30.029178]}},{"type":"Feature","properties":{"source_layer":"Landmarks","source_feature_count":1,"LDMK_TYPE":null,"SUB_CLASS":0,"Name":"جامعة مصر للمعلوماتية - EUI","اسم_المحور":null,"اسم_المحافظة":null},"geometry":{"type":"Point","coordinates":[31.707773,30.022239]}},{"type":"Feature","properties":{"source_layer":"Landmarks","source_feature_count":1,"LDMK_TYPE":null,"SUB_CLASS":0,"Name":"حضانة المهندس ايمام محمد أبو العدب","اسم_المحور":null,"اسم_المحافظة":null},"geometry":{"type":"Point","coordinates":[31.700061,30.022503]}},{"type":"Feature","properties":{"source_layer":"Landmarks","source_feature_count":1,"LDMK_TYPE":null,"SUB_CLASS":0,"Name":"جهاز مدينة العاصمة الادارية الجديده","اسم_المحور":null,"اسم_المحافظة":null},"geometry":{"type":"Point","coordinates":[31.700571,30.023254]}},{"type":"Feature","properties":{"source_layer":"Landmarks","source_feature_count":1,"LDMK_TYPE":null,"SUB_CLASS":0,"Name":"Mosque D1 Residential District R3","اسم_المحور":null,"اسم_المحافظة":null},"geometry":{"type":"Point","coordinates":[31.697061,30.023396]}},{"type":"Feature","properties":{"source_layer":"Landmarks","source_feature_count":1,"LDMK_TYPE":null,"SUB_CLASS":0,"Name":"Anglo American School","اسم_المحور":null,"اسم_المحافظة":null},"geometry":{"type":"Point","coordinates":[31.700684,30.03131]}},{"type":"Feature","properties":{"source_layer":"Landmarks","source_feature_count":1,"LDMK_TYPE":null,"SUB_CLASS":0,"Name":"مبنى البريد المصرى الادارى با العاصمة الادارية","اسم_المحور":null,"اسم_المحافظة":null},"geometry":{"type":"Point","coordinates":[31.729757,30.011443]}},{"type":"Feature","properties":{"source_layer":"Landmarks","source_feature_count":1,"LDMK_TYPE":null,"SUB_CLASS":0,"Name":"محطة مدينة الفنون والثقافة LRT","اسم_المحور":null,"اسم_المحافظة":null},"geometry":{"type":"Point","coordinates":[31.7248,30.013462]}},{"type":"Feature","properties":{"source_layer":"Landmarks","source_feature_count":1,"LDMK_TYPE":null,"SUB_CLASS":0,"Name":"Al Masa Mosque","اسم_المحور":null,"اسم_المحافظة":null},"geometry":{"type":"Point","coordinates":[31.726847,30.002062]}},{"type":"Feature","properties":{"source_layer":"Landmarks","source_feature_count":1,"LDMK_TYPE":null,"SUB_CLASS":0,"Name":"فندق الماسة العاصمة الإدارية الجديدة","اسم_المحور":null,"اسم_المحافظة":null},"geometry":{"type":"Point","coordinates":[31.723245,30.005832]}},{"type":"Feature","properties":{"source_layer":"Landmarks","source_feature_count":1,"LDMK_TYPE":null,"SUB_CLASS":0,"Name":"محطه بنزين وطنيه","اسم_المحور":null,"اسم_المحافظة":null},"geometry":{"type":"Point","coordinates":[31.729295,29.997547]}},{"type":"Feature","properties":{"source_layer":"Landmarks","source_feature_count":1,"LDMK_TYPE":null,"SUB_CLASS":0,"Name":"نادي الجوهرة","اسم_المحور":null,"اسم_المحافظة":null},"geometry":{"type":"Point","coordinates":[31.711775,29.995719]}},{"type":"Feature","properties":{"source_layer":"Landmarks","source_feature_count":1,"LDMK_TYPE":null,"SUB_CLASS":0,"Name":"مسجد كمبوند الجوهرة قوات مسلحة","اسم_المحور":null,"اسم_المحافظة":null},"geometry":{"type":"Point","coordinates":[31.721395,29.986385]}},{"type":"Feature","properties":{"source_layer":"Landmarks","source_feature_count":1,"LDMK_TYPE":null,"SUB_CLASS":0,"Name":"حضانة سيليا","اسم_المحور":null,"اسم_المحافظة":null},"geometry":{"type":"Point","coordinates":[31.747949,29.983026]}},{"type":"Feature","properties":{"source_layer":"Landmarks","source_feature_count":1,"LDMK_TYPE":null,"SUB_CLASS":0,"Name":"Cathedral of the Nativity of Christ","اسم_المحور":null,"اسم_المحافظة":null},"geometry":{"type":"Point","coordinates":[31.72051,29.981205]}},{"type":"Feature","properties":{"source_layer":"Landmarks","source_feature_count":1,"LDMK_TYPE":null,"SUB_CLASS":0,"Name":"Midtown Solo Mall New Capital - مول ميدتاون صولو","اسم_المحور":null,"اسم_المحافظة":null},"geometry":{"type":"Point","coordinates":[31.721143,29.979011]}},{"type":"Feature","properties":{"source_layer":"Landmarks","source_feature_count":1,"LDMK_TYPE":null,"SUB_CLASS":0,"Name":"The Knowledge Hub Universities","اسم_المحور":null,"اسم_المحافظة":null},"geometry":{"type":"Point","coordinates":[31.709481,29.971805]}},{"type":"Feature","properties":{"source_layer":"Landmarks","source_feature_count":1,"LDMK_TYPE":null,"SUB_CLASS":0,"Name":"AlFarouk International School","اسم_المحور":null,"اسم_المحافظة":null},"geometry":{"type":"Point","coordinates":[31.731389,29.953038]}},{"type":"Feature","properties":{"source_layer":"Landmarks","source_feature_count":1,"LDMK_TYPE":null,"SUB_CLASS":0,"Name":"مدرسة اديوبوليس","اسم_المحور":null,"اسم_المحافظة":null},"geometry":{"type":"Point","coordinates":[31.707753,29.954545]}},{"type":"Feature","properties":{"source_layer":"Landmarks","source_feature_count":1,"LDMK_TYPE":null,"SUB_CLASS":0,"Name":"German International University - GIU","اسم_المحور":null,"اسم_المحافظة":null},"geometry":{"type":"Point","coordinates":[31.700498,30.003711]}},{"type":"Feature","properties":{"source_layer":"Landmarks","source_feature_count":1,"LDMK_TYPE":null,"SUB_CLASS":0,"Name":"مدينة مصر الدولية للالعاب الاوليمبية","اسم_المحور":null,"اسم_المحافظة":null},"geometry":{"type":"Point","coordinates":[31.679597,29.895683]}},{"type":"Feature","properties":{"source_layer":"Landmarks","source_feature_count":1,"LDMK_TYPE":null,"SUB_CLASS":0,"Name":"ستاد الجيش ، مدينة مصر الدولية","اسم_المحور":null,"اسم_المحافظة":null},"geometry":{"type":"Point","coordinates":[31.673867,29.892524]}},{"type":"Feature","properties":{"source_layer":"Landmarks","source_feature_count":1,"LDMK_TYPE":null,"SUB_CLASS":0,"Name":"Tolip Hotel Olympic International City","اسم_المحور":null,"اسم_المحافظة":null},"geometry":{"type":"Point","coordinates":[31.68322,29.900848]}},{"type":"Feature","properties":{"source_layer":"Landmarks","source_feature_count":1,"LDMK_TYPE":null,"SUB_CLASS":0,"Name":"مسجد الكيان","اسم_المحور":null,"اسم_المحافظة":null},"geometry":{"type":"Point","coordinates":[31.645,29.916375]}},{"type":"Feature","properties":{"source_layer":"Landmarks","source_feature_count":1,"LDMK_TYPE":null,"SUB_CLASS":0,"Name":"حضانه النرجس بالعاصمه الاداريه","اسم_المحور":null,"اسم_المحافظة":null},"geometry":{"type":"Point","coordinates":[31.645921,29.916026]}},{"type":"Feature","properties":{"source_layer":"Landmarks","source_feature_count":1,"LDMK_TYPE":null,"SUB_CLASS":0,"Name":"Narges Hotel of Octagon","اسم_المحور":null,"اسم_المحافظة":null},"geometry":{"type":"Point","coordinates":[31.657848,29.918118]}},{"type":"Feature","properties":{"source_layer":"Landmarks","source_feature_count":1,"LDMK_TYPE":null,"SUB_CLASS":0,"Name":"مسجد الكيان العسكري","اسم_المحور":null,"اسم_المحافظة":null},"geometry":{"type":"Point","coordinates":[31.660845,29.915663]}},{"type":"Feature","properties":{"source_layer":"Landmarks","source_feature_count":1,"LDMK_TYPE":null,"SUB_CLASS":0,"Name":"مدرسة الكيان العاصمة الإدارية","اسم_المحور":null,"اسم_المحافظة":null},"geometry":{"type":"Point","coordinates":[31.66172,29.914051]}},{"type":"Feature","properties":{"source_layer":"Landmarks","source_feature_count":1,"LDMK_TYPE":null,"SUB_CLASS":0,"Name":"ملعب فيلات كبار القاده","اسم_المحور":null,"اسم_المحافظة":null},"geometry":{"type":"Point","coordinates":[31.668765,29.948778]}},{"type":"Feature","properties":{"source_layer":"Landmarks","source_feature_count":1,"LDMK_TYPE":null,"SUB_CLASS":0,"Name":"El nargs hospital","اسم_المحور":null,"اسم_المحافظة":null},"geometry":{"type":"Point","coordinates":[31.672907,29.953716]}},{"type":"Feature","properties":{"source_layer":"Landmarks","source_feature_count":1,"LDMK_TYPE":null,"SUB_CLASS":0,"Name":"مسجد الرحمة","اسم_المحور":null,"اسم_المحافظة":null},"geometry":{"type":"Point","coordinates":[31.678733,29.94931]}},{"type":"Feature","properties":{"source_layer":"Landmarks","source_feature_count":1,"LDMK_TYPE":null,"SUB_CLASS":0,"Name":"مول كبار القادة","اسم_المحور":null,"اسم_المحافظة":null},"geometry":{"type":"Point","coordinates":[31.674846,29.955933]}},{"type":"Feature","properties":{"source_layer":"Landmarks","source_feature_count":1,"LDMK_TYPE":null,"SUB_CLASS":0,"Name":"الحديقة الدولية الكيان العسكرى","اسم_المحور":null,"اسم_المحافظة":null},"geometry":{"type":"Point","coordinates":[31.657017,29.958259]}},{"type":"Feature","properties":{"source_layer":"Landmarks","source_feature_count":1,"LDMK_TYPE":null,"SUB_CLASS":0,"Name":"مسجد 1","اسم_المحور":null,"اسم_المحافظة":null},"geometry":{"type":"Point","coordinates":[31.660039,29.966365]}},{"type":"Feature","properties":{"source_layer":"Landmarks","source_feature_count":1,"LDMK_TYPE":null,"SUB_CLASS":0,"Name":"مسجد 3","اسم_المحور":null,"اسم_المحافظة":null},"geometry":{"type":"Point","coordinates":[31.663758,29.967875]}},{"type":"Feature","properties":{"source_layer":"Landmarks","source_feature_count":1,"LDMK_TYPE":null,"SUB_CLASS":0,"Name":"مستشفى العاصمة","اسم_المحور":null,"اسم_المحافظة":null},"geometry":{"type":"Point","coordinates":[31.684634,29.994817]}},{"type":"Feature","properties":{"source_layer":"Landmarks","source_feature_count":1,"LDMK_TYPE":null,"SUB_CLASS":0,"Name":"Al Shuhada Mosque 2","اسم_المحور":null,"اسم_المحافظة":null},"geometry":{"type":"Point","coordinates":[31.672158,30.009603]}},{"type":"Feature","properties":{"source_layer":"Landmarks","source_feature_count":1,"LDMK_TYPE":null,"SUB_CLASS":0,"Name":"مستشفي العاصمة الادارية الجديدة","اسم_المحور":null,"اسم_المحافظة":null},"geometry":{"type":"Point","coordinates":[31.702521,30.010471]}},{"type":"Feature","properties":{"source_layer":"Landmarks","source_feature_count":1,"LDMK_TYPE":null,"SUB_CLASS":0,"Name":"CUC مجمع المرافق المركزي","اسم_المحور":null,"اسم_المحافظة":null},"geometry":{"type":"Point","coordinates":[31.703307,30.01058]}},{"type":"Feature","properties":{"source_layer":"Landmarks","source_feature_count":1,"LDMK_TYPE":null,"SUB_CLASS":0,"Name":"Wataneya - New Capital","اسم_المحور":null,"اسم_المحافظة":null},"geometry":{"type":"Point","coordinates":[31.667931,30.022411]}},{"type":"Feature","properties":{"source_layer":"Landmarks","source_feature_count":1,"LDMK_TYPE":null,"SUB_CLASS":0,"Name":"New Castle International School","اسم_المحور":null,"اسم_المحافظة":null},"geometry":{"type":"Point","coordinates":[31.66781,30.027308]}},{"type":"Feature","properties":{"source_layer":"Landmarks","source_feature_count":1,"LDMK_TYPE":null,"SUB_CLASS":0,"Name":"International Public School IPS","اسم_المحور":null,"اسم_المحافظة":null},"geometry":{"type":"Point","coordinates":[31.671348,30.027641]}},{"type":"Feature","properties":{"source_layer":"Landmarks","source_feature_count":1,"LDMK_TYPE":null,"SUB_CLASS":0,"Name":"كنيسة 2 الحي الثاني R2 - العاصمة الادارية","اسم_المحور":null,"اسم_المحافظة":null},"geometry":{"type":"Point","coordinates":[31.668479,30.032314]}},{"type":"Feature","properties":{"source_layer":"Landmarks","source_feature_count":1,"LDMK_TYPE":null,"SUB_CLASS":0,"Name":"DETAC - NIS International School","اسم_المحور":null,"اسم_المحافظة":null},"geometry":{"type":"Point","coordinates":[31.67287,30.036678]}},{"type":"Feature","properties":{"source_layer":"Landmarks","source_feature_count":1,"LDMK_TYPE":null,"SUB_CLASS":0,"Name":"New capital English school","اسم_المحور":null,"اسم_المحافظة":null},"geometry":{"type":"Point","coordinates":[31.670698,30.03833]}},{"type":"Feature","properties":{"source_layer":"Landmarks","source_feature_count":1,"LDMK_TYPE":null,"SUB_CLASS":0,"Name":"مدرسة برينستون العاصمة","اسم_المحور":null,"اسم_المحافظة":null},"geometry":{"type":"Point","coordinates":[31.685275,30.034905]}},{"type":"Feature","properties":{"source_layer":"Landmarks","source_feature_count":1,"LDMK_TYPE":null,"SUB_CLASS":0,"Name":"EL-FOUAD INTERNATIONAL SCHOOLS","اسم_المحور":null,"اسم_المحافظة":null},"geometry":{"type":"Point","coordinates":[31.686408,30.037542]}},{"type":"Feature","properties":{"source_layer":"Landmarks","source_feature_count":1,"LDMK_TYPE":null,"SUB_CLASS":0,"Name":"Seven Pillars International School","اسم_المحور":null,"اسم_المحافظة":null},"geometry":{"type":"Point","coordinates":[31.681504,30.026161]}},{"type":"Feature","properties":{"source_layer":"Landmarks","source_feature_count":1,"LDMK_TYPE":null,"SUB_CLASS":0,"Name":"Elrowad Integrated International school","اسم_المحور":null,"اسم_المحافظة":null},"geometry":{"type":"Point","coordinates":[31.681196,30.024877]}},{"type":"Feature","properties":{"source_layer":"Landmarks","source_feature_count":1,"LDMK_TYPE":null,"SUB_CLASS":0,"Name":"MARVEL MALL","اسم_المحور":null,"اسم_المحافظة":null},"geometry":{"type":"Point","coordinates":[31.679045,30.025118]}},{"type":"Feature","properties":{"source_layer":"Landmarks","source_feature_count":1,"LDMK_TYPE":null,"SUB_CLASS":0,"Name":"المدرسة الانجليزية الدولية","اسم_المحور":null,"اسم_المحافظة":null},"geometry":{"type":"Point","coordinates":[31.68335,30.031918]}},{"type":"Feature","properties":{"source_layer":"Landmarks","source_feature_count":1,"LDMK_TYPE":null,"SUB_CLASS":0,"Name":"باريس مول العاصمة الإدارية","اسم_المحور":null,"اسم_المحافظة":null},"geometry":{"type":"Point","coordinates":[31.681929,30.031607]}},{"type":"Feature","properties":{"source_layer":"Landmarks","source_feature_count":1,"LDMK_TYPE":null,"SUB_CLASS":0,"Name":"مول باجودا العاصمة الادارية الجديدة","اسم_المحور":null,"اسم_المحافظة":null},"geometry":{"type":"Point","coordinates":[31.682683,30.033663]}},{"type":"Feature","properties":{"source_layer":"Landmarks","source_feature_count":1,"LDMK_TYPE":null,"SUB_CLASS":0,"Name":"IRIS MALL NEW CAPITAL","اسم_المحور":null,"اسم_المحافظة":null},"geometry":{"type":"Point","coordinates":[31.683763,30.036549]}},{"type":"Feature","properties":{"source_layer":"Landmarks","source_feature_count":1,"LDMK_TYPE":null,"SUB_CLASS":0,"Name":"School","اسم_المحور":null,"اسم_المحافظة":null},"geometry":{"type":"Point","coordinates":[31.688335,30.036584]}},{"type":"Feature","properties":{"source_layer":"Landmarks","source_feature_count":1,"LDMK_TYPE":null,"SUB_CLASS":0,"Name":"Avenue El maqsed mall","اسم_المحور":null,"اسم_المحافظة":null},"geometry":{"type":"Point","coordinates":[31.699549,30.038971]}},{"type":"Feature","properties":{"source_layer":"Landmarks","source_feature_count":1,"LDMK_TYPE":null,"SUB_CLASS":0,"Name":"مدرسة القديس يوسف العاصمة الادارية","اسم_المحور":null,"اسم_المحافظة":null},"geometry":{"type":"Point","coordinates":[31.688298,30.032023]}},{"type":"Feature","properties":{"source_layer":"Landmarks","source_feature_count":1,"LDMK_TYPE":null,"SUB_CLASS":0,"Name":"حضانة","اسم_المحور":null,"اسم_المحافظة":null},"geometry":{"type":"Point","coordinates":[31.689302,30.029615]}},{"type":"Feature","properties":{"source_layer":"Landmarks","source_feature_count":1,"LDMK_TYPE":null,"SUB_CLASS":0,"Name":"CADMUS International School","اسم_المحور":null,"اسم_المحافظة":null},"geometry":{"type":"Point","coordinates":[31.69249,30.023864]}},{"type":"Feature","properties":{"source_layer":"Landmarks","source_feature_count":1,"LDMK_TYPE":null,"SUB_CLASS":0,"Name":"Sahara International School New Capital","اسم_المحور":null,"اسم_المحافظة":null},"geometry":{"type":"Point","coordinates":[31.69428,30.024721]}},{"type":"Feature","properties":{"source_layer":"Landmarks","source_feature_count":1,"LDMK_TYPE":null,"SUB_CLASS":0,"Name":"كنيسة","اسم_المحور":null,"اسم_المحافظة":null},"geometry":{"type":"Point","coordinates":[31.695225,30.032283]}},{"type":"Feature","properties":{"source_layer":"Landmarks","source_feature_count":1,"LDMK_TYPE":null,"SUB_CLASS":0,"Name":"مسجد النادي 2","اسم_المحور":null,"اسم_المحافظة":null},"geometry":{"type":"Point","coordinates":[31.690972,30.040712]}},{"type":"Feature","properties":{"source_layer":"Landmarks","source_feature_count":1,"LDMK_TYPE":null,"SUB_CLASS":0,"Name":"مستشفى أسر الشهداء بالعاصمة الإدارية الجديدة","اسم_المحور":null,"اسم_المحافظة":null},"geometry":{"type":"Point","coordinates":[31.69749,30.042717]}},{"type":"Feature","properties":{"source_layer":"Landmarks","source_feature_count":1,"LDMK_TYPE":null,"SUB_CLASS":0,"Name":"مسجد النادي","اسم_المحور":null,"اسم_المحافظة":null},"geometry":{"type":"Point","coordinates":[31.701996,30.042068]}},{"type":"Feature","properties":{"source_layer":"Landmarks","source_feature_count":1,"LDMK_TYPE":null,"SUB_CLASS":0,"Name":"Sports City New Capital","اسم_المحور":null,"اسم_المحافظة":null},"geometry":{"type":"Point","coordinates":[31.690341,30.043108]}},{"type":"Feature","properties":{"source_layer":"Landmarks","source_feature_count":1,"LDMK_TYPE":null,"SUB_CLASS":0,"Name":"مجمع البنوك العاصمة الادارية","اسم_المحور":null,"اسم_المحافظة":null},"geometry":{"type":"Point","coordinates":[31.733712,30.016541]}},{"type":"Feature","properties":{"source_layer":"Landmarks","source_feature_count":1,"LDMK_TYPE":null,"SUB_CLASS":0,"Name":"مدرسة النيل المصرية","اسم_المحور":null,"اسم_المحافظة":null},"geometry":{"type":"Point","coordinates":[31.695151,30.034572]}},{"type":"Feature","properties":{"source_layer":"Landmarks","source_feature_count":1,"LDMK_TYPE":null,"SUB_CLASS":0,"Name":"Total Energies R3 service station","اسم_المحور":null,"اسم_المحافظة":null},"geometry":{"type":"Point","coordinates":[31.68538,30.030219]}},{"type":"Feature","properties":{"source_layer":"Landmarks","source_feature_count":1,"LDMK_TYPE":null,"SUB_CLASS":0,"Name":"محطة محولات العاصمة الإدارية S1","اسم_المحور":null,"اسم_المحافظة":null},"geometry":{"type":"Point","coordinates":[31.683356,29.976444]}},{"type":"Feature","properties":{"source_layer":"Landmarks","source_feature_count":1,"LDMK_TYPE":null,"SUB_CLASS":0,"Name":"مستشفي ١٥٠ سرير","اسم_المحور":null,"اسم_المحافظة":null},"geometry":{"type":"Point","coordinates":[31.659622,29.903289]}},{"type":"Feature","properties":{"source_layer":"Landmarks","source_feature_count":1,"LDMK_TYPE":1,"SUB_CLASS":6105,"Name":"مدرسه الموهوبين","اسم_المحور":null,"اسم_المحافظة":null},"geometry":{"type":"Point","coordinates":[31.659837,29.901555]}},{"type":"Feature","properties":{"source_layer":"Landmarks","source_feature_count":1,"LDMK_TYPE":null,"SUB_CLASS":0,"Name":"محطة تحلية المياه","اسم_المحور":null,"اسم_المحافظة":null},"geometry":{"type":"Point","coordinates":[31.68009,29.968884]}},{"type":"Feature","properties":{"source_layer":"Landmarks","source_feature_count":1,"LDMK_TYPE":null,"SUB_CLASS":0,"Name":"مدرسة مجتمع ماونت الدولية","اسم_المحور":null,"اسم_المحافظة":null},"geometry":{"type":"Point","coordinates":[31.664328,30.038056]}},{"type":"Feature","properties":{"source_layer":"Landmarks","source_feature_count":1,"LDMK_TYPE":null,"SUB_CLASS":0,"Name":"مدرسة البيان","اسم_المحور":null,"اسم_المحافظة":null},"geometry":{"type":"Point","coordinates":[31.707254,30.032907]}},{"type":"Feature","properties":{"source_layer":"Landmarks","source_feature_count":1,"LDMK_TYPE":null,"SUB_CLASS":0,"Name":"The Iconic Tower","اسم_المحور":null,"اسم_المحافظة":null},"geometry":{"type":"Point","coordinates":[31.693864,30.012843]}},{"type":"Feature","properties":{"source_layer":"Landmarks","source_feature_count":1,"LDMK_TYPE":null,"SUB_CLASS":0,"Name":"Chill Out Station","اسم_المحور":null,"اسم_المحافظة":null},"geometry":{"type":"Point","coordinates":[31.69476,30.006162]}},{"type":"Feature","properties":{"source_layer":"Landmarks","source_feature_count":1,"LDMK_TYPE":null,"SUB_CLASS":0,"Name":"Mohamed Sherif’s Mosque","اسم_المحور":null,"اسم_المحافظة":null},"geometry":{"type":"Point","coordinates":[31.695636,30.005737]}},{"type":"Feature","properties":{"source_layer":"Landmarks","source_feature_count":1,"LDMK_TYPE":null,"SUB_CLASS":0,"Name":"نادي الرماية الدولي","اسم_المحور":null,"اسم_المحافظة":null},"geometry":{"type":"Point","coordinates":[31.676395,29.897951]}},{"type":"Feature","properties":{"source_layer":"Landmarks","source_feature_count":1,"LDMK_TYPE":null,"SUB_CLASS":0,"Name":"مسجد المدينة الاوليمبية","اسم_المحور":null,"اسم_المحافظة":null},"geometry":{"type":"Point","coordinates":[31.67595,29.894596]}},{"type":"Feature","properties":{"source_layer":"Landmarks","source_feature_count":1,"LDMK_TYPE":null,"SUB_CLASS":0,"Name":"نادي الفروسية","اسم_المحور":null,"اسم_المحافظة":null},"geometry":{"type":"Point","coordinates":[31.684292,29.891497]}},{"type":"Feature","properties":{"source_layer":"Landmarks","source_feature_count":1,"LDMK_TYPE":null,"SUB_CLASS":0,"Name":"مدينة مرابط للخيول العربية","اسم_المحور":null,"اسم_المحافظة":null},"geometry":{"type":"Point","coordinates":[31.684154,29.885906]}},{"type":"Feature","properties":{"source_layer":"Landmarks","source_feature_count":1,"LDMK_TYPE":null,"SUB_CLASS":0,"Name":"مستشفى المرابط","اسم_المحور":null,"اسم_المحافظة":null},"geometry":{"type":"Point","coordinates":[31.68414,29.883525]}}]}