{
"type": "FeatureCollection",
"name": "Study_Area",
"xy_coordinate_resolution": 8.98315e-10,
"z_coordinate_resolution": 0.0001,
"features": [
{"type":"Feature","properties":{"Shape_Length":268455.60681322525,"Shape_Area":1256280828.0997865,"اسم_المحور":"محور الدائرى الاقليمى","اسم_المحافظة":null,"مساحة_المنطقة_كم2":1256.2808280997865,"عدد_المنشأت_التغير":null},"geometry":{"type":"Polygon","coordinates":[[[31.6061354517,30.3661764222],[31.6042991141,30.3724095682],[31.6012508546,30.3793208666],[31.5930713715,30.3947557166],[31.5898010874,30.4001255633],[31.5740083014,30.4201587588],[31.5658651697,30.4281226925],[31.4920130404,30.3647256609],[31.4998344337,30.3547169776],[31.5010880375,30.352310909],[31.5003157161,30.3467815319],[31.500193494,30.3391928793],[31.5008123716,30.3336857476],[31.502245715,30.3278002226],[31.5071569311,30.3158313337],[31.5188052641,30.2920041626],[31.5249843536,30.2832032268],[31.5300004147,30.2779429879],[31.5335266502,30.2748468764],[31.5425585925,30.2684612747],[31.5627105272,30.2570431253],[31.5724032776,30.2532470173],[31.583194718,30.2507980149],[31.5941931728,30.2497749516],[31.6062871766,30.2502415068],[31.6829546444,30.1654741202],[31.7050461896,30.1416121954],[31.7139400068,30.1347905568],[31.7193340736,30.1316076276],[31.7264533737,30.1281990629],[31.7331664303,30.1258473651],[31.7393550855,30.1242502127],[31.7520742931,30.1223797074],[31.7512100766,30.1150173643],[31.7196091281,30.0995125269],[31.7118440404,30.095390449],[31.701789435,30.0891773887],[31.6960595099,30.0845439646],[31.6878930186,30.0761068362],[31.6848546869,30.0724064031],[31.6794412794,30.0645968044],[31.6761895911,30.0584615309],[31.6673901361,30.0363450917],[31.6372089824,29.984320753],[31.6348392451,29.9784372532],[31.6318370681,29.9673915533],[31.6310294847,29.9623174927],[31.6308878965,29.957196421],[31.6328955481,29.9401831184],[31.6348518942,29.9332240952],[31.6366564513,29.9285534785],[31.6435489275,29.916786051],[31.641531052,29.8993522312],[31.6258787665,29.8868828503],[31.621857512,29.8831881262],[31.615379225,29.8757241875],[31.6085572976,29.8653621409],[31.6021574624,29.8618042463],[31.595066871,29.8565992479],[31.5869587691,29.8485271253],[31.5799118706,29.8430567748],[31.5754140406,29.838297802],[31.5686150688,29.8354620964],[31.5600782534,29.8307845921],[31.5438186252,29.8351500337],[31.5335367423,29.836748862],[31.5259115315,29.8373238526],[31.5202059117,29.8372810871],[31.5145404561,29.8366905622],[31.5048032313,29.8348289876],[31.4988186395,29.8331170984],[31.4866288318,29.8281762499],[31.4717980621,29.8207184089],[31.4660761783,29.8172711313],[31.4604375664,29.8132920836],[31.447729145,29.8030914543],[31.4398796661,29.7982335334],[31.4313603536,29.7957701981],[31.4262115965,29.7937793736],[31.4194428357,29.7905362169],[31.4124216746,29.7861749535],[31.4070548852,29.7820968836],[31.4010423381,29.7761653103],[31.3889898111,29.7609176935],[31.3817589423,29.7566169236],[31.3753266791,29.7546791613],[31.365319619,29.7544781533],[31.342959081,29.7530478043],[31.3349153063,29.7541584697],[31.3279632202,29.7543095214],[31.319217892,29.7534492264],[31.3135773196,29.7524714406],[31.3069068411,29.7505435558],[31.2923485396,29.7450079507],[31.2712663907,29.7345489246],[31.2640086417,29.730192358],[31.2601681885,29.7295387133],[31.2799351918,29.6409913331],[31.2924415627,29.643295489],[31.3045490788,29.6470995003],[31.3145393593,29.6513662969],[31.3260466764,29.6579768615],[31.3354670017,29.662639949],[31.3467577726,29.6628489091],[31.3704735201,29.6643605969],[31.3913824705,29.6651292654],[31.4032644872,29.6675226826],[31.4226149159,29.6735066398],[31.4283300168,29.6758865385],[31.4378957649,29.6808163106],[31.4473451958,29.686365088],[31.4544311831,29.6910173652],[31.4597859615,29.6947791939],[31.4643598642,29.6987960687],[31.4696360646,29.7042247539],[31.4773733884,29.7138426909],[31.4885838803,29.7184204291],[31.5032635328,29.7266335675],[31.5143874599,29.7340533992],[31.5280942029,29.7449786024],[31.5429682108,29.7395238777],[31.5560980313,29.736911812],[31.5624277629,29.7364429138],[31.5698111481,29.7365872631],[31.5749417671,29.7370969944],[31.5810924891,29.7382141713],[31.5883624759,29.7401139015],[31.5979890901,29.7438117759],[31.6109138543,29.7509168799],[31.6172794118,29.7552866855],[31.6228530436,29.7570709986],[31.6308337914,29.7603746447],[31.6381639283,29.7644093831],[31.6427747747,29.7675603347],[31.648231949,29.7724301042],[31.6545028714,29.7797259907],[31.6592363717,29.7831433054],[31.6655526606,29.7888189941],[31.6703378358,29.7915120513],[31.6771316073,29.7962199357],[31.6832480564,29.8012909013],[31.6960997806,29.8165959999],[31.6987350776,29.820428051],[31.701009173,29.8246360502],[31.7167248343,29.8368253613],[31.7233668205,29.8428925288],[31.731621043,29.8517994161],[31.7365898254,29.8594055368],[31.7406934391,29.8679750505],[31.7428855304,29.8755235575],[31.7440455966,29.8834530046],[31.7477565461,29.9193071521],[31.74670775,29.9306550195],[31.7454531863,29.9365368926],[31.7421358266,29.9457114889],[31.7369763985,29.9557362334],[31.7624905234,30.0001888855],[31.7710596495,30.0211611542],[31.7824055119,30.026496924],[31.8195042965,30.0450820923],[31.8282174974,30.0504354228],[31.8336562256,30.0548950486],[31.8397256532,30.0614213139],[31.8447099222,30.0685481801],[31.8484911329,30.0758503249],[31.8507962704,30.0823196162],[31.8526432618,30.0912329713],[31.8565573206,30.1239935567],[31.8576784401,30.1364648343],[31.8576093149,30.1426894324],[31.8554137144,30.1590375129],[31.8533588719,30.1675248368],[31.8512062181,30.1730954095],[31.8484842852,30.1785514574],[31.8428124219,30.1868409736],[31.8364853093,30.1935916669],[31.8295538876,30.1991452928],[31.8206404291,30.2046769606],[31.813033548,30.2081774955],[31.8054518794,30.2106343836],[31.7952516479,30.2128906152],[31.7808451731,30.2149864402],[31.7701544756,30.2151608662],[31.6762309653,30.3190858691],[31.6681884748,30.3264647176],[31.6630636408,30.3299060043],[31.6555484381,30.3339783262],[31.6486640686,30.3368045043],[31.6403445931,30.3392608728],[31.6328668087,30.3405699532],[31.6271939388,30.3410418338],[31.6079311634,30.3405356288],[31.6061768439,30.3442044088],[31.6071936582,30.3505525436],[31.6074187432,30.3551015777],[31.607079147,30.3606817295],[31.6061354517,30.3661764222]]]}}
]
}
