{"type":"FeatureCollection","features":[{"type":"Feature","properties":{"source_layer":"Eklimy_Road","source_feature_count":1,"Shape_Length":126312.88597936154,"اسم_المحور":"محور الدائرى الاقليمى","اسم_المحافظة":"محافظة القاهرة","طول_المحور_كم":126.31288597936154},"geometry":{"type":"LineString","coordinates":[[31.528883,30.396464,0],[31.530904,30.394695,0],[31.532177,30.393405,0],[31.54103,30.382505,0],[31.544555,30.377934,0],[31.547413,30.373052,0],[31.553338,30.361835,0],[31.554846,30.358506,0],[31.555343,30.356136,0],[31.555413,30.35482,0],[31.55517,30.35305,0],[31.553318,30.34784,0],[31.552227,30.34421,0],[31.552158,30.340868,0],[31.552687,30.338811,0],[31.555433,30.332643,0],[31.565349,30.312153,0],[31.566507,30.310403,0],[31.568688,30.308133,0],[31.572299,30.305521,0],[31.587631,30.296695,0],[31.589693,30.295852,0],[31.592118,30.295303,0],[31.595465,30.294936,0],[31.59696,30.295201,0],[31.611703,30.295584,0],[31.617145,30.295909,0],[31.625075,30.296048,0],[31.626841,30.295777,0],[31.629104,30.295087,0],[31.631429,30.294095,0],[31.633876,30.292655,0],[31.635552,30.291078,0],[31.650862,30.274059,0],[31.666652,30.256809,0],[31.723819,30.193364,0],[31.741065,30.174454,0],[31.742842,30.172596,0],[31.744246,30.171478,0],[31.746066,30.170339,0],[31.748381,30.169151,0],[31.750348,30.168479,0],[31.75224,30.168013,0],[31.75666,30.16737,0],[31.75933,30.167597,0],[31.762121,30.168019,0],[31.764832,30.168649,0],[31.766553,30.169273,0],[31.770803,30.170105,0],[31.775177,30.170224,0],[31.7854,30.168678,0],[31.790505,30.167512,0],[31.793067,30.166532,0],[31.796433,30.164484,0],[31.798539,30.162882,0],[31.800679,30.160563,0],[31.801523,30.159403,0],[31.80277,30.156948,0],[31.803549,30.154907,0],[31.804154,30.152033,0],[31.805509,30.143127,0],[31.805755,30.140959,0],[31.805835,30.138519,0],[31.804847,30.127787,0],[31.802993,30.111919,0],[31.801117,30.096491,0],[31.800238,30.092461,0],[31.798789,30.089582,0],[31.796946,30.086989,0],[31.795454,30.085469,0],[31.79322,30.084035,0],[31.75627,30.065523,0],[31.746363,30.060945,0],[31.740595,30.057924,0],[31.73413,30.053991,0],[31.728511,30.048142,0],[31.724763,30.042761,0],[31.7152,30.018715,0],[31.704999,30.001302,0],[31.690784,29.97622,0],[31.684791,29.966552,0],[31.682659,29.958735,0],[31.683686,29.949079,0],[31.684767,29.945316,0],[31.689364,29.937992,0],[31.693865,29.929442,0],[31.695281,29.925437,0],[31.695978,29.919711,0],[31.693324,29.898274,0],[31.692548,29.888079,0],[31.691798,29.882837,0],[31.68934,29.877881,0],[31.684524,29.872768,0],[31.681192,29.869687,0],[31.678112,29.867429,0],[31.666394,29.858248,0],[31.661352,29.854112,0],[31.658879,29.851363,0],[31.656801,29.848327,0],[31.654752,29.84512,0],[31.653099,29.841746,0],[31.650334,29.838583,0],[31.644664,29.831406,0],[31.639879,29.828041,0],[31.633161,29.825763,0],[31.630386,29.823711,0],[31.6272,29.820261,0],[31.626062,29.818004,0],[31.623884,29.816139,0],[31.620561,29.814199,0],[31.617678,29.812303,0],[31.614723,29.808942,0],[31.612157,29.805681,0],[31.608627,29.801505,0],[31.605678,29.799855,0],[31.602239,29.79851,0],[31.597686,29.797607,0],[31.594143,29.796304,0],[31.590991,29.794701,0],[31.587894,29.79247,0],[31.5846,29.790537,0],[31.581659,29.78818,0],[31.575627,29.784743,0],[31.573036,29.783389,0],[31.56989,29.782315,0],[31.566534,29.781675,0],[31.563627,29.781609,0],[31.559181,29.782426,0],[31.554208,29.784226,0],[31.550111,29.786022,0],[31.546948,29.78719,0],[31.537283,29.789764,0],[31.536862,29.78978,0],[31.53283,29.791145,0],[31.529167,29.791799,0],[31.526194,29.792171,0],[31.523502,29.792338,0],[31.517901,29.791265,0],[31.510465,29.788218,0],[31.507146,29.786448,0],[31.500863,29.783481,0],[31.49705,29.781222,0],[31.493257,29.778505,0],[31.481088,29.768626,0],[31.47343,29.763541,0],[31.466688,29.759677,0],[31.463314,29.757841,0],[31.457545,29.755562,0],[31.45454,29.755045,0],[31.452318,29.754503,0],[31.449704,29.75367,0],[31.44686,29.752366,0],[31.444552,29.750764,0],[31.443628,29.750288,0],[31.44104,29.74766,0],[31.438624,29.744084,0],[31.436176,29.741254,0],[31.428448,29.731537,0],[31.425494,29.728593,0],[31.417693,29.723377,0],[31.413298,29.720731,0],[31.409959,29.718832,0],[31.403272,29.715405,0],[31.394186,29.712754,0],[31.388239,29.710752,0],[31.384258,29.709877,0],[31.368035,29.709505,0],[31.344112,29.707968,0],[31.338671,29.707727,0],[31.336069,29.707968,0],[31.332616,29.708929,0],[31.330154,29.709315,0],[31.326449,29.708858,0],[31.318969,29.705723,0],[31.315222,29.704632,0],[31.297843,29.695938,0],[31.294227,29.693601,0],[31.288703,29.690497,0],[31.283698,29.688439,0],[31.27817,29.686718,0],[31.270055,29.685337,0]]}},{"type":"Feature","properties":{"source_layer":"Eklimy_Road","source_feature_count":1,"Shape_Length":29186.419799886546,"اسم_المحور":"القطار الكهربائى","اسم_المحافظة":"محافظة القاهرة","طول_المحور_كم":29.186419799886547},"geometry":{"type":"LineString","coordinates":[[31.725691,30.172705,0],[31.749864,30.167041,0],[31.754089,30.166103,0],[31.755526,30.165889,0],[31.757295,30.165865,0],[31.759044,30.166099,0],[31.770283,30.169321,0],[31.771899,30.16963,0],[31.773651,30.169751,0],[31.7752,30.169678,0],[31.776726,30.169437,0],[31.786715,30.166979,0],[31.788581,30.16684,0],[31.793449,30.166978,0],[31.795179,30.166714,0],[31.796738,30.166238,0],[31.797928,30.165695,0],[31.799026,30.165023,0],[31.800015,30.164233,0],[31.800939,30.163266,0],[31.801884,30.161875,0],[31.804551,30.15679,0],[31.805186,30.154523,0],[31.80687,30.143525,0],[31.807034,30.141551,0],[31.805259,30.117522,0],[31.804945,30.116022,0],[31.803764,30.113327,0],[31.803404,30.111914,0],[31.803357,30.110647,0],[31.803685,30.106787,0],[31.802597,30.098182,0],[31.802067,30.095428,0],[31.800533,30.08972,0],[31.800016,30.088258,0],[31.79936,30.086937,0],[31.798261,30.085309,0],[31.796911,30.083831,0],[31.795417,30.082588,0],[31.793659,30.081481,0],[31.74442,30.057163,0],[31.741776,30.055735,0],[31.738937,30.053912,0],[31.736287,30.051887,0],[31.733843,30.049674,0],[31.731686,30.04736,0],[31.728905,30.043659,0],[31.726705,30.039774,0],[31.722948,30.030404,0],[31.722486,30.028367,0],[31.722521,30.02719,0],[31.722802,30.025946,0],[31.724368,30.022802,0],[31.724814,30.021421,0],[31.724941,30.02026,0],[31.724932,30.016381,0],[31.725143,30.015127,0],[31.725753,30.013779,0],[31.728516,30.009856,0],[31.72909,30.008805,0],[31.729478,30.00705,0],[31.729259,30.005187,0]]}},{"type":"Feature","properties":{"source_layer":"Eklimy_Road","source_feature_count":1,"Shape_Length":45286.44103908257,"اسم_المحور":"خط سكة حديد الروبيكي","اسم_المحافظة":"محافظة القاهرة","طول_المحور_كم":45.286441039082575},"geometry":{"type":"LineString","coordinates":[[31.821347,30.167942,0],[31.817393,30.168186,0],[31.816086,30.168367,0],[31.783483,30.170371,0],[31.777607,30.17126,0],[31.77429,30.171443,0],[31.771571,30.171381,0],[31.768884,30.17101,0],[31.766918,30.170533,0],[31.761351,30.168871,0],[31.759764,30.168559,0],[31.757606,30.16837,0],[31.754901,30.168502,0],[31.752781,30.1689,0],[31.750746,30.169551,0],[31.748834,30.17044,0],[31.746675,30.171862,0],[31.744831,30.173588,0],[31.737421,30.183637,0],[31.736088,30.185156,0],[31.734903,30.186205,0],[31.727601,30.191902,0],[31.719983,30.200359,0],[31.713141,30.206207,0],[31.711995,30.207322,0],[31.700106,30.220562,0],[31.696811,30.225133,0],[31.665856,30.259274,0],[31.664635,30.260924,0],[31.662797,30.263983,0],[31.661651,30.265443,0],[31.650946,30.277312,0],[31.638712,30.290421,0],[31.636616,30.292323,0],[31.63433,30.293878,0],[31.631158,30.295408,0],[31.627727,30.296437,0],[31.624867,30.296876,0],[31.621835,30.296961,0],[31.596387,30.295861,0],[31.593809,30.295996,0],[31.591786,30.296368,0],[31.589839,30.29697,0],[31.587642,30.297981,0],[31.572834,30.306187,0],[31.571226,30.307217,0],[31.569745,30.308383,0],[31.567603,30.310596,0],[31.566535,30.312062,0],[31.565643,30.313615,0],[31.554439,30.336945,0],[31.553453,30.339744,0],[31.553159,30.341371,0],[31.553065,30.343566,0],[31.553313,30.345751,0],[31.553899,30.347887,0],[31.554812,30.349935,0],[31.555701,30.351391,0],[31.559865,30.356525,0],[31.560851,30.358118,0],[31.561615,30.360417,0],[31.561758,30.361781,0],[31.561682,30.363149,0],[31.561285,30.364825,0],[31.560378,30.366721,0],[31.555174,30.373658,0],[31.554165,30.375269,0],[31.552536,30.378881,0],[31.551261,30.382636,0],[31.550411,30.384266,0],[31.54932,30.385784,0],[31.546339,30.389232,0],[31.544848,30.391553,0],[31.544184,30.393042,0],[31.543702,30.394582,0],[31.542685,30.401192,0],[31.542036,30.403512,0],[31.541317,30.405041,0],[31.536007,30.4145,0],[31.535808,30.415426,0],[31.535835,30.416367,0],[31.536087,30.417283,0],[31.53665,30.418267,0],[31.53789,30.419404,0],[31.541051,30.421065,0]]}},{"type":"Feature","properties":{"source_layer":"Robeky_Road","source_feature_count":1,"Name":"Placemark","FolderPath":"Robeky.kmz","SymbolID":0,"AltMode":-1,"Base":0,"Clamped":0,"Extruded":0,"Snippet":"","PopupInfo":"","Shape_Length":45286.44103908257},"geometry":{"type":"LineString","coordinates":[[31.821347,30.167942,0],[31.817393,30.168186,0],[31.816086,30.168367,0],[31.783483,30.170371,0],[31.777607,30.17126,0],[31.77429,30.171443,0],[31.771571,30.171381,0],[31.768884,30.17101,0],[31.766918,30.170533,0],[31.761351,30.168871,0],[31.759764,30.168559,0],[31.757606,30.16837,0],[31.754901,30.168502,0],[31.752781,30.1689,0],[31.750746,30.169551,0],[31.748834,30.17044,0],[31.746675,30.171862,0],[31.744831,30.173588,0],[31.737421,30.183637,0],[31.736088,30.185156,0],[31.734903,30.186205,0],[31.727601,30.191902,0],[31.719983,30.200359,0],[31.713141,30.206207,0],[31.711995,30.207322,0],[31.700106,30.220562,0],[31.696811,30.225133,0],[31.665856,30.259274,0],[31.664635,30.260924,0],[31.662797,30.263983,0],[31.661651,30.265443,0],[31.650946,30.277312,0],[31.638712,30.290421,0],[31.636616,30.292323,0],[31.63433,30.293878,0],[31.631158,30.295408,0],[31.627727,30.296437,0],[31.624867,30.296876,0],[31.621835,30.296961,0],[31.596387,30.295861,0],[31.593809,30.295996,0],[31.591786,30.296368,0],[31.589839,30.29697,0],[31.587642,30.297981,0],[31.572834,30.306187,0],[31.571226,30.307217,0],[31.569745,30.308383,0],[31.567603,30.310596,0],[31.566535,30.312062,0],[31.565643,30.313615,0],[31.554439,30.336945,0],[31.553453,30.339744,0],[31.553159,30.341371,0],[31.553065,30.343566,0],[31.553313,30.345751,0],[31.553899,30.347887,0],[31.554812,30.349935,0],[31.555701,30.351391,0],[31.559865,30.356525,0],[31.560851,30.358118,0],[31.561615,30.360417,0],[31.561758,30.361781,0],[31.561682,30.363149,0],[31.561285,30.364825,0],[31.560378,30.366721,0],[31.555174,30.373658,0],[31.554165,30.375269,0],[31.552536,30.378881,0],[31.551261,30.382636,0],[31.550411,30.384266,0],[31.54932,30.385784,0],[31.546339,30.389232,0],[31.544848,30.391553,0],[31.544184,30.393042,0],[31.543702,30.394582,0],[31.542685,30.401192,0],[31.542036,30.403512,0],[31.541317,30.405041,0],[31.536007,30.4145,0],[31.535808,30.415426,0],[31.535835,30.416367,0],[31.536087,30.417283,0],[31.53665,30.418267,0],[31.53789,30.419404,0],[31.541051,30.421065,0]]}},{"type":"Feature","properties":{"source_layer":"LRT_Road","source_feature_count":1,"Name":"Placemark","FolderPath":"LRT.kmz/LRT","SymbolID":0,"AltMode":-1,"Base":0,"Clamped":0,"Extruded":0,"Snippet":"","PopupInfo":"","Shape_Length":29572.848364781974},"geometry":{"type":"LineString","coordinates":[[31.722038,30.173726,0],[31.727507,30.17234,0],[31.749672,30.167194,0],[31.755419,30.166005,0],[31.757174,30.165963,0],[31.759013,30.166201,0],[31.770248,30.169421,0],[31.771874,30.169733,0],[31.773638,30.169856,0],[31.775196,30.169784,0],[31.776733,30.169544,0],[31.786716,30.167085,0],[31.788568,30.166945,0],[31.79334,30.167091,0],[31.795086,30.166844,0],[31.796664,30.166381,0],[31.797871,30.165848,0],[31.79907,30.165127,0],[31.80007,30.164335,0],[31.800945,30.163437,0],[31.801967,30.161967,0],[31.804607,30.156963,0],[31.805296,30.1546,0],[31.806981,30.143601,0],[31.807144,30.141891,0],[31.807109,30.139994,0],[31.805377,30.117493,0],[31.805058,30.115981,0],[31.803875,30.113284,0],[31.803521,30.111883,0],[31.803474,30.110718,0],[31.80381,30.106851,0],[31.802714,30.098151,0],[31.802182,30.095391,0],[31.800646,30.089681,0],[31.800126,30.088213,0],[31.799466,30.086885,0],[31.79836,30.085249,0],[31.797004,30.083763,0],[31.795503,30.082513,0],[31.793736,30.081399,0],[31.744496,30.05708,0],[31.741856,30.055655,0],[31.739022,30.053837,0],[31.736376,30.051816,0],[31.733937,30.049607,0],[31.731784,30.047298,0],[31.729008,30.043604,0],[31.726812,30.039726,0],[31.723059,30.030361,0],[31.722606,30.02834,0],[31.722657,30.027086,0],[31.722929,30.025944,0],[31.724495,30.022806,0],[31.724939,30.021411,0],[31.725062,30.020239,0],[31.725053,30.016361,0],[31.725244,30.015209,0],[31.725832,30.013873,0],[31.728644,30.009874,0],[31.729217,30.008807,0],[31.7296,30.00703,0],[31.729378,30.005169,0]]}},{"type":"Feature","properties":{"source_layer":"LRT_Road","source_feature_count":1,"Name":"Placemark","FolderPath":"LRT.kmz/LRT","SymbolID":0,"AltMode":-1,"Base":0,"Clamped":0,"Extruded":0,"Snippet":"","PopupInfo":"","Shape_Length":29186.419799886546},"geometry":{"type":"LineString","coordinates":[[31.725691,30.172705,0],[31.749864,30.167041,0],[31.754089,30.166103,0],[31.755526,30.165889,0],[31.757295,30.165865,0],[31.759044,30.166099,0],[31.770283,30.169321,0],[31.771899,30.16963,0],[31.773651,30.169751,0],[31.7752,30.169678,0],[31.776726,30.169437,0],[31.786715,30.166979,0],[31.788581,30.16684,0],[31.793449,30.166978,0],[31.795179,30.166714,0],[31.796738,30.166238,0],[31.797928,30.165695,0],[31.799026,30.165023,0],[31.800015,30.164233,0],[31.800939,30.163266,0],[31.801884,30.161875,0],[31.804551,30.15679,0],[31.805186,30.154523,0],[31.80687,30.143525,0],[31.807034,30.141551,0],[31.805259,30.117522,0],[31.804945,30.116022,0],[31.803764,30.113327,0],[31.803404,30.111914,0],[31.803357,30.110647,0],[31.803685,30.106787,0],[31.802597,30.098182,0],[31.802067,30.095428,0],[31.800533,30.08972,0],[31.800016,30.088258,0],[31.79936,30.086937,0],[31.798261,30.085309,0],[31.796911,30.083831,0],[31.795417,30.082588,0],[31.793659,30.081481,0],[31.74442,30.057163,0],[31.741776,30.055735,0],[31.738937,30.053912,0],[31.736287,30.051887,0],[31.733843,30.049674,0],[31.731686,30.04736,0],[31.728905,30.043659,0],[31.726705,30.039774,0],[31.722948,30.030404,0],[31.722486,30.028367,0],[31.722521,30.02719,0],[31.722802,30.025946,0],[31.724368,30.022802,0],[31.724814,30.021421,0],[31.724941,30.02026,0],[31.724932,30.016381,0],[31.725143,30.015127,0],[31.725753,30.013779,0],[31.728516,30.009856,0],[31.72909,30.008805,0],[31.729478,30.00705,0],[31.729259,30.005187,0]]}}]}