{"type":"FeatureCollection","features":[{"type":"Feature","properties":{"source_layer":"Water_Containment","source_feature_count":1,"TYPE":0,"Governorate_ID":null,"A_GOV":null,"SHAPE_Length":13358.363299407216,"SHAPE_Area":2897283.8576754555},"geometry":{"type":"Polygon","coordinates":[[[31.287242,29.689896],[31.296819,29.677479],[31.297527,29.676766],[31.298182,29.676015],[31.298781,29.675229],[31.299321,29.674412],[31.299801,29.673566],[31.300219,29.672696],[31.300573,29.671804],[31.300861,29.670894],[31.301082,29.66997],[31.301641,29.665244],[31.301683,29.664281],[31.301653,29.663317],[31.301551,29.662358],[31.301377,29.661406],[31.301133,29.660466],[31.300818,29.659543],[31.300435,29.658639],[31.299985,29.657759],[31.29947,29.656906],[31.298892,29.656085],[31.298254,29.655299],[31.297558,29.654551],[31.296808,29.653845],[31.279934,29.641063],[31.279126,29.644686],[31.291864,29.660083],[31.292603,29.661233],[31.293473,29.661967],[31.29453,29.662481],[31.295091,29.663019],[31.295606,29.66359],[31.296073,29.664192],[31.29649,29.664822],[31.296855,29.665476],[31.297165,29.666151],[31.297419,29.666844],[31.297615,29.66755],[31.297754,29.668268],[31.297833,29.668992],[31.297853,29.669719],[31.297814,29.670445],[31.297715,29.671168],[31.297323,29.672489],[31.296322,29.674372],[31.295452,29.675531],[31.293873,29.677083],[31.284918,29.687078],[31.284164,29.687471],[31.28395,29.687839],[31.283914,29.688259],[31.284014,29.688569],[31.287242,29.689896]]]}},{"type":"Feature","properties":{"source_layer":"Water_Containment","source_feature_count":1,"TYPE":0,"Governorate_ID":null,"A_GOV":null,"SHAPE_Length":11620.048178278224,"SHAPE_Area":1559687.7129412887},"geometry":{"type":"Polygon","coordinates":[[[31.267144,29.724435],[31.266561,29.722971],[31.266647,29.721038],[31.265715,29.717809],[31.265755,29.717463],[31.265823,29.71712],[31.265919,29.716782],[31.266042,29.716451],[31.266191,29.716128],[31.266367,29.715815],[31.266567,29.715514],[31.266791,29.715226],[31.267037,29.714952],[31.267306,29.714695],[31.267594,29.714454],[31.267901,29.714232],[31.268226,29.714029],[31.268565,29.713847],[31.268919,29.713687],[31.269285,29.713548],[31.269662,29.713433],[31.275787,29.70962],[31.277458,29.707148],[31.277835,29.707129],[31.287242,29.689896],[31.284014,29.688569],[31.284126,29.689443],[31.278325,29.696562],[31.276265,29.704429],[31.276075,29.704972],[31.275843,29.705502],[31.27557,29.706017],[31.275259,29.706515],[31.274909,29.706994],[31.274524,29.707451],[31.274104,29.707884],[31.273652,29.708292],[31.273169,29.708672],[31.272659,29.709023],[31.272122,29.709343],[31.271562,29.709631],[31.27098,29.709885],[31.270381,29.710105],[31.269766,29.710289],[31.264266,29.71523],[31.263824,29.726612],[31.262864,29.730069],[31.264007,29.730264],[31.2671,29.732193],[31.267144,29.724435]]]}},{"type":"Feature","properties":{"source_layer":"Water_Containment","source_feature_count":1,"TYPE":0,"Governorate_ID":null,"A_GOV":null,"SHAPE_Length":4147.799903399924,"SHAPE_Area":423820.49416759174},"geometry":{"type":"Polygon","coordinates":[[[31.359891,29.741468],[31.359895,29.741328],[31.35991,29.741188],[31.359935,29.74105],[31.359972,29.740913],[31.360018,29.740779],[31.360075,29.740648],[31.360142,29.740521],[31.360219,29.740398],[31.360305,29.74028],[31.3604,29.740167],[31.360503,29.74006],[31.360615,29.739959],[31.360734,29.739865],[31.36086,29.739778],[31.360993,29.739699],[31.361131,29.739628],[31.361274,29.739565],[31.361422,29.739511],[31.361574,29.739466],[31.361478,29.739293],[31.361395,29.739116],[31.361326,29.738933],[31.361272,29.738748],[31.361231,29.738559],[31.361206,29.738369],[31.361195,29.738177],[31.361199,29.737985],[31.361217,29.737794],[31.36125,29.737605],[31.361298,29.737418],[31.36136,29.737234],[31.361436,29.737054],[31.361526,29.736879],[31.361629,29.736709],[31.361745,29.736546],[31.361873,29.73639],[31.361229,29.735994],[31.360208,29.733624],[31.360558,29.733121],[31.361259,29.734145],[31.36246,29.729713],[31.361118,29.728145],[31.360982,29.728182],[31.360844,29.728212],[31.360705,29.728234],[31.360563,29.728248],[31.360422,29.728254],[31.36028,29.728252],[31.360138,29.728242],[31.359997,29.728224],[31.359858,29.728198],[31.359722,29.728164],[31.359588,29.728123],[31.359457,29.728075],[31.35933,29.728019],[31.359208,29.727956],[31.35909,29.727886],[31.358978,29.72781],[31.358872,29.727728],[31.358772,29.72764],[31.358679,29.727546],[31.358326,29.728199],[31.359142,29.728507],[31.358894,29.73113],[31.35955,29.732869],[31.35914,29.732804],[31.358906,29.734592],[31.35908,29.73511],[31.358965,29.735572],[31.35856,29.73598],[31.357543,29.736409],[31.357052,29.737048],[31.356977,29.737529],[31.357139,29.738091],[31.357052,29.739284],[31.357703,29.74018],[31.357843,29.741084],[31.358881,29.741523],[31.359891,29.741468]]]}},{"type":"Feature","properties":{"source_layer":"Water_Containment","source_feature_count":1,"TYPE":0,"Governorate_ID":null,"A_GOV":null,"SHAPE_Length":1617.423963753322,"SHAPE_Area":77838.09218989703},"geometry":{"type":"Polygon","coordinates":[[[31.385904,29.698685],[31.386129,29.697985],[31.386644,29.697937],[31.386814,29.697783],[31.386737,29.697551],[31.386313,29.697543],[31.386267,29.697381],[31.387659,29.696686],[31.387978,29.696246],[31.387833,29.696072],[31.388316,29.695634],[31.38743,29.694563],[31.386528,29.695569],[31.384801,29.696881],[31.384268,29.698094],[31.38425,29.698437],[31.384446,29.698796],[31.384852,29.698844],[31.385128,29.698016],[31.385406,29.698034],[31.385253,29.698404],[31.385523,29.698952],[31.385904,29.698685]]]}},{"type":"Feature","properties":{"source_layer":"Water_Containment","source_feature_count":1,"TYPE":0,"Governorate_ID":null,"A_GOV":null,"SHAPE_Length":1903.6154505592244,"SHAPE_Area":143635.00116750962},"geometry":{"type":"Polygon","coordinates":[[[31.389147,29.69126],[31.388258,29.691448],[31.387545,29.692091],[31.387136,29.693886],[31.38751,29.694159],[31.387639,29.694207],[31.388366,29.693901],[31.38898,29.694015],[31.390264,29.693243],[31.390318,29.692384],[31.393643,29.690203],[31.393883,29.689776],[31.393813,29.689356],[31.393333,29.688959],[31.392673,29.688969],[31.390696,29.690478],[31.389147,29.69126]]]}},{"type":"Feature","properties":{"source_layer":"Water_Containment","source_feature_count":1,"TYPE":0,"Governorate_ID":null,"A_GOV":null,"SHAPE_Length":4178.614582714542,"SHAPE_Area":311109.29846970935},"geometry":{"type":"Polygon","coordinates":[[[31.350579,29.706163],[31.350444,29.706066],[31.350604,29.705704],[31.351496,29.705922],[31.351918,29.705857],[31.351879,29.70541],[31.352401,29.705375],[31.352788,29.705216],[31.352556,29.704798],[31.352916,29.704787],[31.353311,29.704476],[31.353549,29.704825],[31.354256,29.705177],[31.354712,29.705778],[31.355035,29.705909],[31.355388,29.705877],[31.355626,29.706211],[31.355909,29.706218],[31.356344,29.705989],[31.356745,29.706051],[31.357192,29.705949],[31.357359,29.70608],[31.357584,29.70592],[31.357559,29.705603],[31.357825,29.7056],[31.357965,29.705417],[31.358121,29.705497],[31.358841,29.705368],[31.359207,29.705164],[31.359396,29.704886],[31.35932,29.704467],[31.358661,29.70422],[31.358421,29.704295],[31.357488,29.70373],[31.357271,29.703855],[31.357379,29.70413],[31.357145,29.704142],[31.356996,29.703638],[31.356564,29.703317],[31.356269,29.703339],[31.355742,29.70299],[31.355248,29.703091],[31.354899,29.702275],[31.354686,29.702297],[31.354635,29.702964],[31.354166,29.702727],[31.353756,29.702784],[31.353611,29.702433],[31.353311,29.702375],[31.352725,29.70269],[31.352724,29.703138],[31.352645,29.702976],[31.352263,29.702811],[31.35217,29.702361],[31.352025,29.702419],[31.351857,29.702244],[31.351326,29.702451],[31.351129,29.702885],[31.350942,29.702602],[31.350838,29.702684],[31.350672,29.702384],[31.350191,29.702121],[31.349752,29.702182],[31.349522,29.702053],[31.348999,29.702145],[31.348723,29.702346],[31.348685,29.702685],[31.348185,29.702923],[31.348043,29.703137],[31.348085,29.703382],[31.348574,29.70398],[31.348452,29.704878],[31.348986,29.704841],[31.349357,29.704671],[31.350022,29.704783],[31.350728,29.704742],[31.349891,29.70501],[31.349568,29.705434],[31.349505,29.705125],[31.349295,29.705216],[31.34915,29.705061],[31.348904,29.705228],[31.348736,29.705148],[31.348529,29.705428],[31.348726,29.705641],[31.348614,29.70589],[31.348678,29.706185],[31.348979,29.706116],[31.34986,29.7063],[31.350579,29.706163]]]}},{"type":"Feature","properties":{"source_layer":"Water_Containment","source_feature_count":1,"TYPE":0,"Governorate_ID":null,"A_GOV":null,"SHAPE_Length":14302.436504164676,"SHAPE_Area":693979.2569656831},"geometry":{"type":"Polygon","coordinates":[[[31.546772,30.394909],[31.514534,30.384143],[31.516487,30.385821],[31.533554,30.39171],[31.546026,30.395515],[31.548332,30.396468],[31.549789,30.397234],[31.550863,30.397893],[31.561974,30.407258],[31.575726,30.418135],[31.576197,30.417555],[31.556586,30.401567],[31.550393,30.396742],[31.548401,30.395614],[31.546772,30.394909]]]}}]}