{
"type": "FeatureCollection",
"name": "Axis_Road_Sector",
"crs": { "type": "name", "properties": { "name": "urn:ogc:def:crs:OGC:1.3:CRS84" } },
"xy_coordinate_resolution": 1e-06,
"features": [
{"type":"Feature","properties":{"GlobalID":"{F0EC82D3-658A-4687-89F9-9411BEA09CD5}","اسم_المحور":"2","طول_المحور_كم":135198.0716348569,"اسم_القطاع":"10","Shape_Length":135198.07156299002},"geometry":{"type":"MultiLineString","coordinates":[[[31.401571,30.142469],[31.415086,30.146304],[31.424825,30.149003],[31.448992,30.155775],[31.479686,30.16403],[31.484802,30.165376],[31.499558,30.167341],[31.523379,30.170327],[31.551559,30.173943],[31.560658,30.174915],[31.568476,30.175941],[31.579135,30.177182],[31.585167,30.177855],[31.588765,30.178185],[31.606022,30.18157],[31.614925,30.183267],[31.644721,30.189454],[31.645814,30.189996],[31.647722,30.19101],[31.661534,30.200522],[31.679476,30.212972],[31.691686,30.221199],[31.692979,30.222071],[31.70009,30.226944],[31.714462,30.23704],[31.717685,30.239189],[31.736079,30.251726],[31.776866,30.279657],[31.745812,30.258421],[31.761811,30.269438],[31.779313,30.281368],[31.780611,30.282318],[31.781964,30.283187],[31.80171,30.296563],[31.806519,30.3001],[31.810695,30.30282],[31.813248,30.30466],[31.81623,30.306597],[31.824983,30.312696],[31.830136,30.316323],[31.834603,30.31941],[31.840313,30.323237],[31.864541,30.339743],[31.867693,30.341988],[31.869928,30.343322],[31.871751,30.344268],[31.874617,30.345708],[31.881669,30.349077],[31.888936,30.352675],[31.898334,30.357393],[31.905828,30.361219],[31.909322,30.362813],[31.913486,30.364824],[31.9153,30.365757],[31.917316,30.366682],[31.918474,30.367247],[31.91932,30.367632],[31.929091,30.37254],[31.93407,30.37495],[31.939255,30.377506],[31.950488,30.38306],[31.983001,30.399323],[31.993765,30.404435],[32.005263,30.410059],[32.029147,30.421977],[32.040766,30.427904],[32.047293,30.431405],[32.050717,30.435884],[32.056405,30.446744],[32.059749,30.453252],[32.06126,30.45577],[32.062262,30.457304],[32.065193,30.459717],[32.069992,30.463083],[32.076084,30.467589],[32.081956,30.471645],[32.09154,30.478557],[32.095737,30.48136],[32.099291,30.483847],[32.102935,30.486572],[32.106953,30.489463],[32.122507,30.500532],[32.133461,30.508443],[32.144779,30.516585],[32.15343,30.522728],[32.160803,30.527892],[32.169222,30.534027],[32.172865,30.536898],[32.174097,30.537752],[32.17487,30.539237],[32.175093,30.540798],[32.175403,30.542509],[32.175908,30.543325],[32.177264,30.544411],[32.17929,30.545709],[32.183762,30.548592],[32.189046,30.552224],[32.19332,30.55524],[32.195138,30.556828],[32.196016,30.55921],[32.196005,30.560977],[32.195841,30.562604],[32.195682,30.564993],[32.195379,30.570647],[32.196028,30.577423],[32.197588,30.584042],[32.199103,30.58883],[32.200462,30.593845],[32.200955,30.594727],[32.201913,30.595716],[32.206354,30.599726],[32.211476,30.6045],[32.21879,30.610951],[32.223491,30.614863],[32.225405,30.616037],[32.229912,30.617767],[32.230253,30.617873],[32.230598,30.61797],[32.230947,30.618057],[32.231299,30.618134],[32.231653,30.618201],[32.23201,30.618258],[32.232368,30.618306],[32.246098,30.620179]],[[32.006973,30.410858],[32.010771,30.404877],[32.01555,30.397439],[32.016477,30.396269],[32.017285,30.39536],[32.018468,30.394387],[32.019698,30.393603],[32.022139,30.392295],[32.023649,30.39177],[32.025396,30.391338],[32.028993,30.391088],[32.040413,30.390408],[32.067384,30.388766],[32.080828,30.387916],[32.081639,30.387962],[32.089624,30.388701],[32.124171,30.392121],[32.159983,30.395592],[32.20112,30.400191],[32.240786,30.404628],[32.269146,30.407933]]]}}
]
}
