{
"type": "FeatureCollection",
"name": "LRT_Line",
"crs": { "type": "name", "properties": { "name": "urn:ogc:def:crs:OGC:1.3:CRS84" } },
"xy_coordinate_resolution": 1e-06,
"features": [
{"type":"Feature","properties":{"Shape_Length":84859.557818205038},"geometry":{"type":"MultiLineString","coordinates":[[[31.696658,29.891102],[31.696662,29.891099]],[[31.696658,29.891102],[31.696653,29.891106],[31.696598,29.891152],[31.696658,29.891102]],[[31.696658,29.891102],[31.69581,29.891965],[31.695201,29.892936]],[[31.695201,29.892936],[31.695186,29.892968],[31.695207,29.892925],[31.695201,29.892936]],[[31.695201,29.892936],[31.694911,29.893688],[31.694746,29.89451]],[[31.694746,29.89451],[31.694743,29.89453],[31.694749,29.894483],[31.694746,29.89451]],[[31.694746,29.89451],[31.69476,29.8976],[31.695019,29.899094],[31.695429,29.900158],[31.701082,29.912599],[31.701459,29.913854],[31.701695,29.915143],[31.701789,29.916524],[31.70173,29.917833],[31.701445,29.919487],[31.700242,29.923944],[31.699578,29.925855],[31.69873,29.927771],[31.69746,29.93004],[31.689006,29.943169],[31.687735,29.945687],[31.687139,29.947446],[31.686636,29.950162],[31.686614,29.952912],[31.687479,29.961215],[31.687647,29.962104],[31.688009,29.963217],[31.68885,29.964787],[31.690021,29.966188],[31.691477,29.967369],[31.692581,29.968011],[31.693771,29.968525],[31.695026,29.968903],[31.70094,29.969747],[31.702601,29.970117],[31.704061,29.970627],[31.706083,29.971681],[31.707321,29.972579],[31.719441,29.982288],[31.721038,29.983915],[31.722334,29.985394],[31.724169,29.98793],[31.724964,29.989261],[31.726292,29.992026],[31.727941,29.996838],[31.728619,29.998177],[31.729808,29.999577],[31.732154,30.001523],[31.732842,30.00251],[31.733135,30.003574],[31.733053,30.004665],[31.732602,30.005685],[31.732116,30.006281],[31.731361,30.006878],[31.7295,30.007985],[31.72653,30.009263],[31.725674,30.009991],[31.725136,30.010921],[31.724971,30.011862],[31.725026,30.019969],[31.724932,30.021231],[31.724454,30.022803],[31.722929,30.025823],[31.722666,30.026788],[31.722558,30.027775],[31.722606,30.028766],[31.722931,30.030122],[31.72654,30.039241],[31.728328,30.042596],[31.729367,30.04421],[31.731725,30.047287],[31.734432,30.050138],[31.737461,30.052733],[31.740779,30.055044],[31.742536,30.056086],[31.793626,30.081381],[31.79566,30.082675],[31.797428,30.084237],[31.798884,30.086027],[31.799661,30.087323],[31.800576,30.089582],[31.802415,30.096627],[31.803763,30.106736],[31.803754,30.10779],[31.803433,30.110748],[31.80351,30.112076],[31.803861,30.113356],[31.804956,30.115812],[31.805301,30.11719],[31.807117,30.141364],[31.806932,30.143656],[31.805282,30.154434],[31.804985,30.155801],[31.804333,30.157459],[31.801892,30.162019],[31.801018,30.16329],[31.800179,30.164185],[31.799217,30.164979],[31.798146,30.16566],[31.796374,30.166447],[31.795111,30.166803],[31.793145,30.167068],[31.788651,30.166911],[31.786991,30.167011],[31.785536,30.167291],[31.776899,30.169472],[31.774583,30.169798],[31.772435,30.169761],[31.770327,30.169405],[31.760017,30.166418],[31.758646,30.166094],[31.757296,30.165935],[31.755255,30.165987],[31.749961,30.167092],[31.727727,30.172252],[31.721518,30.173867],[31.707018,30.177202],[31.667071,30.182153],[31.65634,30.183822],[31.654333,30.183971],[31.64686,30.184104],[31.639576,30.18366],[31.623887,30.181783],[31.56082,30.173873],[31.557038,30.17349],[31.548648,30.172439],[31.544942,30.171892],[31.493093,30.165318],[31.485684,30.163938],[31.48346,30.163426],[31.472427,30.160492],[31.460228,30.157041],[31.456989,30.156233],[31.429033,30.148497],[31.418002,30.145547]],[[31.78289,29.911526],[31.78292,29.905491],[31.782764,29.90436],[31.782385,29.903462],[31.781791,29.902629],[31.781284,29.902231],[31.780461,29.901784],[31.779117,29.901349],[31.777785,29.901204],[31.770824,29.901719],[31.766873,29.901786],[31.764216,29.901691],[31.762231,29.90151],[31.759601,29.901126],[31.755498,29.900195],[31.752465,29.899205],[31.748916,29.897769],[31.737098,29.892178],[31.725863,29.887044],[31.720591,29.884359],[31.719135,29.884225],[31.718191,29.884401],[31.706824,29.887458],[31.698623,29.890005],[31.697586,29.89047],[31.696658,29.891102]]]}},
{"type":"Feature","properties":{"Shape_Length":24657.841052318021},"geometry":{"type":"LineString","coordinates":[[31.785347,30.307563],[31.766366,30.308626],[31.764375,30.308613],[31.762388,30.308423],[31.759871,30.307924],[31.72664,30.299686],[31.724618,30.299099],[31.722573,30.298288],[31.720566,30.297248],[31.707346,30.288986],[31.70275,30.285846],[31.70151,30.285182],[31.699013,30.284102],[31.697975,30.283508],[31.6879,30.276639],[31.686421,30.275207],[31.685209,30.273429],[31.684731,30.272412],[31.68434,30.271259],[31.684088,30.270068],[31.683979,30.268913],[31.684547,30.248529],[31.684471,30.247281],[31.683814,30.24254],[31.683749,30.241489],[31.683953,30.239972],[31.684525,30.2385],[31.685506,30.237116],[31.687476,30.235073],[31.69639,30.225197],[31.699775,30.220655],[31.706678,30.212862],[31.712412,30.206567],[31.717971,30.201829],[31.719147,30.200687],[31.730971,30.187307],[31.731506,30.186535],[31.731855,30.185687],[31.731997,30.184886],[31.731959,30.183986],[31.731716,30.183111],[31.73133,30.182373],[31.730591,30.181505],[31.728594,30.179928],[31.728042,30.17939],[31.727456,30.17854],[31.726737,30.176849],[31.726356,30.176208],[31.725651,30.17543],[31.724768,30.174804],[31.723254,30.174226],[31.722333,30.174094],[31.721503,30.174098],[31.720584,30.174237],[31.715468,30.175422],[31.713686,30.175684]]}}
]
}
