{
"type": "FeatureCollection",
"name": "Metro_Station",
"crs": { "type": "name", "properties": { "name": "urn:ogc:def:crs:OGC:1.3:CRS84" } },
"xy_coordinate_resolution": 1e-06,
"features": [
{"type":"Feature","properties":{"اسم_المحطة":"كلية البنات"},"geometry":{"type":"Point","coordinates":[31.328868,30.083856]}},
{"type":"Feature","properties":{"اسم_المحطة":"أرض المعارض"},"geometry":{"type":"Point","coordinates":[31.301148,30.073329]}},
{"type":"Feature","properties":{"اسم_المحطة":"العباسية"},"geometry":{"type":"Point","coordinates":[31.284099,30.072779]}},
{"type":"Feature","properties":{"اسم_المحطة":"عبده باشا"},"geometry":{"type":"Point","coordinates":[31.275248,30.064895]}},
{"type":"Feature","properties":{"اسم_المحطة":"الجيش"},"geometry":{"type":"Point","coordinates":[31.267963,30.062269]}},
{"type":"Feature","properties":{"اسم_المحطة":"باب الشعرية"},"geometry":{"type":"Point","coordinates":[31.255989,30.054293]}},
{"type":"Feature","properties":{"اسم_المحطة":"الاهرام"},"geometry":{"type":"Point","coordinates":[31.326525,30.091336]}},
{"type":"Feature","properties":{"اسم_المحطة":"الإستاد"},"geometry":{"type":"Point","coordinates":[31.317409,30.07293]}},
{"type":"Feature","properties":{"اسم_المحطة":"جمال عبد ناصر"},"geometry":{"type":"Point","coordinates":[31.240401,30.052986]}},
{"type":"Feature","properties":{"اسم_المحطة":"صفاء حجازي"},"geometry":{"type":"Point","coordinates":[31.221898,30.062739]}},
{"type":"Feature","properties":{"اسم_المحطة":"ماسبيرو"},"geometry":{"type":"Point","coordinates":[31.232197,30.055532]}},
{"type":"Feature","properties":{"اسم_المحطة":"الكيت كات"},"geometry":{"type":"Point","coordinates":[31.209425,30.068217]}},
{"type":"Feature","properties":{"اسم_المحطة":"وادى النيل"},"geometry":{"type":"Point","coordinates":[31.201031,30.058407]}},
{"type":"Feature","properties":{"اسم_المحطة":"جامعة الدول العربية"},"geometry":{"type":"Point","coordinates":[31.198659,30.049764]}},
{"type":"Feature","properties":{"اسم_المحطة":"بولاق الدكرور"},"geometry":{"type":"Point","coordinates":[31.195284,30.037828]}},
{"type":"Feature","properties":{"اسم_المحطة":"امبابة"},"geometry":{"type":"Point","coordinates":[31.207507,30.075879]}},
{"type":"Feature","properties":{"اسم_المحطة":"السودان"},"geometry":{"type":"Point","coordinates":[31.204723,30.070026]}},
{"type":"Feature","properties":{"اسم_المحطة":"البوهى"},"geometry":{"type":"Point","coordinates":[31.210538,30.082152]}},
{"type":"Feature","properties":{"اسم_المحطة":"القومية العربية"},"geometry":{"type":"Point","coordinates":[31.208954,30.093187]}},
{"type":"Feature","properties":{"اسم_المحطة":"الدائرى"},"geometry":{"type":"Point","coordinates":[31.199543,30.096366]}},
{"type":"Feature","properties":{"اسم_المحطة":"محور روض الفرج"},"geometry":{"type":"Point","coordinates":[31.184183,30.101999]}},
{"type":"Feature","properties":{"اسم_المحطة":"العتبة"},"geometry":{"type":"Point","coordinates":[31.248706,30.053005]}},
{"type":"Feature","properties":{"اسم_المحطة":"جامعة القاهرة"},"geometry":{"type":"Point","coordinates":[31.201417,30.024803]}},
{"type":"Feature","properties":{"اسم_المحطة":"التوفيقية"},"geometry":{"type":"Point","coordinates":[31.202032,30.064993]}},
{"type":"Feature","properties":{"اسم_المحطة":"الالف مسكن"},"geometry":{"type":"Point","coordinates":[31.339902,30.118098]}},
{"type":"Feature","properties":{"اسم_المحطة":"نادى الشمس"},"geometry":{"type":"Point","coordinates":[31.348753,30.125443]}},
{"type":"Feature","properties":{"اسم_المحطة":"هارون"},"geometry":{"type":"Point","coordinates":[31.333772,30.102002]}},
{"type":"Feature","properties":{"اسم_المحطة":"هليوبوليس"},"geometry":{"type":"Point","coordinates":[31.338261,30.108317]}},
{"type":"Feature","properties":{"اسم_المحطة":"النزهة"},"geometry":{"type":"Point","coordinates":[31.3605,30.128107]}},
{"type":"Feature","properties":{"اسم_المحطة":"هشام بركات"},"geometry":{"type":"Point","coordinates":[31.373029,30.130935]}},
{"type":"Feature","properties":{"اسم_المحطة":"قباء"},"geometry":{"type":"Point","coordinates":[31.383993,30.134742]}},
{"type":"Feature","properties":{"اسم_المحطة":"عمر بن الخطاب"},"geometry":{"type":"Point","coordinates":[31.394446,30.140406]}},
{"type":"Feature","properties":{"اسم_المحطة":"الهايكستب"},"geometry":{"type":"Point","coordinates":[31.404803,30.143865]}},
{"type":"Feature","properties":{"اسم_المحطة":"عدلي منصور"},"geometry":{"type":"Point","coordinates":[31.42152,30.146957]}}
]
}
