{
"type": "FeatureCollection",
"name": "Metro_Line",
"crs": { "type": "name", "properties": { "name": "urn:ogc:def:crs:OGC:1.3:CRS84" } },
"xy_coordinate_resolution": 1e-06,
"features": [
{"type":"Feature","properties":{"Shape_Length":34664.358357935911},"geometry":{"type":"LineString","coordinates":[[31.427161,30.146416],[31.426766,30.146883],[31.42608,30.147107],[31.418206,30.146786],[31.417169,30.146638],[31.414447,30.14594],[31.411875,30.145802],[31.410564,30.145556],[31.401713,30.142948],[31.399018,30.141658],[31.391755,30.139635],[31.390836,30.139222],[31.390165,30.138799],[31.386697,30.135983],[31.385518,30.135292],[31.368117,30.129229],[31.365954,30.128769],[31.362516,30.128472],[31.35361,30.126807],[31.351514,30.12653],[31.350457,30.126286],[31.34961,30.125925],[31.346097,30.123893],[31.342908,30.121612],[31.340507,30.119574],[31.340087,30.11866],[31.339707,30.117261],[31.338658,30.111124],[31.338012,30.106562],[31.337699,30.10567],[31.337166,30.105013],[31.332558,30.100924],[31.326391,30.094722],[31.325876,30.093987],[31.325671,30.093113],[31.325876,30.09223],[31.329175,30.088038],[31.329622,30.08714],[31.329775,30.086228],[31.329696,30.085362],[31.329434,30.084734],[31.327048,30.080702],[31.326693,30.079187],[31.326379,30.078394],[31.325957,30.077792],[31.325344,30.077209],[31.315578,30.071951],[31.31444,30.071611],[31.313393,30.0715],[31.312532,30.071552],[31.311529,30.071765],[31.306511,30.07354],[31.30549,30.073872],[31.304579,30.074048],[31.303092,30.073932],[31.299381,30.072757],[31.298519,30.072699],[31.297638,30.072814],[31.296803,30.073103],[31.296157,30.073476],[31.293221,30.075997],[31.292148,30.076698],[31.291456,30.076967],[31.290349,30.077181],[31.28952,30.077191],[31.288361,30.076976],[31.287202,30.076463],[31.286379,30.075844],[31.285866,30.07521],[31.284971,30.073737],[31.282896,30.071461],[31.276724,30.065413],[31.26823,30.062465],[31.26424,30.060518],[31.263199,30.059845],[31.259357,30.056578],[31.256028,30.054307],[31.249955,30.053129],[31.248662,30.053078],[31.24732,30.053497],[31.246467,30.053588],[31.24582,30.053508],[31.243022,30.052681],[31.241566,30.052743],[31.237566,30.053987],[31.229511,30.056833],[31.229095,30.057087],[31.228817,30.057416],[31.228185,30.059035],[31.227749,30.059747],[31.227175,30.060352],[31.226487,30.060824],[31.222309,30.062543],[31.214953,30.066069],[31.203948,30.070325],[31.203171,30.070779],[31.202688,30.071366],[31.202502,30.071992],[31.202587,30.072748],[31.202978,30.073393],[31.203664,30.073901],[31.20822,30.076259],[31.208694,30.076638],[31.20896,30.077065],[31.213062,30.090044],[31.213146,30.090879],[31.212929,30.091505],[31.212522,30.091973],[31.211676,30.092398],[31.209842,30.092931],[31.198106,30.096907],[31.194328,30.098098],[31.1931,30.09823],[31.18607,30.098005],[31.185056,30.098216],[31.184359,30.098801],[31.184096,30.099309],[31.184004,30.099758],[31.184474,30.105168]]}},
{"type":"Feature","properties":{"Shape_Length":6083.470389581028},"geometry":{"type":"LineString","coordinates":[[31.208589,30.068541],[31.207766,30.068777],[31.20699,30.068819],[31.206223,30.06869],[31.205367,30.068321],[31.204637,30.067741],[31.201623,30.064596],[31.201197,30.064004],[31.200747,30.062962],[31.200598,30.061837],[31.201558,30.054405],[31.20154,30.053842],[31.201406,30.053319],[31.200931,30.052506],[31.197047,30.048226],[31.193693,30.044223],[31.193339,30.043627],[31.193149,30.042961],[31.193134,30.042269],[31.193349,30.041466],[31.194667,30.039141],[31.197446,30.033006],[31.199014,30.03],[31.200089,30.028382],[31.200574,30.027431],[31.202371,30.021811]]}}
]
}
