{"type":"FeatureCollection","features":[{"type":"Feature","properties":{"اسم_الطريق":"الطريق الدائري الأوسطي","name_en":"Middle Ring Road","source":"OpenStreetMap","osm_way_count":107,"visible_part_count":17},"geometry":{"type":"MultiLineString","coordinates":[[[31.586381641373436,30.102838175394975],[31.5863023,30.1031492]],[[31.5860966,30.1031123],[31.58617313895598,30.102796728991674]],[[31.5908494,30.1758916],[31.5909368,30.175497],[31.5920229,30.1705933],[31.5920826,30.1703283],[31.5921377,30.1700625],[31.5921884,30.169796],[31.5922346,30.169529],[31.5922762,30.1692613],[31.5923134,30.1689932],[31.592346,30.1687247],[31.592374,30.1684557],[31.5923976,30.1681865],[31.5924166,30.1679169],[31.592431,30.1676472],[31.5924409,30.1673773],[31.5924474,30.1671073],[31.5924513,30.1668791],[31.5924526,30.1666509],[31.5924512,30.1664227],[31.5924471,30.1661945],[31.5924404,30.1659664],[31.5924311,30.1657383],[31.5924191,30.1655104],[31.5924044,30.1652825],[31.5923871,30.1650548],[31.5923672,30.1648272],[31.5923446,30.1645998],[31.5923194,30.1643727],[31.5922915,30.1641457],[31.592261,30.1639191],[31.5922279,30.1636927],[31.5921922,30.1634665],[31.5921538,30.1632408],[31.5921128,30.1630208],[31.5920764,30.1628308],[31.592038,30.162641],[31.5919977,30.1624516],[31.5919556,30.1622625],[31.5919116,30.1620737],[31.5918657,30.1618852],[31.5918179,30.1616971],[31.5917682,30.1615094],[31.5917167,30.161322],[31.5916659,30.161135],[31.5916105,30.1609485],[31.5915566,30.1607622],[31.5914784,30.160511],[31.5913917,30.1602604],[31.5913073,30.1600107],[31.5912196,30.1597617],[31.5911288,30.1595137],[31.5910347,30.1592665],[31.5909374,30.1590202],[31.5908369,30.158775],[31.5907223,30.1585094],[31.5906041,30.1582451],[31.5904822,30.157982],[31.5903566,30.1577202],[31.5902212,30.1574588],[31.5900907,30.1572084],[31.5899609,30.1569618],[31.5898226,30.1567076],[31.5896825,30.1564598],[31.5895383,30.1562137],[31.5893902,30.1559693],[31.589238,30.1557268],[31.5890819,30.1554862],[31.5889219,30.1552475],[31.588758,30.1550108],[31.5885902,30.1547761],[31.5884186,30.1545435],[31.5882438,30.1543128],[31.5880751,30.1540945],[31.5879093,30.1538746],[31.5877465,30.153653],[31.5875866,30.1534299],[31.5874297,30.1532052],[31.5872771,30.1529782],[31.5871175,30.1527504],[31.5869605,30.1525214],[31.586806,30.152291],[31.5866482,30.152062],[31.5864476,30.1517325],[31.5862523,30.1514006],[31.5860621,30.1510665],[31.5858771,30.1507302],[31.5856973,30.1503918],[31.5855229,30.1500513],[31.5853537,30.1497088],[31.5851899,30.1493644],[31.5850315,30.1490182],[31.5848785,30.1486701],[31.5847309,30.1483202],[31.5845887,30.1479687],[31.584452,30.1476155],[31.5843209,30.1472608],[31.5841953,30.1469046],[31.5840752,30.146547],[31.5839607,30.1461879],[31.5838518,30.1458276],[31.5837485,30.1454661],[31.5836508,30.1451034],[31.5835588,30.1447396],[31.5834725,30.1443747],[31.5833918,30.1440089],[31.5833169,30.1436421],[31.5832476,30.1432746],[31.5831798,30.1429067],[31.5831247,30.142559],[31.5830749,30.1422107],[31.5830302,30.1418619],[31.5829909,30.1415127],[31.5829568,30.141163],[31.5829279,30.1408129],[31.5829044,30.1404625],[31.5828861,30.140112],[31.5828731,30.1397612],[31.5828653,30.1394103],[31.5828629,30.1390594],[31.5828657,30.1387084],[31.5828739,30.1383576],[31.5828873,30.1380068],[31.582907,30.1376597],[31.582923,30.1373458],[31.5829459,30.1370322],[31.5829797,30.1367219],[31.5830162,30.136407],[31.5830519,30.1361177],[31.5830901,30.1358286],[31.5831307,30.1355398],[31.5831738,30.1352513],[31.5832193,30.134963],[31.5832673,30.1346746],[31.583889,30.130805],[31.584134,30.1292508],[31.5841766,30.1289745],[31.5842138,30.1286976],[31.5842456,30.1284202],[31.584272,30.1281424],[31.584293,30.1278642],[31.5843086,30.1275857],[31.5843187,30.1273071],[31.5843234,30.1270284],[31.5843226,30.1267496],[31.5843165,30.1264709],[31.5843049,30.1261923],[31.5842878,30.1259139],[31.5842654,30.1256358],[31.5842375,30.1253581],[31.5842028,30.1250728],[31.584165,30.124787],[31.5841221,30.1245018],[31.5840741,30.1242172],[31.5840211,30.1239333],[31.583963,30.1236501],[31.5839,30.1233677],[31.5838318,30.1230861],[31.5837587,30.1228056],[31.5836806,30.122526],[31.5835976,30.1222475],[31.5835096,30.1219701],[31.5834166,30.1216939],[31.5833188,30.121419],[31.5832214,30.1211443],[31.5831171,30.1208691],[31.5830273,30.1206412],[31.5829415,30.1204113],[31.5828597,30.1201796],[31.5827873,30.1199463],[31.5827217,30.1197115],[31.5826629,30.1194753],[31.5826109,30.119238],[31.5825659,30.1189995],[31.5825385,30.1187632],[31.5825179,30.1185246],[31.582507,30.1182856],[31.582506,30.1180464],[31.5825148,30.1178073],[31.5825334,30.1175687],[31.5825617,30.1173307],[31.5825998,30.1170938],[31.5826476,30.1168582],[31.582705,30.1166242],[31.5831519,30.114877]],[[31.5835494,30.1144929],[31.5835264,30.1145956],[31.5834526,30.114925],[31.5830139,30.1166795],[31.5829562,30.1169048],[31.5829082,30.1171318],[31.5828702,30.1173602],[31.5828421,30.1175897],[31.582824,30.1178199],[31.5828159,30.1180506],[31.5828178,30.1182814],[31.5828298,30.1185119],[31.5828517,30.1187419],[31.5828791,30.1189737],[31.5829165,30.1192028],[31.5829613,30.119431],[31.583014,30.1196604],[31.5830728,30.1198836],[31.5831418,30.1201151],[31.5832184,30.1203448],[31.5833053,30.1205725],[31.5833944,30.120798],[31.5834953,30.1210762],[31.5836002,30.1213529],[31.5836998,30.1216311],[31.5837942,30.1219107],[31.5838833,30.1221915],[31.583967,30.1224736],[31.5840454,30.1227568],[31.5841185,30.1230411],[31.5841861,30.1233264],[31.5842484,30.1236127],[31.5843052,30.1238997],[31.5843566,30.1241875],[31.5844025,30.124476],[31.584443,30.1247651],[31.5844807,30.1250548],[31.5845156,30.1253387],[31.5845429,30.1256197],[31.5845648,30.1259011],[31.5845815,30.1261828],[31.584593,30.1264647],[31.5845992,30.1267467],[31.5846001,30.1270287],[31.5845958,30.1273107],[31.5845861,30.1275926],[31.5845713,30.1278744],[31.5845511,30.1281559],[31.5845257,30.128437],[31.5844951,30.1287178],[31.5844592,30.1289981],[31.5844181,30.1292779],[31.5841743,30.1308392],[31.5835488,30.1347066],[31.5835007,30.1349928],[31.5834554,30.1352791],[31.5834131,30.1355657],[31.5833736,30.1358526],[31.5833369,30.1361397],[31.5833032,30.1364272],[31.5832668,30.1367369],[31.5832412,30.1370475],[31.5832237,30.1373586],[31.5832144,30.13767],[31.5831889,30.1380107],[31.5831701,30.1383588],[31.5831572,30.138707],[31.5831502,30.1390554],[31.5831492,30.1394038],[31.5831542,30.1397522],[31.583165,30.1401005],[31.5831818,30.1404486],[31.5832046,30.1407964],[31.5832332,30.1411439],[31.5832678,30.1414911],[31.5833083,30.1418377],[31.5833547,30.1421838],[31.583407,30.1425293],[31.5834651,30.142874],[31.5835294,30.1432391],[31.5835967,30.1436037],[31.58367,30.1439674],[31.5837492,30.1443303],[31.5838342,30.1446921],[31.5839251,30.1450529],[31.5840218,30.1454125],[31.5841244,30.1457709],[31.5842327,30.1461281],[31.5843468,30.1464839],[31.5844667,30.1468382],[31.5845923,30.1471911],[31.5847236,30.1475424],[31.5848606,30.1478921],[31.5850032,30.1482402],[31.5851515,30.1485864],[31.5853053,30.1489308],[31.5854647,30.1492733],[31.5856297,30.1496139],[31.5858001,30.1499524],[31.585976,30.1502888],[31.5861574,30.150623],[31.5863442,30.1509551],[31.5865363,30.1512848],[31.5867337,30.1516122],[31.5869364,30.1519371],[31.5870808,30.1521693],[31.587228,30.1524002],[31.5873788,30.1526292],[31.5875334,30.1528564],[31.5876908,30.1530884],[31.5878458,30.1533055],[31.5880018,30.1535253],[31.5881615,30.1537431],[31.5883249,30.1539588],[31.5884919,30.1541725],[31.5886667,30.1544084],[31.5888398,30.1546452],[31.5890093,30.1548839],[31.589175,30.1551246],[31.589337,30.1553671],[31.5894952,30.1556116],[31.5896496,30.1558578],[31.5898003,30.1561058],[31.589947,30.1563555],[31.5900899,30.1566069],[31.5902322,30.1568669],[31.590364,30.1571145],[31.5904952,30.1573706],[31.5906309,30.157634],[31.5907566,30.157896],[31.5908777,30.1581596],[31.5909944,30.1584248],[31.5911065,30.1586913],[31.5912084,30.1589399],[31.5913108,30.1591886],[31.591409,30.1594386],[31.5915029,30.1596899],[31.5915925,30.1599423],[31.5916779,30.1601958],[31.5917589,30.1604503],[31.5918357,30.1607059],[31.5918957,30.1608936],[31.5919509,30.1610823],[31.5920044,30.1612713],[31.5920563,30.1614606],[31.5921065,30.1616503],[31.592155,30.1618403],[31.5922018,30.1620306],[31.592247,30.1622212],[31.5922905,30.1624121],[31.5923322,30.1626033],[31.5923723,30.1627947],[31.5924107,30.1629865],[31.5924526,30.1632113],[31.5924922,30.1634393],[31.592529,30.1636676],[31.5925629,30.1638962],[31.5925939,30.1641252],[31.5926221,30.1643544],[31.5926474,30.1645839],[31.5926699,30.1648136],[31.5926894,30.1650434],[31.5927061,30.1652735],[31.5927199,30.1655037],[31.5927308,30.165734],[31.5927389,30.1659644],[31.592744,30.1661949],[31.5927463,30.1664254],[31.5927457,30.1666559],[31.5927422,30.1668864],[31.5927358,30.1671168],[31.5927271,30.1673898],[31.5927144,30.1676626],[31.5926978,30.1679353],[31.5926774,30.1682078],[31.5926532,30.1684801],[31.5926251,30.1687521],[31.5925931,30.1690238],[31.5925573,30.1692951],[31.5925177,30.169566],[31.5924743,30.1698365],[31.5924271,30.1701065],[31.592376,30.1703759],[31.5923211,30.1706449],[31.5911802,30.1755327],[31.5910859,30.1759369]],[[31.5753848,30.1941916],[31.5750125,30.1944823],[31.5730069,30.1960485],[31.5703783,30.1980283],[31.5685437,30.199447],[31.5674574,30.200358],[31.5665132,30.2011671],[31.5653679,30.2022195],[31.5643219,30.2032325],[31.5632436,30.2042617],[31.5621144,30.2054115],[31.5620798,30.2054517],[31.561523,30.2061254],[31.5607894,30.2070364],[31.5600893,30.2080981],[31.5595744,30.2090067],[31.559164,30.2098342],[31.5588475,30.2105736],[31.5584907,30.2115379],[31.5582306,30.2124094],[31.5580187,30.2132995],[31.5578712,30.2141872],[31.5577097,30.2153087],[31.557471,30.216857],[31.5572778,30.21809],[31.5570364,30.2196452],[31.5567977,30.2212328],[31.5565832,30.2226976],[31.5563176,30.2244149],[31.5560423,30.2262472],[31.5545031,30.2364911],[31.5538714,30.2406946],[31.5536569,30.2420595],[31.5531446,30.245329],[31.5530205,30.2460912],[31.5527094,30.2477456],[31.5524224,30.2489435],[31.5519208,30.2509338],[31.5516932,30.2520088],[31.5515564,30.2527966],[31.551441,30.2535519],[31.5513606,30.2542238],[31.5512881,30.2550718],[31.5512211,30.2561769],[31.5512084,30.2564337],[31.5511621,30.2573724],[31.5511058,30.2585053],[31.5510065,30.2596197],[31.5509341,30.260185],[31.5508214,30.2609727],[31.5507463,30.2614059],[31.55058,30.2622886],[31.5503762,30.2631782],[31.5501424,30.2640609],[31.5499256,30.2648045],[31.5493516,30.2664748],[31.5484933,30.2685087],[31.5478603,30.2697782],[31.5471709,30.2710082],[31.5468974,30.2714634],[31.5462939,30.2724132],[31.5456743,30.2733027],[31.54528,30.2738436]],[[31.5910859,30.1759369],[31.5903173,30.1790934]],[[31.5901112,30.1790686],[31.5908494,30.1758916]],[[31.536693168504016,30.28155868536467],[31.5367169,30.2815439],[31.5372606,30.2811814],[31.5378328,30.280778],[31.5383729,30.2803754],[31.5388492,30.2800015],[31.5393451,30.2796098],[31.5403533,30.2787879],[31.5410902,30.2781173],[31.5418735,30.2773581],[31.5431051,30.2760516],[31.5436056,30.2755207],[31.5445644,30.2743382],[31.5450708,30.2736722],[31.545551,30.273013],[31.5464567,30.2716604],[31.5474585,30.2699439],[31.5479957,30.2689071],[31.5482996,30.2682742],[31.5485823,30.2676296],[31.5490123,30.2665914],[31.549363,30.265633],[31.5498077,30.2642303],[31.5500964,30.2631435],[31.5503524,30.262027],[31.5504541,30.261482],[31.5506101,30.2605036],[31.550738,30.2594761],[31.5508238,30.2585841],[31.550864,30.2578033],[31.5509043,30.2568905],[31.5509259,30.2564296],[31.5509579,30.2557483],[31.5510116,30.2549791],[31.5510813,30.2542053],[31.5511591,30.2535403],[31.5513361,30.2524189],[31.5515239,30.2514227],[31.5517492,30.2504565],[31.5519986,30.2494625],[31.5522668,30.2484245],[31.5524814,30.2474699],[31.552755,30.246024],[31.5532478,30.242874],[31.5534731,30.2414095],[31.5537574,30.2395163],[31.5539827,30.2380565],[31.5542222,30.2364663],[31.5557647,30.2262222],[31.5560105,30.2245899],[31.5562291,30.2231333],[31.5564464,30.2216824],[31.5566985,30.2200044],[31.5570096,30.2180043],[31.5574361,30.2152507],[31.5576727,30.2136796],[31.55778,30.2131117],[31.5578792,30.2126667],[31.558126,30.2117789],[31.5584586,30.2108101],[31.5587697,30.2100521],[31.5592069,30.2091272],[31.559538,30.2085096],[31.5598249,30.2080112],[31.5601441,30.2074989],[31.5606269,30.2067966],[31.5613672,30.2058555],[31.5618573,30.2053185],[31.5623194,30.2048123],[31.5632662,30.2038805],[31.5645188,30.2026727],[31.5656266,30.2016203],[31.5665251,30.2008182],[31.5681371,30.1994413],[31.5690169,30.1987481],[31.5703687,30.1977142],[31.5719834,30.1964716],[31.5735149,30.1953403],[31.574821,30.1943084]],[[31.54528,30.2738436],[31.5448171,30.2744232],[31.5446251,30.2746855],[31.5440167,30.2754257],[31.54355,30.2759585],[31.5431396,30.2764055],[31.5425602,30.2770193],[31.5414793,30.2780872],[31.5406291,30.278884],[31.5395799,30.2797528],[31.5391018,30.2801389],[31.5385744,30.2805397],[31.537996,30.2809693],[31.5374608,30.2813491],[31.5369016784997,30.281727533132912]],[[31.5831519,30.114877],[31.5831804,30.1147569],[31.5832276,30.1145578],[31.5832547,30.1144434]],[[31.5832547,30.1144434],[31.5832836,30.1143318],[31.5833777,30.1139693],[31.5860966,30.1031123]],[[31.5836572,30.1140348],[31.5836206,30.1141903],[31.5835744,30.1143745],[31.5835494,30.1144929]],[[31.5863023,30.1031492],[31.5836572,30.1140348]],[[31.5751296,30.1940653],[31.5755464,30.1937267],[31.5762454,30.1932075],[31.5775088,30.1922616],[31.5785843,30.1913644],[31.5799925,30.1901357],[31.5812531,30.1889996],[31.5826988,30.1877106],[31.584616,30.1860414],[31.5858364,30.1849587],[31.5865525,30.1842979],[31.5870943,30.1837994],[31.5874484,30.1834818],[31.5882262,30.1827537],[31.5887761,30.1821254],[31.5892347,30.1814437],[31.5895244,30.1809278],[31.5897551,30.1804108],[31.5899053,30.1799818],[31.5901112,30.1790686]],[[31.574821,30.1943084],[31.5750281,30.1941452],[31.5751296,30.1940653]],[[31.5757552,30.1939119],[31.5755843,30.1940409],[31.5753848,30.1941916]],[[31.5903173,30.1790934],[31.5898722,30.1806131],[31.5895396,30.1814432],[31.5889374,30.1823092],[31.5884644,30.1828753],[31.587869,30.183448],[31.5866834,30.1845284],[31.5842158,30.1867356],[31.5830812,30.1877256],[31.582172,30.1885208],[31.5811474,30.1894412],[31.5798438,30.190612],[31.5785054,30.1917712],[31.5770838,30.1929072],[31.5757552,30.1939119]]]}}]}