{"type":"FeatureCollection","features":[{"type":"Feature","properties":{"اسم_الطريق":"الطريق الدائري الإقليمي","name_en":"Regional Ring Road","source":"OpenStreetMap","osm_way_count":558,"visible_part_count":41},"geometry":{"type":"MultiLineString","coordinates":[[[31.6550478,30.2693693],[31.656153,30.2681168],[31.6572842,30.2668999],[31.6583083,30.2657585],[31.6596761,30.2642109],[31.6613211,30.262441],[31.6668937,30.2562682],[31.668939,30.2540024],[31.680002,30.241781],[31.6846788,30.2365976],[31.6903005,30.2303784],[31.6909467,30.2296942],[31.6918262,30.2286733],[31.6931519,30.2272323],[31.6936867,30.2266494],[31.6950054,30.2252149]],[[31.8049258,30.1277071],[31.8050149,30.1285301],[31.8050192,30.1285661],[31.805234,30.130357],[31.8055047,30.132706],[31.805772,30.135331],[31.805833,30.1362525],[31.8058678,30.1368301],[31.8058766,30.1372146],[31.805868,30.1375413],[31.8058748,30.1376524],[31.8058826,30.1381976],[31.8058713,30.1392287],[31.805841,30.1401611],[31.805774,30.1410286],[31.8056533,30.1424783],[31.8054821,30.1438957],[31.8047293,30.1486933],[31.8043323,30.1512457],[31.8039721,30.1535177],[31.8038978,30.1539164],[31.8038093,30.1542991],[31.8037623,30.1545101],[31.803706,30.1547246],[31.803643,30.1549403],[31.8035772,30.1551456],[31.8034659,30.1554946],[31.8033211,30.1559237],[31.8031977,30.1562623],[31.8030515,30.1566213],[31.8028101,30.1571969],[31.8025362,30.1577796],[31.8022469,30.1583379],[31.8021154,30.158593],[31.8019363,30.1588877],[31.8016621,30.1593189],[31.8013659,30.1597615],[31.8012021,30.1600089],[31.8009232,30.1604043],[31.8006556,30.1607539],[31.800423,30.1610385],[31.8002728,30.1612229],[31.8000568,30.1614792],[31.7998879,30.161667],[31.7995727,30.1620149],[31.7993045,30.1622978],[31.7990604,30.162561],[31.7988029,30.1628138],[31.7985696,30.1630318],[31.7980975,30.1634446],[31.7978789,30.1636417],[31.7973787,30.1640289],[31.79703,30.1642956],[31.7967215,30.1645299],[31.7960912,30.1649705],[31.7957318,30.1652024],[31.7951658,30.1655572],[31.7948802,30.165723],[31.7946294,30.1658679],[31.7944068,30.1659908],[31.7941439,30.1661346],[31.7936718,30.1663734],[31.793063,30.166661],[31.7926902,30.166828],[31.7923763,30.1669555],[31.7917782,30.1671944],[31.7912418,30.1673961],[31.7909333,30.1675028],[31.7906115,30.1676002],[31.7902466,30.1677195],[31.7897531,30.1678656],[31.7894983,30.1679282],[31.7893227,30.1679759],[31.7891335,30.1680268],[31.7889045,30.1680799],[31.7882431,30.1682332],[31.7879346,30.1682982],[31.7877495,30.1683399],[31.7875403,30.168377],[31.7846759,30.1688359],[31.7817786,30.1693],[31.7808643,30.1694692],[31.7799711,30.1696176],[31.7785188,30.1698548],[31.7779186,30.1699482]],[[31.8014475,30.1000052],[31.80138133439773,30.09941509619577]],[[31.8016659,30.0999953],[31.8019204,30.1024034],[31.8021634,30.1046497]],[[31.801592574756068,30.099395145717484],[31.8016659,30.0999953]],[[31.8020003,30.1047158],[31.8016966,30.1020873],[31.8014475,30.1000052]],[[31.6952143,30.2253721],[31.6933127,30.227449],[31.6925215,30.2283237],[31.6921129,30.2287755],[31.691777,30.2291829],[31.6913644,30.2296555],[31.6901583,30.2309697],[31.6893107,30.2318933],[31.6881511,30.2331568],[31.6599885,30.2643042],[31.6577455,30.2667516],[31.6564305,30.2681156],[31.6552131,30.2694727]],[[31.6950054,30.2252149],[31.6969492,30.2230805]],[[31.6969492,30.2230805],[31.6979009,30.2220266],[31.698823,30.2209822],[31.6995048,30.2202119],[31.7001624,30.2194444],[31.7047907,30.2143445],[31.7049028,30.2142239],[31.7054017,30.2136908],[31.7058797,30.213161],[31.7101586,30.208413],[31.7144542,30.2036603],[31.7150977,30.2029449],[31.7157269,30.2022435],[31.7163703,30.2015464],[31.7183637,30.1993393],[31.7186187,30.1990515],[31.7209853,30.1964515],[31.7233197,30.1938572],[31.7289956,30.1875561],[31.7296717,30.1868245],[31.7317906,30.1844782],[31.7323351,30.1838939],[31.7335488,30.1825967],[31.7341778,30.1818814]],[[31.6971025,30.2232918],[31.6968671,30.2235592],[31.6952143,30.2253721]],[[31.735885,30.1799604],[31.737057,30.178626]],[[31.7361304,30.18003],[31.7352842,30.1809667],[31.7347705,30.1815209],[31.734442,30.1818768]],[[31.7341778,30.1818814],[31.7351165,30.180838],[31.735885,30.1799604]],[[31.734442,30.1818768],[31.7344099,30.1819128],[31.7337406,30.1826616],[31.7326449,30.1838789],[31.7298219,30.1869845],[31.7170507,30.2010491],[31.7156355,30.2026075],[31.7144801,30.2038841],[31.7129638,30.2055668],[31.7070391,30.2121418],[31.7037266,30.2158719],[31.7003999,30.2196098],[31.7002297,30.2198007],[31.6995243,30.2205514],[31.6987814,30.2213803]],[[31.737057,30.178626],[31.7377263,30.1778829],[31.7384317,30.1771004],[31.7390542,30.1764204],[31.7398499,30.175546],[31.7415309,30.173699],[31.7422545,30.1730255],[31.7432144,30.1722016],[31.7441686,30.1714552],[31.7445633,30.1711759],[31.7450541,30.1708791],[31.7453461,30.1707086],[31.7461756,30.170192],[31.7465666,30.1699974],[31.7489402,30.1689146],[31.7499112,30.1685704],[31.750971,30.1682581],[31.7521616,30.1679701],[31.7536291,30.1677045],[31.754289,30.1676002],[31.7552283,30.1674883],[31.7565241,30.1674159],[31.7576144,30.1674081],[31.7594425,30.1674931],[31.7608468,30.1676468],[31.7623318,30.1678974],[31.7632376,30.1681333]],[[31.7779186,30.1699482],[31.7773637,30.1700435],[31.7769002,30.1701231],[31.7756877,30.1702534],[31.774754,30.1702909],[31.7734168,30.1703407]],[[31.7778825,30.1697719],[31.7786,30.1696523],[31.7797753,30.1694483],[31.7810789,30.1692326],[31.7830677,30.1688964],[31.7847629,30.1686204],[31.7874839,30.1681915],[31.7877629,30.1681381],[31.7880928,30.1680709],[31.7886213,30.1679643],[31.7890303,30.1678692],[31.7893937,30.1677694],[31.7897665,30.1676651],[31.7903581,30.1674743],[31.7906798,30.167372],[31.7909565,30.1672791],[31.7912705,30.1671681],[31.7915082,30.1670801],[31.7918434,30.1669499],[31.792253,30.1667862],[31.7927545,30.1665891],[31.7932454,30.1663757],[31.7935941,30.1662042],[31.7939481,30.1660117],[31.7944765,30.1657311],[31.7950478,30.1653995],[31.795992,30.1648197],[31.7963326,30.1645994],[31.7965606,30.1644371],[31.7967364,30.1643103],[31.7969562,30.1641426],[31.7974538,30.1637599],[31.7981994,30.1631245],[31.7984113,30.1629205],[31.798618,30.1627232],[31.7988753,30.1624914],[31.7993045,30.1620485],[31.7997256,30.1615812],[31.7999924,30.1612797],[31.8002204,30.1610037],[31.8005209,30.1606199],[31.8008159,30.1602291],[31.8011954,30.1597016],[31.8013738,30.1594407],[31.8015578,30.1591547],[31.8018821,30.1586093],[31.8020913,30.158222],[31.8023398,30.1577406],[31.8026157,30.1571552],[31.802874,30.1565861],[31.8031186,30.1559608],[31.8032527,30.1555595],[31.8033847,30.1551241],[31.8035021,30.1547096],[31.8035558,30.1545136],[31.8036094,30.1542926],[31.8037816,30.1534973],[31.8038911,30.1528913],[31.8039876,30.152279],[31.8041469,30.15115],[31.8046742,30.1479013],[31.8052984,30.1438741],[31.8053827,30.143271],[31.8054988,30.1419839],[31.8055943,30.1410472],[31.8056211,30.1406134],[31.8056397,30.1401997],[31.8056699,30.1392327],[31.805672,30.1381892],[31.8056546,30.1375991],[31.805617,30.1367916],[31.8055889,30.1359382],[31.8055299,30.1351298],[31.8053945,30.1336059],[31.8053646,30.1332777],[31.8047724,30.1285924],[31.8047681,30.1285579]],[[31.7734168,30.1703407],[31.7715215,30.1702213],[31.7695403,30.1699906],[31.7678451,30.1696129],[31.76678,30.1693301],[31.7657232,30.1690147],[31.7635929,30.1683672],[31.7635034,30.168347]],[[31.7732822,30.1701528],[31.7739806,30.1701545],[31.7741725,30.170155],[31.774915,30.1701053],[31.775795,30.1700587],[31.7767253,30.1699578],[31.7778825,30.1697719]],[[31.6987814,30.2213803],[31.6979612,30.2223406],[31.6971025,30.2232918]],[[31.7632376,30.1681333],[31.7635714,30.168224]],[[31.7635714,30.168224],[31.7637128,30.1682667],[31.7659623,30.1689313],[31.7669731,30.169184],[31.7676533,30.1693821],[31.7685529,30.1695954],[31.769598,30.169797],[31.7711039,30.1700042],[31.7732822,30.1701528]],[[31.7632036,30.1682794],[31.7620307,30.1679915],[31.7607161,30.1677648],[31.7594892,30.1676343],[31.7582057,30.1675771],[31.7559847,30.1676264],[31.7549529,30.1677018],[31.7543453,30.1677694],[31.7536908,30.1678692],[31.7525296,30.168081],[31.7513374,30.1683524],[31.7500332,30.1687369],[31.7489798,30.1691343],[31.7478777,30.169588],[31.7468052,30.1701074],[31.746602,30.1702017],[31.745789,30.1706634],[31.7448456,30.1712286],[31.7444345,30.1715307],[31.7442414,30.1716675],[31.7439531,30.1718669],[31.7430044,30.1725876],[31.7419465,30.1735518],[31.7417291,30.1737764],[31.7411775,30.1743701],[31.740281,30.1753594],[31.7399939,30.1756732],[31.7392621,30.1764732],[31.7390783,30.1766837],[31.7389736,30.1768036],[31.7386312,30.1771893],[31.7382124,30.1776645],[31.7372911,30.1786944],[31.7368507,30.1791894],[31.7361304,30.18003]],[[31.7635034,30.168347],[31.7632036,30.1682794]],[[31.6881511,30.2331568],[31.6880526,30.2333843],[31.687999,30.2335018],[31.6879176,30.2336303],[31.687116,30.2346236],[31.6860405,30.2359562],[31.6857662,30.2362975],[31.685483,30.2366332],[31.6852775,30.2368669],[31.6850677,30.2370977],[31.6848536,30.2373256],[31.6841024,30.2381291],[31.6834961,30.2387319],[31.6832554,30.2389673],[31.6830199,30.2392066],[31.6827897,30.2394496],[31.6825649,30.2396964],[31.6805899,30.2418521],[31.6777122,30.2450237],[31.6759564,30.2469579],[31.673439,30.2497178],[31.6713529,30.2520428],[31.6704473,30.2530446],[31.6619568,30.2624358],[31.6617363,30.2626886],[31.661522,30.2629453],[31.6613137,30.2632058],[31.6611117,30.2634699],[31.660916,30.2637375],[31.6604733,30.264347],[31.6599986,30.2649563],[31.659868,30.2651293],[31.6597321,30.2652992],[31.6595909,30.2654659],[31.6594608,30.2656115],[31.6593266,30.2657544],[31.6591966,30.2659014],[31.6581444,30.2670637],[31.6563952,30.2690441],[31.6562936,30.269159],[31.6562023,30.2692802],[31.656118,30.2694051],[31.6560476,30.2695218],[31.6559833,30.2696412],[31.6559253,30.269763],[31.6558608,30.2698884]],[[31.6544008,30.2689148],[31.6545992,30.2687778],[31.6547891,30.2686302],[31.6549702,30.2684747],[31.6551421,30.2683115],[31.6553043,30.2681412],[31.6554565,30.2679641],[31.6566566,30.2666601],[31.6570477,30.2662673],[31.6572395,30.266064],[31.657649,30.2656298],[31.6577636,30.2655122],[31.6578815,30.265397],[31.6580025,30.2652843],[31.6581266,30.2651741],[31.6586106,30.2648103],[31.658868,30.264603],[31.6590352,30.2644561],[31.6591995,30.2643069],[31.6593611,30.2641555],[31.6595198,30.2640018],[31.6597813,30.2637308],[31.6644409,30.2585988],[31.6652256,30.2577364],[31.6667644,30.2559558],[31.6676213,30.2550425],[31.6708816,30.2515147],[31.671086,30.251282],[31.6715377,30.2507678],[31.6717741,30.2505106],[31.6740631,30.248007],[31.67564,30.2462288],[31.6761902,30.2455993],[31.6773131,30.2443694],[31.6803163,30.2410549],[31.6811062,30.2401882],[31.6886204,30.2318506],[31.6888545,30.2316009],[31.6890933,30.2313544],[31.6893366,30.2311114],[31.6897538,30.2307061],[31.6898198,30.230648],[31.6898901,30.2305938],[31.6899642,30.2305436],[31.6900466,30.2304951],[31.6901327,30.2304516],[31.6903005,30.2303784]],[[31.568337935130735,30.30802024823962],[31.5686372,30.3077461],[31.5691728,30.3072847],[31.5697289,30.3068418],[31.5701956,30.3064959],[31.5706749,30.3061633],[31.5714411,30.3056786],[31.5722222,30.305212],[31.5729905,30.3047773],[31.573724,30.3043648],[31.574411,30.3039828],[31.5750592,30.3036175],[31.5757345,30.3032254],[31.5784649,30.3016505],[31.578994,30.301338],[31.5804212,30.3004559],[31.5809847,30.3001247],[31.5815798,30.2997803],[31.5820357,30.2995333],[31.5824346,30.2993302],[31.5861017,30.2972939],[31.5865128,30.2970635],[31.5869291,30.2968403],[31.5873504,30.2966243],[31.5877768,30.2964156],[31.5881032,30.2962681],[31.5884338,30.2961275],[31.5887682,30.2959939],[31.5890998,30.2958698],[31.5894348,30.2957525],[31.5897726,30.2956414],[31.590123,30.2955348],[31.5905085,30.2954216],[31.5908304,30.2953414],[31.5912737,30.2952433],[31.5916567,30.2951636],[31.5920501,30.2950937],[31.5926835,30.2949977],[31.5933278,30.2949202],[31.5937187,30.2948749],[31.5943745,30.2948556],[31.5947762,30.2948435],[31.5951782,30.294839],[31.5955801,30.2948421],[31.5959819,30.2948527],[31.5985686,30.294992],[31.6043048,30.2952106],[31.6070142,30.2952761],[31.6097287,30.2953801],[31.6117396,30.2954458],[31.6141246,30.2955339],[31.6225202,30.2958543],[31.6232944,30.2958569],[31.6240678,30.2958269],[31.6248387,30.2957645],[31.6256051,30.2956698],[31.6263653,30.2955431],[31.6271174,30.2953846],[31.6278598,30.2951948],[31.6283495,30.2950396],[31.6287334,30.2949127],[31.6288885,30.2948587],[31.629045,30.2948043],[31.6293546,30.2946915],[31.6296626,30.2945754],[31.6300262,30.2944221],[31.630386,30.2942621],[31.6307418,30.2940956],[31.6310933,30.2939226],[31.6314404,30.2937428],[31.6317459,30.2935714],[31.6320473,30.2933946],[31.6323444,30.2932124],[31.6326371,30.2930249],[31.6329252,30.2928322],[31.6332085,30.2926344],[31.6335705,30.2923677],[31.6339234,30.2920922],[31.6342669,30.291808],[31.6346009,30.2915154],[31.634925,30.2912145],[31.6352389,30.2909058],[31.6355423,30.2905894],[31.6392637,30.2865159],[31.6413506,30.2841917],[31.6451152,30.2800231],[31.649731,30.2749288],[31.6516516,30.2727908],[31.6518608,30.2725627],[31.6520643,30.2723308],[31.6522619,30.2720952],[31.6524536,30.2718559],[31.6526392,30.2716131],[31.6528187,30.2713668],[31.6529919,30.2711173],[31.6531603,30.2708652],[31.6535924,30.2702276],[31.6538187,30.2698676],[31.6539234,30.2696821],[31.6540087,30.2695144],[31.6540867,30.2693442],[31.6541561,30.2691716]],[[31.6550448,30.2696623],[31.6530794,30.2718017],[31.6485326,30.2768567],[31.6428851,30.2831216],[31.636094,30.2905518],[31.635231,30.291496],[31.6343445,30.2923255],[31.6332501,30.2931707],[31.6327945,30.2934944],[31.6324,30.293755],[31.6318904,30.2940728],[31.631206,30.2944373],[31.6304523,30.2947891],[31.629782,30.295068],[31.6291497,30.2952894],[31.6284437,30.2955277],[31.6272263,30.295844],[31.6258631,30.2960807],[31.625053,30.2961791],[31.6246175,30.2962251],[31.6241577,30.2962518],[31.6235611,30.2962711],[31.6229784,30.2962569],[31.6213385,30.2962123],[31.620003299749733,30.296153180930713]],[[31.59704042675601,30.295263650810263],[31.5964705,30.2952416],[31.5952367,30.2952161],[31.5941691,30.2952439],[31.593408,30.2953089],[31.5927834,30.2953804],[31.5921965,30.2954727],[31.5914762,30.2956029],[31.590583,30.2958229],[31.5897216,30.2960781],[31.5892455,30.296236],[31.5887378,30.2964293],[31.5882151,30.2966468],[31.5877077,30.2968766],[31.5868478,30.2973211],[31.5858811,30.2978794],[31.583899,30.2990188],[31.5826732,30.2997066],[31.5807725,30.3007911],[31.5789034,30.3018707],[31.5731782,30.3051405],[31.5716413,30.3060274],[31.5711397,30.306347],[31.57061,30.3067151],[31.570225260924328,30.30700088583982]],[[31.6552131,30.2694727],[31.6550448,30.2696623]],[[31.6548908,30.2695518],[31.6550478,30.2693693]],[[31.8046893,30.1277247],[31.8046528,30.1273539],[31.8046353,30.1271703],[31.8046259,30.1270589],[31.8046241,30.1270378],[31.8045256,30.1261896],[31.8039661,30.1213739],[31.8039056,30.1207894],[31.8037015,30.1187715],[31.8034458,30.1166309],[31.8031885,30.1144655],[31.8030073,30.1129778],[31.8028354,30.1116605],[31.802278,30.1067775],[31.802048,30.1050881],[31.8020003,30.1047158]],[[31.8047681,30.1285579],[31.8046893,30.1277247]],[[31.8048616,30.1270206],[31.8048705,30.1271479],[31.8048862,30.127333],[31.8049258,30.1277071]],[[31.8021634,30.1046497],[31.8022219,30.1051925],[31.8024775,30.1066962],[31.8030817,30.1117911],[31.8032607,30.1133832],[31.8034646,30.1150499],[31.8041091,30.1207691],[31.8042066,30.1215554],[31.8047593,30.1261672],[31.8048589,30.1269982],[31.8048616,30.1270206]],[[31.6556132,30.2701468],[31.6555075,30.2701887],[31.6554058,30.2702384],[31.6553082,30.2702939],[31.6552152,30.270355],[31.6551271,30.2704214],[31.6545282,30.270904],[31.6543676,30.2710352],[31.6542144,30.2711728],[31.6540703,30.2713152],[31.6539341,30.2714635],[31.6533316,30.2721264],[31.6532051,30.2722716],[31.6531194,30.2723826],[31.6530418,30.2724979],[31.6529725,30.2726171],[31.6529156,30.2727317],[31.6528663,30.2728489],[31.6528249,30.2729683],[31.6527298,30.2732935],[31.6526868,30.273425],[31.6526351,30.2735542],[31.6525751,30.2736806],[31.6525067,30.2738039],[31.6524304,30.2739236],[31.6523463,30.2740394],[31.6522446,30.2741622],[31.6521341,30.2742793],[31.6520153,30.2743902],[31.6518887,30.2744943],[31.6517548,30.2745914],[31.651614,30.274681],[31.6514344,30.2747991],[31.6512594,30.2749222],[31.651089,30.2750501],[31.6509236,30.2751828],[31.6507633,30.27532],[31.6506082,30.2754616],[31.6501508,30.2758933],[31.6496412,30.2763743],[31.6485313,30.2774232],[31.6482389,30.2776991],[31.6479556,30.2779819],[31.6476815,30.2782714],[31.6473003,30.2786422],[31.646926,30.2790183],[31.6465588,30.2793995],[31.6459492,30.2800202],[31.6453364,30.2806885],[31.6384376,30.2882948],[31.6381343,30.2886375],[31.6378349,30.2889827],[31.6375395,30.2893306],[31.6372481,30.2896809],[31.6358211,30.2914434],[31.6352999,30.292022],[31.6347624,30.2925894],[31.6342088,30.2931451],[31.6336394,30.2936888],[31.6335168,30.2938058],[31.6333887,30.2939182],[31.633255,30.2940258],[31.633126,30.2941213],[31.6329927,30.2942123],[31.6328554,30.2942986],[31.6327034,30.2943818],[31.6325479,30.29446],[31.6323892,30.2945331],[31.6322273,30.2946011],[31.6317147,30.2948155],[31.6312372,30.2950209],[31.6310147,30.2951173],[31.6308574,30.2951806],[31.6307889,30.2952081],[31.6305602,30.295293],[31.6303287,30.2953722],[31.6300946,30.2954454],[31.6298156,30.2955241],[31.6295335,30.2955944],[31.6292488,30.2956563],[31.6265183,30.2961681],[31.6261493,30.296237],[31.6257787,30.2962993],[31.6254066,30.2963547],[31.6250168,30.2964054],[31.6246258,30.2964487],[31.6242338,30.2964844],[31.6239668,30.296504],[31.6236993,30.2965178],[31.6234314,30.2965258],[31.6231634,30.2965281],[31.622894,30.2965245],[31.6226248,30.2965151],[31.622356,30.2964998],[31.6212004,30.2964111],[31.6205665,30.2963696],[31.619932,30.2963356],[31.61983797332369,30.296331583873698]],[[31.59519090687046,30.295427585527392],[31.5946694,30.2954314],[31.5941368,30.2954526],[31.5936054,30.2954912],[31.593091,30.295538],[31.5924773,30.2956202],[31.59189345279991,30.29571985986546]],[[31.589893839302132,30.29622905136608],[31.5895425,30.2963443],[31.5889422,30.2965688],[31.5883515,30.2968169],[31.587767,30.2970814],[31.5872147,30.2973506],[31.5859977,30.2980473],[31.5844043,30.2989493]],[[31.5844043,30.2989493],[31.5830621,30.2997228],[31.5815007,30.3006218],[31.580848,30.3009687],[31.5785693,30.3022759],[31.5763788,30.3035378],[31.5762027,30.3036392],[31.5730012,30.3054636],[31.572564,30.3057075],[31.572196629315293,30.305921232110588]],[[31.569261643718004,30.30752862733914],[31.5696055,30.3072396],[31.5705174,30.3065542],[31.5712282,30.306083],[31.572057,30.3055816],[31.5748385,30.3040012],[31.5785976,30.3018371],[31.5806501,30.3006604],[31.5823841,30.2996663],[31.5830246,30.299299],[31.5846929,30.2983634],[31.5859374,30.2976478],[31.5867458,30.2971869],[31.587622,30.2967434],[31.5881211,30.2965085],[31.5886567,30.2962791],[31.5892392,30.2960637],[31.5897274,30.295904],[31.5906048,30.2956376],[31.5911275,30.2955098],[31.5916532,30.2953944],[31.5921736,30.2952902],[31.5928634,30.2951973],[31.593501,30.2951285],[31.5941898,30.295084],[31.5951857,30.2950447],[31.5964732,30.2950772],[31.61264623646732,30.295699386332345]],[[31.616600677676594,30.2958515160377],[31.6198313,30.2959758],[31.6229601,30.2960566],[31.6237283,30.2960685],[31.6241524,30.2960615],[31.6245994,30.2960329],[31.6250232,30.2959946],[31.6254739,30.2959355],[31.6264812,30.2957974],[31.6271364,30.295669],[31.6277924,30.2955069],[31.6284361,30.2953215],[31.6291199,30.2950949],[31.6297281,30.2948768],[31.6303495,30.2946279],[31.6309607,30.2943412],[31.6317524,30.2939592],[31.6323236,30.2936274],[31.6327333,30.293357],[31.6331514,30.2930725],[31.6339872,30.2924102],[31.6342174,30.2922278],[31.6351049,30.2913888],[31.6427005,30.2829914],[31.6528287,30.2717981],[31.6548908,30.2695518]]]}}]}