{"type":"FeatureCollection","features":[{"type":"Feature","properties":{"اسم_الطريق":"الطريق الدائري","name_en":"Cairo Ring Road","source":"OpenStreetMap","osm_way_count":487,"visible_part_count":43},"geometry":{"type":"MultiLineString","coordinates":[[[32.31058446048542,30.609348260392213],[32.3105658,30.6093448],[32.3104918,30.6093381],[32.3104174,30.6093383],[32.3103435,30.6093454],[32.3102709,30.6093593],[32.3102004,30.6093799],[32.3101329,30.6094069],[32.3090554,30.6100909],[32.3084197,30.6104945],[32.3081149,30.6106747],[32.3079447,30.6107759],[32.3078214,30.6108481],[32.3073801,30.6111101],[32.3073043,30.6111549],[32.3072372,30.6111947],[32.3072165,30.6112078],[32.3071638,30.6112413],[32.307036803112325,30.611321988342496]],[[32.306718198076226,30.61152444094661],[32.3063546,30.6117555],[32.3062053,30.6118526],[32.3060187,30.6119811],[32.3056163,30.6122795],[32.3046118,30.6130119],[32.3045942,30.6130247],[32.3044352,30.6131406],[32.3042888,30.6132451],[32.30427826504132,30.61325269619699]],[[32.2933643711862,30.621155548617057],[32.2933352,30.6211768],[32.2930082,30.6213967],[32.2928163,30.6215264],[32.2927344,30.6215808],[32.2924099,30.6217861],[32.2920853,30.6219582],[32.2917285,30.6221284],[32.2914206,30.6222753],[32.2913256,30.622313],[32.2912238,30.6223397],[32.2911188,30.622355],[32.2910125,30.6223586],[32.2909065,30.6223504],[32.2906917,30.6223066],[32.2902301,30.6221922],[32.2891686,30.6219835],[32.2877388,30.6217237],[32.2857105,30.6213375],[32.2852552,30.6212508],[32.2850491,30.6212117],[32.2850196,30.6212061],[32.2847451,30.6211539],[32.2839791,30.6210085],[32.2838856,30.6209922],[32.2833627,30.6208918],[32.2832594,30.6208703],[32.2818604,30.6206079],[32.2803955,30.6203314],[32.2795553,30.6201719],[32.2784009,30.6199531],[32.2780959,30.6198959],[32.276785,30.619656],[32.2762534,30.6195566],[32.2718231,30.6187612],[32.2709119,30.6185997],[32.2695282,30.6183488],[32.269116,30.6182741],[32.2688485,30.6182256],[32.2635244,30.6172555],[32.2630588,30.6171707],[32.2564947,30.6159606],[32.2563633,30.6159371],[32.2562601,30.6159186],[32.2562458,30.615916],[32.2550476,30.6157012],[32.2534052,30.615409],[32.2529485,30.6153213],[32.251584,30.6150098],[32.2508832,30.6148689],[32.2506197,30.614821],[32.2504142,30.6147895],[32.2491726,30.6146362],[32.2488266,30.6146059],[32.2487493,30.6146084],[32.2486747,30.6146261],[32.2486068,30.6146581],[32.2485493,30.6147026],[32.2485051,30.6147572]],[[31.4350203,30.078946],[31.4346179,30.0780861],[31.4338161,30.0766925],[31.4336577,30.0764172],[31.4328155,30.0751986],[31.4326331,30.0749712],[31.4313094,30.0735031],[31.4304681,30.0726523],[31.4287506,30.0710705],[31.4281525,30.0705076],[31.4274032,30.0698386],[31.4273036,30.0697497],[31.4264479,30.0690104],[31.4259034,30.0685322],[31.4253066,30.0680715],[31.4250867,30.0679241],[31.4244887,30.0675112],[31.423573919447218,30.06689280853226]],[[31.4573832,30.1140565],[31.4565971,30.1129862],[31.4536428,30.1089857],[31.4527523,30.1077996],[31.4518307,30.1065421],[31.45005,30.1041346],[31.4495656,30.1034617],[31.4489939,30.1026917],[31.4480102,30.1013563],[31.4468412,30.0997983],[31.4445853,30.0967442],[31.4429526,30.0944967],[31.4412846,30.092248],[31.4411531,30.0920646],[31.4398186,30.0903265],[31.439635,30.0900874],[31.4390798,30.0893401],[31.4388116,30.0889548],[31.4383556,30.0882598],[31.4381692,30.0879778],[31.4379868,30.0876738],[31.4377239,30.0871655],[31.4375053,30.0867315],[31.4373739,30.0864414],[31.4371888,30.0859796],[31.4368993,30.0851709],[31.4368196,30.0847975],[31.4355111,30.0802214]],[[31.4307811,30.1490795],[31.4309689,30.149032],[31.4311546,30.1489789],[31.431338,30.1489202],[31.431519,30.1488559],[31.4316972,30.1487862]],[[31.4216396,30.1474977],[31.4220621,30.1474762],[31.4224854,30.1474812],[31.4229071,30.1475127],[31.423325,30.1475705],[31.4237371,30.1476542],[31.4241411,30.1477634],[31.4244388,30.1478585],[31.4247299,30.1479681],[31.4250134,30.1480917],[31.4253222,30.1482385],[31.4256363,30.1483766],[31.4259555,30.1485058],[31.4262793,30.1486261],[31.426692,30.1487779],[31.4271265,30.1489078],[31.4276911,30.1490458],[31.4281933,30.1491459],[31.4288337,30.149207],[31.4291972,30.1492209],[31.4296103,30.1492279],[31.4299509,30.149214],[31.4302053,30.1491888],[31.4307811,30.1490795]],[[31.4190083,30.1482966],[31.4193733,30.148135],[31.4197322,30.1479944],[31.4201,30.147859],[31.4204757,30.147741],[31.4208582,30.1476406],[31.4212464,30.147558],[31.4216396,30.1474977]],[[31.4190984,30.1484341],[31.4194436,30.1482739],[31.4197935,30.1481371],[31.4201524,30.1480056],[31.4205191,30.1478915],[31.4208926,30.1477951],[31.4212716,30.1477167],[31.4216555,30.1476593]],[[31.4355111,30.0802214],[31.4350203,30.078946]],[[31.4357646,30.080161],[31.4368147,30.0838885],[31.4371419,30.0850953],[31.4373176,30.0856581],[31.4374369,30.0860306],[31.4375442,30.0863207],[31.4377561,30.0868209],[31.4379117,30.0871667],[31.4380887,30.0875113],[31.4382161,30.0877318],[31.438432,30.0880381],[31.4390087,30.0888713],[31.439804,30.0899702],[31.4431125,30.0944132],[31.4447519,30.096675],[31.44716,30.099935],[31.448155,30.1012728],[31.4491562,30.1026108],[31.4497191,30.1033775],[31.4502176,30.1040554],[31.4511108,30.1052732],[31.4520043,30.1064646],[31.4529181,30.1077199],[31.4537971,30.1088976],[31.4548676,30.1103202],[31.4567455,30.1128861],[31.4578464,30.1143868],[31.4589597,30.1159094],[31.4592986,30.116311],[31.4597824,30.1168857],[31.4604337,30.117635],[31.460973,30.1183412],[31.4621824,30.1200922],[31.4629313,30.1211898],[31.4635205,30.1220742],[31.4638953,30.1226129],[31.464265,30.1232171],[31.4645612,30.1237663],[31.4648104,30.1243792],[31.4649404,30.1248281],[31.4649734,30.124986],[31.4650814,30.1255023],[31.4651416,30.1261144],[31.4651701,30.1266831],[31.4651347,30.1272483],[31.465077,30.1278162],[31.4649357,30.1283639],[31.464744,30.1289453],[31.4644562,30.129588],[31.4642657,30.129951],[31.4641101,30.1302294],[31.4637234,30.130782],[31.4634518,30.1311317],[31.4632251,30.1313985],[31.4629652,30.1316634]],[[31.4352979,30.0789576],[31.4354212,30.0792755],[31.4357646,30.080161]],[[31.4360583,30.0801889],[31.4363463,30.0812207],[31.436588,30.0820839],[31.4368254,30.0829601],[31.4370628,30.08382],[31.4371915,30.0842122],[31.4374691,30.085122],[31.4376716,30.085737],[31.4378151,30.0861792],[31.4379211,30.0864461],[31.4380471,30.0867686],[31.4381383,30.0870158],[31.4382577,30.0872897],[31.4384736,30.0876552],[31.4387552,30.0880463],[31.4390423,30.0883851],[31.4392314,30.088601],[31.4393682,30.0887437],[31.4398496,30.0891893],[31.4399891,30.0893343],[31.4401447,30.0895096],[31.4410828,30.0907748],[31.4422141,30.0923104],[31.4437837,30.0944153],[31.4446515,30.0956272],[31.4452742,30.0964582],[31.4456211,30.0969458],[31.4486203,30.1010133],[31.4501721,30.1031291],[31.4506769,30.1038381],[31.4510679,30.1043775],[31.4514179,30.1049135],[31.4515989,30.10526],[31.4517258,30.1055634],[31.4518524,30.1058532],[31.4520009,30.1061212],[31.4521719,30.1063898],[31.4531045,30.1076304],[31.4535302,30.1082015],[31.4537555,30.1084753],[31.4540237,30.1087467],[31.4542276,30.1089599],[31.4548718,30.1095845],[31.4551952,30.1099266],[31.4562729,30.1113706],[31.4569292,30.1122926],[31.457155,30.1126096],[31.4573528,30.1129386],[31.457536,30.1132734],[31.457723,30.1136114],[31.457929,30.1139488],[31.4581547,30.1142376],[31.4593372,30.115733],[31.4596644,30.116139],[31.4601499,30.1167585],[31.4607241,30.117494],[31.4612408,30.1181714],[31.4617232,30.1188811],[31.4626689,30.1203068],[31.4630735,30.1209125],[31.4635214,30.1215889],[31.4645832,30.1233476],[31.4647641,30.1236571],[31.4650526,30.1243056],[31.4652072,30.124755],[31.4652531,30.1249386],[31.4654634,30.1262827],[31.4654714,30.1266852],[31.4654287,30.1272588],[31.465359,30.1278189],[31.4653373,30.1279369],[31.4653183,30.1280191],[31.4652307,30.1284495],[31.4651912,30.1286152],[31.4651457,30.1287797],[31.4650943,30.1289429],[31.4650369,30.1291046],[31.4649737,30.1292647],[31.4649047,30.1294229],[31.4646582,30.1299365],[31.4643731,30.1304327],[31.4641048,30.1308732],[31.4638393,30.1312326],[31.4631325,30.131924]],[[31.4625475,30.1320577],[31.4623399,30.1322348],[31.4620046,30.1324946],[31.4616104,30.1327788],[31.4612751,30.1329806],[31.4608875,30.1331917],[31.4605482,30.1333668],[31.4601834,30.1335304],[31.4598737,30.1336522],[31.4595719,30.1337693],[31.4592527,30.1338714],[31.4590208,30.1339393],[31.4589321,30.1339653],[31.4584788,30.1340837],[31.4579803,30.1342097],[31.4576554,30.1342506],[31.4573349,30.1342808],[31.4569995,30.1343028],[31.4564779,30.1343296],[31.4535396,30.1344223],[31.4511819,30.1345116],[31.4506334,30.1345173],[31.4468949,30.1344156],[31.4451966,30.1343713],[31.4442256,30.1343922],[31.4438179,30.134427],[31.4434665,30.1344664],[31.4429722,30.134563],[31.4426198,30.1346571],[31.4423085,30.1347592],[31.4419389,30.1348969],[31.4415256,30.1350744],[31.4412549,30.1352068],[31.4409766,30.1353634],[31.4406963,30.1355371],[31.4404499,30.1357096],[31.4402714,30.1358408],[31.4399246,30.1361298],[31.4397336,30.136307],[31.4395402,30.136502],[31.4392682,30.1368077],[31.4389135,30.1372361],[31.4387544,30.1374541],[31.4385729,30.1377243],[31.4384434,30.1379285],[31.4383462,30.1380932],[31.4382376,30.1382985],[31.4380506,30.1386647],[31.4380002,30.1387634],[31.437485,30.1399509],[31.4369968,30.1411],[31.4369331,30.14125],[31.4365223,30.1422167],[31.4360716,30.1432948],[31.435672,30.1444717],[31.4354655,30.1450831],[31.4352765,30.1455803],[31.4351081,30.1459894],[31.4349783,30.1462604],[31.4348349,30.1465263],[31.4346784,30.1467866],[31.4345089,30.1470407],[31.4343363,30.1472909],[31.4339496,30.1477268],[31.4336513,30.1480426],[31.433555,30.1481307],[31.4334563,30.1482168],[31.4333413,30.1483113],[31.4332233,30.148403],[31.4331023,30.1484917],[31.4329784,30.1485774],[31.4328258,30.1486761],[31.4326693,30.1487702],[31.4325091,30.1488595],[31.4323454,30.1489439],[31.4321785,30.1490234],[31.4320084,30.1490977]],[[31.4629652,30.1316634],[31.4625475,30.1320577]],[[31.4624096,30.1319461],[31.462823,30.1315499]],[[31.4318457,30.1489317],[31.4322383,30.1487454],[31.4326435,30.1485024],[31.4329592,30.1483031],[31.4332868,30.1480527],[31.4335886,30.1477795],[31.4338355,30.1475271],[31.4340647,30.1472626],[31.4342754,30.1469867],[31.4344669,30.1467006],[31.434736,30.1461721],[31.4350151,30.1455661],[31.4352938,30.1449609],[31.43555,30.1443375],[31.4359393,30.1432501],[31.4363774,30.1421722],[31.4365475,30.1417275],[31.4366914,30.1413722],[31.4367598,30.1412033],[31.4372355,30.1400284],[31.4373041,30.1397997],[31.4377312,30.1388749],[31.4377803,30.1387694],[31.4379452,30.1384295],[31.4380887,30.1381466],[31.438259,30.1378485],[31.438424,30.137569],[31.4386251,30.1372848],[31.4388384,30.1370075],[31.4392383,30.1365604],[31.4394587,30.1363341],[31.4397254,30.1360813],[31.4400368,30.1358089],[31.4403177,30.1355946],[31.4406244,30.1353888],[31.4409023,30.135219],[31.4411935,30.1350565],[31.4415091,30.1348959],[31.4418867,30.1347332],[31.4423245,30.1345736],[31.4426914,30.1344618],[31.4429971,30.1343875],[31.4434102,30.134304],[31.443724,30.1342669],[31.44407,30.1342321],[31.4446655,30.1342043],[31.4509431,30.1340522],[31.4515017,30.1340566],[31.4517727,30.1340643],[31.4522455,30.1340778],[31.4532023,30.1340998],[31.4557607,30.1341551],[31.4564535,30.1341442],[31.4570009,30.1341451],[31.4573107,30.1341196],[31.4576125,30.1340837],[31.4580042,30.1340141],[31.4584239,30.1339305],[31.4588664,30.1338041],[31.4591722,30.1337264],[31.4594766,30.1336278],[31.459761,30.1335177],[31.4600909,30.1333982],[31.4604543,30.1332289],[31.4607922,30.1330665],[31.4611731,30.1328588],[31.4615031,30.1326466],[31.4618397,30.1324158],[31.4623064,30.1320307],[31.4624096,30.1319461]],[[31.4092147,30.1547095],[31.4133134,30.1519121],[31.413927,30.1515249],[31.4140752,30.1514366],[31.4145495,30.1511667],[31.4150337,30.1509104],[31.415546,30.1506191],[31.4168483,30.1498773],[31.4170579,30.1497557],[31.4172654,30.1496315],[31.4175034,30.1494843],[31.4177387,30.1493337],[31.4184467,30.1488224],[31.4186013,30.1487206],[31.4187563,30.1486239],[31.4189181,30.1485325],[31.4190984,30.1484341]],[[31.4140752,30.1514366],[31.4140959,30.1513922],[31.4141224,30.1513506],[31.4141542,30.1513119],[31.4141915,30.1512758],[31.4142334,30.1512436],[31.4146516,30.1509859],[31.4159359,30.1502259],[31.4166283,30.1498161],[31.4167307,30.1497606],[31.4169301,30.1496558],[31.4171514,30.149519],[31.4175551,30.1492511],[31.4183288,30.148706],[31.4184865,30.1485984],[31.4186449,30.1484965],[31.4188106,30.1484002],[31.4189087,30.1483473],[31.4190083,30.1482966]],[[31.4048291,30.1587784],[31.4045945,30.1589387],[31.4043163,30.1591143],[31.404299517249008,30.15912410125439]],[[31.404026936506394,30.15886878552387],[31.4040658,30.1588438],[31.4042478,30.1587188],[31.4043872,30.158611],[31.4045208,30.1584979]],[[31.4094697,30.1549607],[31.4086594,30.1555208]],[[31.4086594,30.1555208],[31.4084708,30.1556418],[31.4082686,30.1557692],[31.4080719,30.1559028],[31.4078809,30.1560425],[31.4076959,30.156188],[31.407517,30.1563392],[31.4072368,30.1565941],[31.406128,30.1576336],[31.4053953,30.1583055],[31.4048291,30.1587784]],[[31.4045208,30.1584979],[31.4059493,30.1573469],[31.406216,30.157132],[31.4065904,30.156813],[31.4076253,30.1559398],[31.4080238,30.1556059],[31.4084291,30.1552715]],[[31.4158531,30.150747],[31.4139949,30.1517705],[31.4126395,30.1527397],[31.4094697,30.1549607]],[[31.435267,30.0802446],[31.4347366,30.078964]],[[31.4355567,30.0789333],[31.4356742,30.0792274],[31.4360583,30.0801889]],[[32.2486985,30.6140212],[32.2493463,30.6142169],[32.2504697,30.6145564],[32.2506225,30.6146034],[32.2506753,30.6146196],[32.2507523,30.6146403],[32.2509174,30.6146848],[32.2512869,30.6147726],[32.2516221,30.6148522],[32.2521794,30.6149607],[32.2530678,30.615117],[32.2534234,30.6151818],[32.2550991,30.615479],[32.2559121,30.6156227],[32.2560947,30.6156567],[32.2563029,30.6156956],[32.2564269,30.6157187],[32.2565676,30.615745],[32.2597647,30.6163376],[32.263106,30.6169389],[32.2636284,30.6170513],[32.2690374,30.6180168],[32.2691625,30.6180396],[32.2694412,30.6180902],[32.270026,30.6182087],[32.2705945,30.6183129],[32.2718452,30.6185344],[32.274106,30.6189348],[32.27435,30.618979],[32.2747717,30.6190525],[32.2763327,30.6193372],[32.276824,30.6194258],[32.279003,30.6198363],[32.2793318,30.6198982],[32.2815149,30.6203094],[32.2816958,30.6203435],[32.2822672,30.620446],[32.2837758,30.620729],[32.2847859,30.6209236],[32.2850735,30.620978],[32.2852611,30.6210134],[32.2857927,30.6211103],[32.2858064,30.6211151],[32.2863334,30.6212171],[32.2884153,30.6216091],[32.2887894,30.6216796],[32.2895452,30.6218219],[32.2898617,30.621875],[32.2900468,30.6218935],[32.2902086,30.6219028],[32.290378,30.6218842],[32.2904699,30.6218665],[32.2906372,30.6218342],[32.2906829,30.6218274],[32.2907791,30.6218197],[32.2909561,30.6218162],[32.291317,30.6218383],[32.2914762,30.6218383],[32.2916338,30.6218188],[32.2917865,30.6217802],[32.2919312,30.6217232],[32.2921886,30.6216165],[32.2925306,30.6214295],[32.292617,30.6213727],[32.2928359,30.6212221],[32.2928806,30.6211918],[32.2936966,30.6206009],[32.2937509,30.6205616],[32.2948592,30.6197592],[32.2954247,30.6193498],[32.2958793,30.6190258],[32.3005455,30.6156478],[32.3008434,30.6154322],[32.3021243,30.6145149],[32.3023855,30.6143279],[32.3025972,30.6141757],[32.3026141,30.6141636],[32.302935,30.6139294],[32.3035002,30.6135169],[32.3039795,30.6131671],[32.3042579,30.6129648],[32.3044383,30.6128337],[32.3059094,30.6117647],[32.3060448,30.6116689],[32.3062246,30.6115501],[32.3067635,30.6112082],[32.3070521,30.6110251],[32.3071261,30.6109785],[32.30765,30.6106478],[32.3079176,30.6104872],[32.308098,30.6103783],[32.3083367,30.6102385],[32.3087096,30.61002],[32.3101791,30.6091174],[32.3102138,30.6090813],[32.3102414,30.6090409],[32.3102614,30.6089973],[32.3102731,30.6089516],[32.3102765,30.6089092],[32.3102728,30.6088668],[32.3102622,30.6088254],[32.3101069,30.6085165],[32.3100817,30.6084693],[32.3100609,30.6084205],[32.3100419,30.6083606],[32.3100293,30.6082995],[32.3100233,30.6082377]],[[31.4084291,30.1552715],[31.4092147,30.1547095]],[[31.4367074,30.1405693],[31.4367431,30.1404817],[31.4374743,30.1386865],[31.4377521,30.1380654],[31.4379576,30.137689],[31.4380419,30.1375309],[31.4380935,30.1374469],[31.4381338,30.1373888],[31.4382157,30.1372773],[31.4382957,30.1371723],[31.4384068,30.137031],[31.4385743,30.1368259],[31.4388238,30.1365473],[31.4389835,30.1363693],[31.4392685,30.1360855],[31.4394593,30.1359203],[31.4395894,30.1358171],[31.4396959,30.1357379],[31.4398087,30.1356597],[31.4399522,30.135567],[31.4401823,30.1354194],[31.4404015,30.1352781],[31.4407609,30.1350654],[31.4410298,30.1349153],[31.4414189,30.1347183],[31.4416319,30.134627],[31.4419035,30.1345203],[31.4420698,30.1344641],[31.4422408,30.1344101],[31.4424956,30.1343394],[31.4429636,30.1342246],[31.4431137,30.1341906],[31.4431869,30.1341741],[31.4434196,30.1341277],[31.4436154,30.1340958],[31.4438682,30.134061],[31.4441029,30.1340384],[31.44429,30.1340222],[31.4444559,30.1340167],[31.4446192,30.134014],[31.4448144,30.1340129],[31.4450008,30.134014],[31.445552,30.1340245],[31.4459664,30.1340256],[31.4463808,30.1340187],[31.4468113,30.1340059],[31.4473061,30.1339827],[31.447742,30.1339665],[31.4479096,30.1339549],[31.4481202,30.1339375],[31.4485574,30.1338946],[31.4490496,30.1338435],[31.4495622,30.1337892],[31.4497727,30.1337608],[31.4499847,30.1337431],[31.4501976,30.1337363],[31.4504106,30.1337402],[31.4553539,30.1339007],[31.455737,30.1339138],[31.4560918,30.1339161],[31.456452,30.13389],[31.4568085,30.1338382],[31.4571588,30.1337609],[31.4575004,30.1336588],[31.4578311,30.1335324],[31.4581485,30.1333828],[31.4584504,30.1332109],[31.4587058,30.1330392],[31.4589414,30.1328474],[31.4591577,30.1326392],[31.4593531,30.1324162],[31.4595263,30.1321797],[31.459676,30.1319316],[31.459828,30.1317013],[31.4599849,30.1314601],[31.4601297,30.1312201],[31.4602804,30.1309903],[31.4604825,30.1307885],[31.4607037,30.1306024],[31.4609425,30.1304332],[31.461197,30.1302822],[31.4614654,30.1301504],[31.4617458,30.1300389],[31.4619926,30.1299555],[31.462234,30.1298744],[31.4624649,30.1297729],[31.4626829,30.1296518],[31.4629181,30.1295201],[31.46314,30.1293723],[31.4633498,30.1292118],[31.4635466,30.1290395],[31.4637296,30.1288561],[31.4638977,30.1286623],[31.4640504,30.1284593],[31.4641868,30.1282477],[31.4643069,30.1280288],[31.4644262,30.1277329],[31.4645175,30.1274295],[31.4645802,30.1271208],[31.464614,30.1268088],[31.4646187,30.1264954],[31.4646091,30.1261765],[31.4645726,30.1258566],[31.4645347,30.125538],[31.4644812,30.125221],[31.4644122,30.1249063],[31.4643279,30.1245944],[31.4642284,30.1242859],[31.4641139,30.1239812],[31.4639586,30.1236954],[31.4637253,30.1233149],[31.4634127,30.1227904],[31.461562,30.1203263],[31.4597422,30.1178744],[31.4594954,30.1175079],[31.4579317,30.1152759],[31.4565029,30.1132269],[31.4564189,30.1131065],[31.4464358,30.0996704],[31.4458045,30.0988231],[31.4443616,30.0968371],[31.4427651,30.0946777],[31.4423346,30.0941695],[31.4412776,30.092775],[31.4396711,30.0905592],[31.4390731,30.089788],[31.438204,30.0885441],[31.4374423,30.087133],[31.4369488,30.0860654],[31.4366054,30.0849607],[31.4365081,30.0846041],[31.4355353,30.0810418],[31.4352765,30.0802728],[31.435267,30.0802446]],[[31.409737785699964,30.052110822639705],[31.4099833,30.0523977],[31.4130744,30.0560407],[31.4150468,30.05838],[31.4161447,30.0596821],[31.4182403,30.0621799],[31.4189967,30.0630214],[31.4196829,30.063711],[31.41997167714368,30.063984820785116]],[[31.42293842461324,30.066248061083176],[31.4241131,30.0670257],[31.4249271,30.0675619],[31.4254515,30.067931],[31.4260295,30.0683663],[31.4265968,30.0688305],[31.428355,30.07046],[31.4284591,30.0705578],[31.4290068,30.0710728],[31.4301361,30.0721135],[31.4308883,30.0728079],[31.4316112,30.0735274],[31.4319897,30.0739252],[31.4324091,30.0743955],[31.4329523,30.0750478],[31.4334874,30.0757696],[31.4340198,30.0765658],[31.4348124,30.0779433],[31.4352979,30.0789576]],[[31.41009063989032,30.05217899482675],[31.4109702,30.0532064],[31.4117963,30.0542462],[31.4128184,30.0554586],[31.4135371,30.0563112],[31.414736,30.0577184],[31.4157513,30.0589102],[31.4162847,30.059566],[31.4177595,30.0612998],[31.418117,30.0616599],[31.4184362,30.061935],[31.4188962,30.0622937],[31.4190678,30.0624329],[31.4192559,30.0626197],[31.4193599,30.0627391],[31.4197585,30.0632501],[31.4201018,30.0636969],[31.4203593,30.0639987],[31.4204822,30.0641198],[31.4208046,30.0644374],[31.4211739,30.0647558],[31.4216883,30.0651408],[31.4222877,30.0655537],[31.4234342,30.0663213],[31.4244869,30.0670308],[31.4251444,30.0674644],[31.4258015,30.0679159],[31.4262836,30.0682868],[31.4271299,30.0690092],[31.4283663,30.0700757],[31.4287466,30.0704124],[31.4292482,30.0709016],[31.4300786,30.071699],[31.4301239,30.0717389],[31.4304173,30.0720256],[31.4304813,30.0720881],[31.4309738,30.0725976],[31.4310966,30.0727318],[31.4315736,30.0732327],[31.4325902,30.0743329],[31.4329947,30.0747691],[31.4334458,30.0753193],[31.4337274,30.0756954],[31.4341378,30.0763],[31.4350504,30.077912],[31.4354072,30.0786083],[31.4355567,30.0789333]],[[31.4638393,30.1312326],[31.4636595,30.1315632],[31.4635738,30.1317894],[31.4635079,30.1320898],[31.463524,30.1323114],[31.4636796,30.133172],[31.4638311,30.1340697],[31.4638286,30.1341903],[31.4637857,30.1343841]],[[31.4216555,30.1476593],[31.4220629,30.1476308],[31.4224717,30.1476293],[31.4228794,30.147655],[31.4232836,30.1477077],[31.423682,30.1477871],[31.4240721,30.1478926],[31.4244561,30.1480243],[31.4249218,30.1482329],[31.4253187,30.1484034],[31.4257425,30.1485779],[31.4260778,30.1487107],[31.4264452,30.1488359],[31.4268958,30.1489843],[31.4276335,30.1491931],[31.4281141,30.1493024],[31.4281961,30.1493211],[31.4285121,30.1493678],[31.4288305,30.1493997],[31.4291505,30.1494166],[31.4294711,30.1494186],[31.4297913,30.1494056],[31.4301102,30.1493777],[31.430427,30.1493349],[31.4307406,30.1492774],[31.4310501,30.1492053]],[[31.4310501,30.1492053],[31.4312541,30.1491485],[31.431455,30.1490839],[31.4316523,30.1490116],[31.4318457,30.1489317]],[[31.4316972,30.1487862],[31.4321325,30.1485716],[31.4324937,30.1483698],[31.4327592,30.1482027],[31.4330356,30.1479986],[31.4333922,30.1476878],[31.4336899,30.1473933],[31.4339823,30.1470639],[31.4342826,30.1466139],[31.4345777,30.1459738],[31.4351803,30.1443979],[31.4353616,30.1439237],[31.4362833,30.1416342],[31.4367074,30.1405693]],[[31.4627116,30.1322963],[31.4618075,30.1329771],[31.4609635,30.133489],[31.4599514,30.1339143],[31.4589107,30.1342019],[31.4578539,30.1344246],[31.4569902,30.1345406],[31.4556167,30.1345941],[31.4552006,30.1346103],[31.4515078,30.134754],[31.44889,30.1347308],[31.4440566,30.1346241],[31.442914,30.1347494],[31.4421201,30.1349767],[31.4412564,30.1353803],[31.440441,30.1358907],[31.4396632,30.1366098],[31.4393903,30.1369218],[31.4391967,30.1371487],[31.4390127,30.1373816],[31.4388388,30.1376201],[31.4386752,30.1378641],[31.438522,30.138113],[31.4383795,30.1383667],[31.4382478,30.1386247],[31.4381272,30.1388867],[31.4374745,30.1407108],[31.4371634,30.1415053],[31.4370875,30.1416918],[31.4369877,30.1419135],[31.4368911,30.1421165],[31.4367664,30.1423554],[31.4364794,30.1428263],[31.4362327,30.1432994],[31.435672,30.1444717]],[[31.4631325,30.131924],[31.4627116,30.1322963]],[[31.4312515,30.1493663],[31.431084,30.1494113],[31.4307906,30.1494685],[31.4303877,30.1495317],[31.4301006,30.149568],[31.4298117,30.1495909],[31.4295218,30.1496026],[31.4292317,30.1496033],[31.4289418,30.1495928],[31.4286525,30.149573],[31.4282694,30.1495239],[31.428034,30.1494831],[31.4278896,30.149458],[31.4275142,30.1493753],[31.4271443,30.1492761],[31.4267807,30.1491606],[31.4264831,30.1490644],[31.4261953,30.1489661],[31.4253919,30.1486848]],[[31.4320084,30.1490977],[31.4318248,30.1491761],[31.4316371,30.149247],[31.4314459,30.1493104],[31.4312515,30.1493663]],[[31.4347366,30.078964],[31.4343591,30.0781905],[31.4339794,30.0774349],[31.4338012,30.0770996],[31.4337328,30.0769707],[31.4335638,30.0766899],[31.4330708,30.0759417],[31.4326438,30.075324],[31.4322107,30.0747484],[31.431343,30.0738895],[31.431273695733957,30.07382568943023]],[[31.462823,30.1315499],[31.4632559,30.1310459],[31.463462,30.1307989],[31.463802,30.130313],[31.4640659,30.1299231],[31.4642528,30.129609],[31.4643546,30.1294035],[31.4644728,30.1291255],[31.4644929,30.1290782],[31.4647627,30.1283356],[31.4648987,30.1277907],[31.4649663,30.1272307],[31.4649989,30.1266633],[31.4649689,30.1261379],[31.4649078,30.1255051],[31.4647827,30.1248764],[31.4646413,30.1244274],[31.4643972,30.1238284],[31.4640996,30.1232885],[31.4637353,30.1226807],[31.4633297,30.1221638],[31.4609117,30.1191342],[31.4602892,30.1182918],[31.4599935,30.1178509],[31.4594739,30.1170375],[31.4591038,30.1164406],[31.4587951,30.1159824],[31.4576789,30.114459],[31.4573832,30.1140565]]]}}]}