{
"type": "FeatureCollection",
"name": "Study_Area_Sector",
"crs": { "type": "name", "properties": { "name": "urn:ogc:def:crs:OGC:1.3:CRS84" } },
"xy_coordinate_resolution": 1e-06,
"features": [
{"type":"Feature","properties":{"اسم_المحور":"2","مساحة_المنطقة_كم2":2583.7616969738338,"اسم_القطاع":"10","نوع_المحور":null,"طول_المحور":null,"الحرم_المكاني_للمحور":null,"نوع_الرسم":null,"sector":null,"GlobalID":"{10425DB7-B38C-45C3-83EE-8A46857377E3}","Shape_Length":337484.26009307435,"Shape_Area":2583761696.9738336},"geometry":{"type":"Polygon","coordinates":[[[32.091538,30.640112],[32.091547,30.640129],[32.091548,30.64013],[32.091558,30.640149],[32.091566,30.640165],[32.091567,30.640166],[32.091575,30.640181],[32.091595,30.640218],[32.0916,30.640227],[32.091604,30.640233],[32.091607,30.64024],[32.091618,30.64026],[32.091637,30.640296],[32.091638,30.640297],[32.091658,30.640334],[32.091667,30.640352],[32.091667,30.640353],[32.091677,30.640371],[32.091687,30.640389],[32.091697,30.640408],[32.091706,30.640426],[32.091706,30.640427],[32.091716,30.640445],[32.091717,30.640447],[32.091726,30.640464],[32.091732,30.640475],[32.09174,30.640491],[32.091745,30.640501],[32.091764,30.640537],[32.091765,30.640538],[32.091767,30.640543],[32.09177,30.640549],[32.091773,30.640554],[32.091775,30.640559],[32.091778,30.640564],[32.091781,30.640569],[32.091784,30.640575],[32.091784,30.640576],[32.091787,30.640581],[32.091789,30.640586],[32.091792,30.640591],[32.091795,30.640596],[32.091798,30.640602],[32.0918,30.640607],[32.091803,30.640612],[32.091803,30.640613],[32.091806,30.640618],[32.091809,30.640623],[32.091811,30.640629],[32.091814,30.640634],[32.091817,30.640639],[32.091819,30.640644],[32.091822,30.64065],[32.091823,30.64065],[32.091825,30.640656],[32.091828,30.640661],[32.091831,30.640666],[32.091833,30.640671],[32.091836,30.640677],[32.091839,30.640682],[32.091841,30.640687],[32.091842,30.640688],[32.091844,30.640693],[32.091847,30.640698],[32.09185,30.640704],[32.091852,30.640709],[32.091855,30.640714],[32.091858,30.64072],[32.09186,30.640725],[32.091861,30.640725],[32.091863,30.640731],[32.091866,30.640736],[32.091869,30.640741],[32.091871,30.640747],[32.091874,30.640752],[32.091877,30.640757],[32.091879,30.640762],[32.09188,30.640763],[32.091882,30.640768],[32.091885,30.640773],[32.091888,30.640779],[32.09189,30.640784],[32.091893,30.640789],[32.091896,30.640795],[32.091898,30.6408],[32.091899,30.6408],[32.091901,30.640806],[32.091904,30.640811],[32.091907,30.640816],[32.091909,30.640822],[32.091912,30.640827],[32.091915,30.640832],[32.091917,30.640838],[32.09192,30.640843],[32.091923,30.640849],[32.091925,30.640854],[32.091928,30.640859],[32.091931,30.640865],[32.091933,30.64087],[32.091936,30.640876],[32.092002,30.64101],[32.092067,30.641144],[32.092132,30.641279],[32.092195,30.641414],[32.092257,30.641549],[32.092318,30.641685],[32.092379,30.641821],[32.092422,30.64192],[32.092465,30.64202],[32.092507,30.642119],[32.092549,30.642219],[32.09259,30.642319],[32.092631,30.642419],[32.092672,30.642519],[32.092773,30.642778],[32.09287,30.643038],[32.092965,30.643298],[32.093055,30.64356],[32.093142,30.643822],[32.093226,30.644085],[32.093306,30.644349],[32.093351,30.644501],[32.093394,30.644654],[32.093437,30.644807],[32.093478,30.64496],[32.093518,30.645113],[32.093556,30.645267],[32.093594,30.645421],[32.093659,30.645696],[32.09372,30.645973],[32.093778,30.646249],[32.093831,30.646527],[32.093881,30.646805],[32.093927,30.647083],[32.09397,30.647362],[32.093975,30.647394],[32.093979,30.647426],[32.093984,30.647458],[32.093988,30.647489],[32.093992,30.647521],[32.093997,30.647553],[32.094001,30.647585],[32.094006,30.647624],[32.094012,30.647663],[32.094017,30.647702],[32.094022,30.647741],[32.094027,30.64778],[32.094031,30.647819],[32.094036,30.647858],[32.094057,30.648039],[32.094077,30.648219],[32.094095,30.648399],[32.094111,30.64858],[32.094126,30.64876],[32.094139,30.648941],[32.09415,30.649122],[32.094169,30.649493],[32.094182,30.649864],[32.094187,30.650235],[32.094186,30.650606],[32.094179,30.650977],[32.094165,30.651348],[32.094144,30.651719],[32.094125,30.653169],[32.09411,30.654314],[32.094077,30.656867],[32.09406,30.65816],[32.094059,30.658224],[32.094304,30.658314],[32.098039,30.659695],[32.09877,30.659965],[32.10646,30.662806],[32.111839,30.664794],[32.112469,30.665027],[32.113247,30.665314],[32.114148,30.665647],[32.114978,30.665954],[32.115312,30.666077],[32.124271,30.665901],[32.12439,30.665898],[32.124527,30.665896],[32.126417,30.665858],[32.127616,30.665835],[32.136648,30.665656],[32.157984,30.665235],[32.173005,30.664939],[32.18312,30.66404],[32.1832,30.664033],[32.183291,30.664025],[32.184089,30.663951],[32.184642,30.6639],[32.185079,30.66386],[32.185351,30.663835],[32.185507,30.66382],[32.186014,30.663773],[32.186598,30.663719],[32.18715,30.663668],[32.187445,30.663641],[32.187717,30.663616],[32.187772,30.66361],[32.187828,30.663606],[32.187883,30.663602],[32.187939,30.6636],[32.187995,30.663599],[32.18805,30.663599],[32.188106,30.663601],[32.188776,30.663597],[32.189623,30.663592],[32.189779,30.663592],[32.190148,30.66359],[32.191098,30.663584],[32.191747,30.663581],[32.192006,30.66358],[32.192638,30.663576],[32.193399,30.663572],[32.194057,30.663569],[32.194086,30.663569],[32.194616,30.663566],[32.195389,30.663562],[32.196404,30.663556],[32.196428,30.663556],[32.196541,30.663556],[32.197498,30.663549],[32.197587,30.663548],[32.197622,30.663548],[32.198062,30.663545],[32.198679,30.663547],[32.198704,30.663547],[32.199734,30.663541],[32.200698,30.663535],[32.200814,30.663534],[32.201926,30.66353],[32.20294,30.663527],[32.204316,30.663523],[32.205092,30.663521],[32.206017,30.663518],[32.20633,30.663518],[32.206724,30.663519],[32.207225,30.663516],[32.207726,30.663513],[32.208748,30.663508],[32.209668,30.663504],[32.209693,30.663504],[32.210753,30.663498],[32.211548,30.663493],[32.211616,30.663493],[32.211878,30.663491],[32.211904,30.663491],[32.212794,30.663487],[32.213742,30.663485],[32.214874,30.663478],[32.215857,30.663474],[32.216256,30.663472],[32.216419,30.663471],[32.216589,30.66347],[32.218149,30.663466],[32.219252,30.663459],[32.219604,30.663457],[32.219724,30.663456],[32.220467,30.663454],[32.220805,30.663452],[32.221136,30.66345],[32.221217,30.66345],[32.221935,30.663449],[32.222427,30.663449],[32.223002,30.663446],[32.223967,30.663441],[32.224856,30.663436],[32.225467,30.663435],[32.225864,30.663432],[32.226006,30.663431],[32.226304,30.663433],[32.226327,30.663432],[32.226349,30.66343],[32.226371,30.663428],[32.226393,30.663424],[32.226415,30.663419],[32.226436,30.663413],[32.226457,30.663406],[32.227973,30.662954],[32.229012,30.662645],[32.2291,30.662619],[32.230181,30.662287],[32.231338,30.661935],[32.231952,30.661748],[32.232474,30.661589],[32.232967,30.661442],[32.234182,30.66107],[32.234421,30.661016],[32.234624,30.660969],[32.234656,30.660997],[32.234884,30.661197],[32.234981,30.661179],[32.235493,30.661084],[32.238124,30.660594],[32.238201,30.66058],[32.238391,30.660544],[32.238757,30.660476],[32.23899,30.660433],[32.239691,30.660302],[32.241163,30.660028],[32.241179,30.660025],[32.241089,30.659669],[32.241014,30.65937],[32.241024,30.659369],[32.246224,30.659127],[32.246325,30.659122],[32.246381,30.65912],[32.246389,30.659195],[32.24639,30.659204],[32.246406,30.659363],[32.246551,30.660826],[32.24662,30.66153],[32.246666,30.661505],[32.248088,30.660739],[32.248943,30.660279],[32.249142,30.660171],[32.249913,30.659756],[32.250114,30.659648],[32.250282,30.659557],[32.250343,30.659525],[32.250823,30.660184],[32.250836,30.660177],[32.251138,30.660006],[32.251188,30.659977],[32.252394,30.659294],[32.253979,30.658397],[32.254952,30.657846],[32.25582,30.657354],[32.256841,30.656776],[32.256768,30.656593],[32.256535,30.656018],[32.256478,30.655878],[32.256612,30.655796],[32.259173,30.654233],[32.259372,30.653999],[32.259967,30.653299],[32.260265,30.652949],[32.259892,30.651419],[32.259078,30.644416],[32.259046,30.644149],[32.258596,30.643201],[32.257552,30.641004],[32.249206,30.630594],[32.249492,30.630274],[32.249717,30.630023],[32.250053,30.629647],[32.251041,30.628544],[32.251365,30.628485],[32.251935,30.628381],[32.252904,30.628298],[32.253549,30.628252],[32.254348,30.628238],[32.256984,30.628192],[32.262989,30.628014],[32.270666,30.629561],[32.276764,30.631683],[32.277508,30.631709],[32.281743,30.631852],[32.287806,30.629561],[32.288867,30.628306],[32.289588,30.627453],[32.2901,30.626848],[32.290621,30.626232],[32.290869,30.625939],[32.295084,30.622953],[32.29338,30.621172],[32.293266,30.621052],[32.293377,30.620974],[32.293405,30.620954],[32.293425,30.62094],[32.293585,30.620827],[32.293616,30.620805],[32.306884,30.611407],[32.310531,30.609378],[32.310833,30.60921],[32.311361,30.608916],[32.316981,30.607771],[32.311211,30.59838],[32.310173,30.596057],[32.308506,30.592325],[32.306475,30.592355],[32.306107,30.592361],[32.305478,30.59237],[32.303792,30.5918],[32.303344,30.591648],[32.302289,30.591324],[32.298985,30.590308],[32.297105,30.58973],[32.294505,30.588898],[32.294016,30.588741],[32.29221,30.588163],[32.291492,30.587916],[32.291126,30.587783],[32.290961,30.587723],[32.29078,30.58769],[32.290446,30.587628],[32.290124,30.587609],[32.286839,30.587889],[32.286622,30.587907],[32.284893,30.588633],[32.283559,30.589958],[32.282883,30.590629],[32.280101,30.590895],[32.277003,30.59005],[32.276661,30.589957],[32.271957,30.588674],[32.267283,30.587399],[32.262903,30.586204],[32.259641,30.584329],[32.259593,30.584301],[32.259286,30.584125],[32.258382,30.583605],[32.258367,30.583597],[32.258419,30.583462],[32.258498,30.583259],[32.259057,30.581816],[32.259988,30.579594],[32.260428,30.578543],[32.260661,30.578205],[32.26092,30.577882],[32.261206,30.577576],[32.261515,30.577288],[32.261848,30.57702],[32.262201,30.576773],[32.262574,30.576548],[32.262964,30.576346],[32.263369,30.576168],[32.270588,30.572379],[32.272068,30.570928],[32.272918,30.570095],[32.272925,30.570087],[32.272933,30.57008],[32.27294,30.570072],[32.272948,30.570064],[32.272955,30.570057],[32.272963,30.570049],[32.272971,30.570041],[32.272978,30.570034],[32.272986,30.570026],[32.272994,30.570019],[32.273002,30.570011],[32.27301,30.570004],[32.273018,30.569997],[32.273026,30.569989],[32.27303,30.569986],[32.273034,30.569982],[32.273038,30.569978],[32.273042,30.569975],[32.273046,30.569971],[32.27305,30.569968],[32.273054,30.569964],[32.273164,30.569874],[32.273281,30.56979],[32.273404,30.569714],[32.273533,30.569645],[32.273667,30.569583],[32.273805,30.56953],[32.273948,30.569485],[32.274093,30.569448],[32.274241,30.56942],[32.274391,30.569401],[32.274543,30.56939],[32.274694,30.569389],[32.274846,30.569396],[32.274851,30.569397],[32.274857,30.569397],[32.274863,30.569398],[32.274869,30.569398],[32.274875,30.569399],[32.27488,30.569399],[32.274886,30.5694],[32.2749,30.569401],[32.274913,30.569402],[32.274927,30.569404],[32.27494,30.569405],[32.274954,30.569407],[32.274967,30.569409],[32.27498,30.56941],[32.274992,30.569412],[32.275003,30.569414],[32.275015,30.569415],[32.275026,30.569417],[32.275038,30.569419],[32.275049,30.56942],[32.275061,30.569422],[32.275214,30.569452],[32.275365,30.569491],[32.275512,30.56954],[32.275654,30.569597],[32.275792,30.569663],[32.275924,30.569737],[32.276049,30.569818],[32.276589,30.570193],[32.277776,30.571017],[32.285152,30.561056],[32.286447,30.557946],[32.286343,30.55692],[32.286279,30.556283],[32.286293,30.556091],[32.286322,30.555901],[32.286365,30.555713],[32.286423,30.555528],[32.286495,30.555346],[32.28658,30.555169],[32.286679,30.554997],[32.286791,30.554832],[32.286916,30.554673],[32.287052,30.554522],[32.2872,30.554378],[32.287855,30.553824],[32.288207,30.553527],[32.288911,30.552932],[32.289833,30.551559],[32.289898,30.551462],[32.290281,30.550892],[32.290408,30.55073],[32.290548,30.550576],[32.290699,30.550431],[32.290861,30.550294],[32.291033,30.550167],[32.291214,30.55005],[32.291404,30.549945],[32.291602,30.54985],[32.291807,30.549767],[32.292018,30.549696],[32.292234,30.549637],[32.292453,30.549591],[32.292676,30.549558],[32.292901,30.549538],[32.293127,30.549531],[32.293353,30.549537],[32.293578,30.549556],[32.293926,30.549542],[32.294273,30.54955],[32.294619,30.549579],[32.294962,30.54963],[32.2953,30.549701],[32.295631,30.549794],[32.295953,30.549906],[32.296266,30.550039],[32.296566,30.55019],[32.297385,30.550433],[32.298472,30.550755],[32.299774,30.550709],[32.301703,30.55043],[32.303772,30.550271],[32.304302,30.550085],[32.305796,30.549561],[32.305901,30.549524],[32.306681,30.549251],[32.306864,30.549039],[32.307073,30.548797],[32.307681,30.548094],[32.308502,30.547144],[32.310733,30.544668],[32.311018,30.544351],[32.314558,30.540296],[32.31484,30.539974],[32.315974,30.538675],[32.316,30.538645],[32.316546,30.53802],[32.318645,30.535616],[32.320932,30.532998],[32.32128,30.532599],[32.321328,30.532543],[32.325453,30.52782],[32.327087,30.525948],[32.327272,30.525736],[32.327317,30.525685],[32.327457,30.525524],[32.329067,30.52368],[32.33045,30.522096],[32.333921,30.516331],[32.338695,30.502858],[32.341361,30.488017],[32.345103,30.469609],[32.351201,30.44078],[32.356718,30.411834],[32.355903,30.412252],[32.355761,30.413105],[32.353271,30.413092],[32.353266,30.413877],[32.354592,30.413884],[32.355631,30.413889],[32.355642,30.413978],[32.355647,30.414067],[32.355645,30.414156],[32.355635,30.414244],[32.355619,30.414333],[32.355597,30.414419],[32.355567,30.414505],[32.355531,30.414588],[32.355489,30.41467],[32.355441,30.414748],[32.355386,30.414824],[32.355326,30.414896],[32.355261,30.414965],[32.35519,30.41503],[32.355114,30.41509],[32.355034,30.415146],[32.35495,30.415198],[32.354862,30.415244],[32.354861,30.415245],[32.35483,30.415259],[32.354799,30.415273],[32.354768,30.415286],[32.354736,30.415299],[32.354704,30.41531],[32.354671,30.415322],[32.354639,30.415332],[32.354541,30.41536],[32.354442,30.415382],[32.35434,30.415399],[32.354238,30.415409],[32.354136,30.415414],[32.354033,30.415413],[32.35393,30.415405],[32.353829,30.415392],[32.353728,30.415373],[32.353629,30.415349],[32.353533,30.415318],[32.353438,30.415283],[32.353347,30.415241],[32.353301,30.415208],[32.353255,30.415173],[32.35321,30.415138],[32.353165,30.415103],[32.353121,30.415067],[32.353078,30.415031],[32.353035,30.414994],[32.352866,30.414838],[32.352707,30.414675],[32.352559,30.414505],[32.352421,30.414328],[32.352295,30.414145],[32.352181,30.413955],[32.352079,30.413761],[32.351887,30.413537],[32.351863,30.413505],[32.351842,30.413472],[32.351824,30.413438],[32.351808,30.413402],[32.351795,30.413366],[32.351786,30.413329],[32.351779,30.413292],[32.351775,30.413254],[32.351775,30.413216],[32.351777,30.413179],[32.351782,30.413141],[32.351791,30.413104],[32.351802,30.413067],[32.351817,30.413032],[32.351834,30.412997],[32.351481,30.412789],[32.351459,30.412779],[32.351439,30.412768],[32.351419,30.412756],[32.3514,30.412742],[32.351382,30.412728],[32.351365,30.412713],[32.351349,30.412696],[32.351335,30.412679],[32.351322,30.412661],[32.35131,30.412643],[32.3513,30.412623],[32.351291,30.412603],[32.351284,30.412583],[32.351278,30.412562],[32.351274,30.412542],[32.351271,30.41252],[32.351271,30.412499],[32.351271,30.412478],[32.351273,30.412457],[32.351277,30.412436],[32.351283,30.412415],[32.351352,30.412192],[32.350657,30.411735],[32.346959,30.409305],[32.345534,30.408369],[32.34478,30.408062],[32.345828,30.40728],[32.343586,30.406183],[32.336272,30.407463],[32.336356,30.407797],[32.335856,30.407967],[32.335754,30.407742],[32.335692,30.407605],[32.335647,30.407631],[32.335601,30.407656],[32.335555,30.40768],[32.335508,30.407704],[32.33546,30.407726],[32.335412,30.407748],[32.335363,30.407768],[32.335353,30.407772],[32.335343,30.407776],[32.335332,30.40778],[32.335322,30.407784],[32.335312,30.407788],[32.335301,30.407792],[32.335291,30.407796],[32.335157,30.407841],[32.335019,30.407879],[32.334879,30.40791],[32.334738,30.407933],[32.334594,30.407948],[32.33445,30.407955],[32.334306,30.407955],[32.334162,30.407947],[32.334019,30.407931],[32.333878,30.407907],[32.333738,30.407876],[32.333601,30.407837],[32.333467,30.407791],[32.333336,30.407802],[32.333162,30.407839],[32.332938,30.407887],[32.332763,30.407924],[32.33278,30.407938],[32.332797,30.407953],[32.332812,30.407969],[32.332825,30.407986],[32.332838,30.408003],[32.332848,30.408021],[32.332858,30.40804],[32.332866,30.408059],[32.332872,30.408079],[32.332876,30.408099],[32.332879,30.40812],[32.332881,30.40814],[32.33288,30.408161],[32.332878,30.408181],[32.332874,30.408201],[32.332869,30.408221],[32.332862,30.408241],[32.332853,30.40826],[32.332843,30.408279],[32.332832,30.408296],[32.332819,30.408314],[32.332805,30.40833],[32.332789,30.408345],[32.332548,30.408423],[32.332303,30.408488],[32.332052,30.408539],[32.331799,30.408576],[32.331543,30.408599],[32.331287,30.408607],[32.33103,30.408601],[32.330774,30.408581],[32.33052,30.408547],[32.330381,30.408524],[32.330121,30.40848],[32.329392,30.408357],[32.329341,30.408581],[32.328497,30.408439],[32.328531,30.408289],[32.328096,30.408126],[32.328133,30.407962],[32.326543,30.407503],[32.325368,30.40766],[32.324699,30.407548],[32.323408,30.407116],[32.323467,30.406854],[32.3223,30.406658],[32.322141,30.406965],[32.321339,30.406679],[32.317386,30.405277],[32.316039,30.404815],[32.313502,30.40336],[32.313931,30.40278],[32.314113,30.402884],[32.315287,30.403554],[32.316963,30.40416],[32.317098,30.402613],[32.315447,30.402077],[32.315386,30.402094],[32.315317,30.402114],[32.315124,30.402168],[32.314525,30.402336],[32.314108,30.402453],[32.314029,30.402394],[32.313945,30.402339],[32.313857,30.402289],[32.313766,30.402245],[32.313671,30.402205],[32.313574,30.402171],[32.313475,30.402142],[32.313373,30.402119],[32.31327,30.402102],[32.313166,30.40209],[32.313062,30.402084],[32.312957,30.402084],[32.312852,30.40209],[32.312748,30.402102],[32.312645,30.40212],[32.312544,30.402143],[32.312444,30.402172],[32.312382,30.40216],[32.312319,30.402151],[32.312255,30.402146],[32.312192,30.402145],[32.312128,30.402149],[32.312064,30.402156],[32.312002,30.402167],[32.31194,30.402181],[32.31188,30.4022],[32.311821,30.402222],[32.311765,30.402248],[32.311711,30.402277],[32.311659,30.402309],[32.31161,30.402345],[32.311564,30.402384],[32.311521,30.402425],[32.311482,30.402468],[32.311226,30.402184],[32.3111,30.402045],[32.311558,30.40138],[32.311867,30.400003],[32.310375,30.400882],[32.310215,30.4006],[32.310407,30.400313],[32.310393,30.399886],[32.310053,30.399057],[32.310013,30.398946],[32.310254,30.398829],[32.308431,30.395132],[32.307987,30.395296],[32.307111,30.393519],[32.306703,30.39183],[32.306419,30.390654],[32.306128,30.389251],[32.305984,30.388219],[32.305964,30.386915],[32.305955,30.386358],[32.305946,30.385818],[32.306188,30.384821],[32.306413,30.383897],[32.306949,30.382391],[32.307064,30.382105],[32.307022,30.381709],[32.306958,30.381106],[32.306753,30.379183],[32.306734,30.379006],[32.306696,30.37864],[32.306675,30.378444],[32.30662,30.377933],[32.306409,30.375944],[32.306104,30.373079],[32.305582,30.368172],[32.305483,30.367242],[32.305353,30.367065],[32.305238,30.366882],[32.305136,30.366693],[32.305048,30.366498],[32.304976,30.366299],[32.304918,30.366096],[32.304876,30.36589],[32.30485,30.365683],[32.304839,30.365474],[32.304844,30.365265],[32.304864,30.365057],[32.3049,30.36485],[32.304952,30.364646],[32.304995,30.364418],[32.30502,30.364189],[32.305029,30.363958],[32.305019,30.363727],[32.304993,30.363498],[32.304949,30.36327],[32.304888,30.363046],[32.30481,30.362825],[32.304716,30.362609],[32.304605,30.362399],[32.304479,30.362196],[32.304338,30.362001],[32.304183,30.361813],[32.304013,30.361635],[32.303831,30.361468],[32.303636,30.36131],[32.303429,30.361165],[32.303422,30.36046],[32.30342,30.360331],[32.303407,30.359146],[32.303401,30.358635],[32.303379,30.356637],[32.303379,30.356577],[32.302745,30.356514],[32.302891,30.355422],[32.303433,30.355477],[32.303858,30.353705],[32.304216,30.352208],[32.303369,30.352088],[32.30291,30.350382],[32.302341,30.348267],[32.302332,30.347906],[32.302358,30.347553],[32.302436,30.346488],[32.30244,30.346444],[32.302445,30.346401],[32.30245,30.346357],[32.302454,30.346314],[32.302459,30.34627],[32.302464,30.346227],[32.302469,30.346183],[32.302531,30.345703],[32.302602,30.345223],[32.302683,30.344745],[32.302774,30.344268],[32.302874,30.343792],[32.302984,30.343318],[32.303104,30.342846],[32.303195,30.342513],[32.30329,30.342181],[32.303391,30.34185],[32.303496,30.34152],[32.303605,30.341191],[32.30372,30.340864],[32.303839,30.340538],[32.303353,30.340484],[32.303667,30.339855],[32.305155,30.336873],[32.305169,30.336021],[32.305174,30.335725],[32.305145,30.335618],[32.305123,30.33551],[32.305111,30.335401],[32.305107,30.335291],[32.305112,30.335181],[32.305126,30.335072],[32.305148,30.334964],[32.305179,30.334858],[32.305218,30.334753],[32.305265,30.334651],[32.30532,30.334553],[32.305383,30.334457],[32.305453,30.334366],[32.305531,30.334279],[32.305615,30.334197],[32.306068,30.333819],[32.307754,30.332413],[32.309734,30.330628],[32.310181,30.330929],[32.310469,30.330651],[32.310357,30.330543],[32.310605,30.330311],[32.310086,30.329893],[32.311614,30.328675],[32.311858,30.328872],[32.312589,30.328455],[32.312772,30.328677],[32.312963,30.328531],[32.312773,30.328305],[32.313785,30.32758],[32.313876,30.327716],[32.314012,30.327647],[32.313647,30.327275],[32.313799,30.327163],[32.313806,30.327078],[32.314468,30.326744],[32.315803,30.326073],[32.315527,30.325957],[32.315942,30.325563],[32.316157,30.325734],[32.316407,30.325497],[32.315229,30.324561],[32.315158,30.324505],[32.315067,30.324407],[32.31467,30.323984],[32.313675,30.322922],[32.313515,30.322751],[32.313376,30.322604],[32.313345,30.32257],[32.313206,30.322422],[32.313115,30.322325],[32.312511,30.32168],[32.31164,30.320751],[32.310978,30.321296],[32.309972,30.322123],[32.309949,30.32213],[32.309925,30.322137],[32.309902,30.322144],[32.309878,30.322151],[32.309854,30.322157],[32.30983,30.322163],[32.309805,30.322169],[32.309794,30.322172],[32.309783,30.322174],[32.309771,30.322177],[32.30976,30.322179],[32.309749,30.322181],[32.309737,30.322184],[32.309726,30.322186],[32.309714,30.322188],[32.309703,30.32219],[32.309691,30.322192],[32.30968,30.322194],[32.309668,30.322196],[32.309657,30.322197],[32.309645,30.322199],[32.309634,30.322201],[32.309622,30.322202],[32.309611,30.322204],[32.309599,30.322205],[32.309588,30.322206],[32.309576,30.322208],[32.309564,30.322209],[32.309553,30.32221],[32.309541,30.322211],[32.309529,30.322212],[32.309518,30.322213],[32.309506,30.322214],[32.309494,30.322215],[32.309483,30.322215],[32.309477,30.322216],[32.309471,30.322216],[32.309459,30.322217],[32.309454,30.322217],[32.309448,30.322217],[32.309436,30.322218],[32.30943,30.322218],[32.309424,30.322218],[32.309413,30.322218],[32.309401,30.322219],[32.309389,30.322219],[32.309377,30.322219],[32.309366,30.322219],[32.309354,30.322219],[32.309342,30.322219],[32.309329,30.322218],[32.309316,30.322218],[32.309302,30.322218],[32.309289,30.322217],[32.309276,30.322217],[32.309263,30.322216],[32.30925,30.322215],[32.309244,30.322215],[32.309238,30.322215],[32.309232,30.322214],[32.309226,30.322214],[32.309215,30.322213],[32.309203,30.322212],[32.309191,30.322211],[32.309179,30.32221],[32.309164,30.322208],[32.309149,30.322207],[32.309134,30.322205],[32.309119,30.322203],[32.309103,30.322201],[32.309088,30.322199],[32.309073,30.322197],[32.309072,30.322196],[32.30907,30.322196],[32.309068,30.322196],[32.309067,30.322196],[32.309065,30.322195],[32.309063,30.322195],[32.309062,30.322195],[32.30906,30.322194],[32.309058,30.322194],[32.309057,30.322194],[32.309055,30.322194],[32.309053,30.322193],[32.309052,30.322193],[32.30905,30.322193],[32.309048,30.322193],[32.309047,30.322192],[32.309045,30.322192],[32.309043,30.322192],[32.309042,30.322191],[32.30904,30.322191],[32.309038,30.322191],[32.309037,30.322191],[32.309035,30.32219],[32.309033,30.32219],[32.309032,30.32219],[32.30903,30.322189],[32.309028,30.322189],[32.309027,30.322189],[32.309025,30.322189],[32.309023,30.322188],[32.309022,30.322188],[32.30902,30.322188],[32.309018,30.322187],[32.309017,30.322187],[32.309015,30.322187],[32.309013,30.322186],[32.309012,30.322186],[32.30901,30.322186],[32.309008,30.322186],[32.309007,30.322185],[32.309005,30.322185],[32.309003,30.322185],[32.309002,30.322184],[32.309,30.322184],[32.308998,30.322184],[32.308997,30.322183],[32.308995,30.322183],[32.308994,30.322183],[32.308992,30.322182],[32.30899,30.322182],[32.308989,30.322182],[32.308987,30.322181],[32.308985,30.322181],[32.308984,30.322181],[32.308982,30.32218],[32.30898,30.32218],[32.308975,30.322179],[32.308972,30.322178],[32.308969,30.322178],[32.308967,30.322177],[32.308966,30.322177],[32.308964,30.322177],[32.308962,30.322176],[32.308961,30.322176],[32.308959,30.322176],[32.308958,30.322175],[32.308957,30.322175],[32.308956,30.322175],[32.308954,30.322175],[32.308953,30.322174],[32.308951,30.322174],[32.30895,30.322174],[32.308948,30.322173],[32.308947,30.322173],[32.308946,30.322173],[32.308944,30.322172],[32.308943,30.322172],[32.308941,30.322172],[32.30894,30.322171],[32.308938,30.322171],[32.308937,30.322171],[32.308935,30.32217],[32.308932,30.32217],[32.308929,30.322169],[32.308925,30.322168],[32.308922,30.322167],[32.308918,30.322166],[32.308915,30.322166],[32.308911,30.322165],[32.3089,30.322162],[32.308888,30.322159],[32.308877,30.322156],[32.308866,30.322153],[32.308854,30.32215],[32.308843,30.322147],[32.308832,30.322144],[32.308821,30.32214],[32.308809,30.322137],[32.308798,30.322134],[32.308787,30.32213],[32.308776,30.322127],[32.308765,30.322123],[32.308754,30.322119],[32.308743,30.322116],[32.308732,30.322112],[32.308721,30.322108],[32.308717,30.322107],[32.308714,30.322106],[32.308711,30.322104],[32.308707,30.322103],[32.308704,30.322102],[32.308701,30.322101],[32.308697,30.322099],[32.308696,30.322099],[32.308695,30.322098],[32.308693,30.322098],[32.308692,30.322097],[32.30869,30.322097],[32.308689,30.322096],[32.308688,30.322096],[32.308687,30.322095],[32.308685,30.322095],[32.308684,30.322094],[32.308682,30.322094],[32.308681,30.322093],[32.30868,30.322093],[32.308678,30.322092],[32.308677,30.322092],[32.308676,30.322091],[32.308675,30.322091],[32.308673,30.32209],[32.308672,30.32209],[32.30867,30.322089],[32.308669,30.322089],[32.308668,30.322088],[32.308666,30.322088],[32.308666,30.322087],[32.308664,30.322087],[32.308663,30.322086],[32.308661,30.322086],[32.30866,30.322085],[32.308658,30.322084],[32.308657,30.322084],[32.308655,30.322083],[32.308654,30.322083],[32.308652,30.322082],[32.308651,30.322081],[32.308649,30.322081],[32.308648,30.32208],[32.308646,30.32208],[32.308645,30.322079],[32.308643,30.322078],[32.308641,30.322078],[32.30864,30.322077],[32.308638,30.322076],[32.308637,30.322076],[32.308635,30.322075],[32.308634,30.322075],[32.308632,30.322074],[32.308631,30.322073],[32.308629,30.322073],[32.308628,30.322072],[32.308626,30.322071],[32.308625,30.322071],[32.308623,30.32207],[32.308622,30.322069],[32.30862,30.322069],[32.308619,30.322068],[32.308617,30.322067],[32.308615,30.322067],[32.308614,30.322066],[32.308612,30.322066],[32.308611,30.322065],[32.308609,30.322064],[32.308608,30.322064],[32.308606,30.322063],[32.308605,30.322062],[32.308603,30.322062],[32.308602,30.322061],[32.3086,30.32206],[32.308599,30.32206],[32.308597,30.322059],[32.308596,30.322058],[32.308594,30.322058],[32.308593,30.322057],[32.308591,30.322056],[32.30859,30.322056],[32.308588,30.322055],[32.308587,30.322054],[32.308585,30.322054],[32.308584,30.322053],[32.308582,30.322052],[32.308581,30.322052],[32.308579,30.322051],[32.308578,30.32205],[32.308576,30.322049],[32.308575,30.322049],[32.308573,30.322048],[32.308572,30.322047],[32.30857,30.322047],[32.308557,30.32204],[32.308543,30.322034],[32.30853,30.322028],[32.308517,30.322021],[32.308504,30.322014],[32.30849,30.322008],[32.308477,30.322001],[32.308467,30.321995],[32.308457,30.32199],[32.308447,30.321984],[32.308437,30.321979],[32.308427,30.321973],[32.308418,30.321967],[32.308408,30.321962],[32.3076,30.32135],[32.307039,30.320926],[32.305693,30.319978],[32.304829,30.319426],[32.304342,30.319734],[32.301879,30.322315],[32.298541,30.325999],[32.29849,30.326054],[32.298423,30.326014],[32.298198,30.325878],[32.296402,30.324788],[32.296204,30.324668],[32.29638,30.324526],[32.299824,30.321744],[32.300213,30.321331],[32.30339,30.31796],[32.306596,30.314374],[32.301373,30.31082],[32.300566,30.310387],[32.299472,30.309798],[32.300104,30.308913],[32.297189,30.307345],[32.29761,30.306757],[32.29676,30.306043],[32.296351,30.30641],[32.292657,30.304135],[32.291537,30.303898],[32.290547,30.303688],[32.29036,30.303696],[32.290174,30.30371],[32.289988,30.30373],[32.289803,30.303756],[32.28962,30.303788],[32.289438,30.303826],[32.289257,30.30387],[32.289183,30.30388],[32.289108,30.303885],[32.289033,30.303883],[32.288959,30.303876],[32.288885,30.303863],[32.288813,30.303845],[32.288743,30.303821],[32.288676,30.303791],[32.288613,30.303757],[32.288553,30.303718],[32.288498,30.303674],[32.288447,30.303626],[32.288192,30.303448],[32.287933,30.303274],[32.287671,30.303104],[32.287405,30.302938],[32.287294,30.302872],[32.287136,30.302777],[32.286863,30.302619],[32.286585,30.302482],[32.285587,30.302369],[32.276354,30.301324],[32.167458,30.309853],[32.167333,30.309862],[32.167277,30.309867],[32.167052,30.309884],[32.166927,30.309894],[32.085504,30.316271],[32.079995,30.316702],[32.072541,30.316696],[32.071368,30.316756],[32.070196,30.316811],[32.069023,30.316859],[32.067849,30.316902],[32.066676,30.316939],[32.065502,30.31697],[32.064328,30.316995],[32.063154,30.317014],[32.061979,30.317028],[32.060805,30.317036],[32.059631,30.317038],[32.058456,30.317034],[32.057282,30.317024],[32.056108,30.317008],[32.054934,30.316987],[32.05376,30.31696],[32.052586,30.316927],[32.051412,30.316888],[32.050239,30.316843],[32.049066,30.316793],[32.047894,30.316737],[32.046722,30.316675],[32.045517,30.316605],[32.044312,30.316528],[32.043108,30.316446],[32.041905,30.316358],[32.040702,30.316263],[32.0395,30.316163],[32.038298,30.316056],[32.037098,30.315943],[32.035898,30.315824],[32.034699,30.315699],[32.0335,30.315568],[32.032303,30.31543],[32.031107,30.315287],[32.029912,30.315137],[32.028717,30.314982],[32.027524,30.31482],[32.026332,30.314652],[32.025141,30.314478],[32.023952,30.314298],[32.022763,30.314112],[32.021576,30.31392],[32.020391,30.313722],[32.019206,30.313517],[32.018023,30.313307],[32.016842,30.313091],[32.015662,30.312868],[32.014483,30.31264],[32.013306,30.312406],[32.012131,30.312165],[32.010958,30.311919],[32.009786,30.311667],[32.008616,30.311408],[32.007447,30.311144],[32.006281,30.310874],[32.005116,30.310598],[32.003953,30.310316],[32.002793,30.310028],[32.001634,30.309734],[32.000477,30.309434],[31.999322,30.309128],[31.99817,30.308816],[31.99702,30.308499],[31.995871,30.308176],[31.994725,30.307846],[31.993582,30.307511],[31.99244,30.30717],[31.991301,30.306824],[31.990165,30.306471],[31.98903,30.306113],[31.987899,30.305749],[31.986769,30.305379],[31.985643,30.305003],[31.984519,30.304622],[31.983397,30.304235],[31.982278,30.303842],[31.981162,30.303443],[31.980049,30.303039],[31.978938,30.302629],[31.977831,30.302214],[31.976726,30.301792],[31.975659,30.301379],[31.974595,30.300961],[31.973534,30.300537],[31.972475,30.300108],[31.97142,30.299674],[31.970367,30.299235],[31.969317,30.29879],[31.968271,30.298341],[31.967227,30.297886],[31.966186,30.297426],[31.965148,30.296961],[31.964114,30.296491],[31.963082,30.296015],[31.962054,30.295535],[31.961029,30.295049],[31.960007,30.294559],[31.958988,30.294063],[31.957973,30.293562],[31.956961,30.293057],[31.955953,30.292546],[31.954947,30.29203],[31.953946,30.29151],[31.952947,30.290984],[31.951953,30.290454],[31.950961,30.289919],[31.949974,30.289378],[31.946856,30.287899],[31.943741,30.286414],[31.94063,30.284924],[31.937522,30.283428],[31.934417,30.281928],[31.931316,30.280422],[31.928219,30.278911],[31.925124,30.277394],[31.922034,30.275873],[31.921808,30.275761],[31.921686,30.2757],[31.918946,30.274346],[31.915863,30.272813],[31.912782,30.271276],[31.909705,30.269733],[31.906632,30.268185],[31.903562,30.266632],[31.900496,30.265074],[31.897433,30.26351],[31.894374,30.261942],[31.891318,30.260368],[31.888266,30.258789],[31.885218,30.257204],[31.882173,30.255615],[31.879131,30.25402],[31.876094,30.25242],[31.87306,30.250815],[31.870029,30.249205],[31.867002,30.24759],[31.863979,30.24597],[31.86096,30.244344],[31.857944,30.242713],[31.854932,30.241078],[31.851924,30.239437],[31.848919,30.237791],[31.845919,30.236139],[31.842922,30.234483],[31.839928,30.232822],[31.836939,30.231155],[31.833953,30.229484],[31.830971,30.227807],[31.799514,30.209675],[31.785254,30.201454],[31.77819,30.197382],[31.777715,30.197054],[31.777243,30.196722],[31.776777,30.196386],[31.776314,30.196045],[31.775856,30.195699],[31.775403,30.195349],[31.774954,30.194994],[31.77451,30.194636],[31.774071,30.194272],[31.773912,30.194154],[31.773758,30.194031],[31.773607,30.193905],[31.773459,30.193776],[31.773316,30.193643],[31.773177,30.193508],[31.773033,30.193359],[31.772893,30.193207],[31.772759,30.193051],[31.77263,30.192892],[31.772506,30.192731],[31.772387,30.192566],[31.772274,30.192398],[31.772243,30.192245],[31.77222,30.19209],[31.772203,30.191935],[31.772194,30.191779],[31.772192,30.191623],[31.772197,30.191468],[31.772209,30.191312],[31.772229,30.191157],[31.772255,30.191003],[31.772288,30.19085],[31.772329,30.190698],[31.772376,30.190548],[31.77243,30.190399],[31.772491,30.190252],[31.772559,30.190108],[31.772706,30.190012],[31.772856,30.189921],[31.773011,30.189834],[31.773168,30.189751],[31.773329,30.189674],[31.773492,30.189601],[31.773659,30.189533],[31.773828,30.18947],[31.773999,30.189412],[31.774173,30.189359],[31.774324,30.189318],[31.774476,30.189281],[31.774629,30.189247],[31.774784,30.189217],[31.775586,30.189037],[31.776389,30.188862],[31.777194,30.188693],[31.778,30.18853],[31.778809,30.188372],[31.779618,30.188221],[31.780429,30.188075],[31.781242,30.187935],[31.782056,30.187802],[31.782871,30.187674],[31.783687,30.187552],[31.784505,30.187436],[31.785323,30.187326],[31.786143,30.187222],[31.786963,30.187123],[31.787785,30.187031],[31.788607,30.186945],[31.78943,30.186865],[31.790254,30.18679],[31.791079,30.186722],[31.791904,30.18666],[31.79273,30.186604],[31.793556,30.186553],[31.794383,30.186509],[31.79521,30.186471],[31.796038,30.186438],[31.796866,30.186412],[31.797694,30.186392],[31.799805,30.186565],[31.801915,30.186742],[31.804025,30.186924],[31.806135,30.18711],[31.806296,30.18709],[31.806457,30.187065],[31.806616,30.187034],[31.806773,30.186998],[31.806929,30.186955],[31.807082,30.186907],[31.807233,30.186854],[31.807381,30.186795],[31.807526,30.186731],[31.807668,30.186662],[31.807806,30.186588],[31.807941,30.186508],[31.808072,30.186424],[31.808199,30.186335],[31.808321,30.186242],[31.808438,30.186145],[31.808551,30.186043],[31.808659,30.185937],[31.808761,30.185828],[31.808858,30.185714],[31.80895,30.185598],[31.809036,30.185478],[31.809116,30.185355],[31.80919,30.18523],[31.809258,30.185102],[31.809319,30.184971],[31.809374,30.184839],[31.809423,30.184704],[31.809465,30.184568],[31.809501,30.18443],[31.808278,30.17677],[31.807002,30.168777],[31.838447,30.167051],[31.833485,30.15543],[31.832062,30.152097],[31.826947,30.140116],[31.825677,30.137142],[31.825705,30.13712],[31.825725,30.137104],[31.82573,30.1371],[31.825735,30.137096],[31.82574,30.137092],[31.825745,30.137088],[31.82575,30.137084],[31.825756,30.13708],[31.825761,30.137076],[31.826133,30.136768],[31.826495,30.13645],[31.826846,30.136124],[31.827186,30.135789],[31.827514,30.135445],[31.827831,30.135094],[31.828136,30.134734],[31.828143,30.134726],[31.82815,30.134717],[31.828157,30.134709],[31.828164,30.134701],[31.828171,30.134692],[31.828177,30.134684],[31.828184,30.134675],[31.828193,30.134664],[31.828202,30.134654],[31.828211,30.134643],[31.82822,30.134632],[31.828229,30.134621],[31.828238,30.13461],[31.828246,30.134599],[31.828268,30.134571],[31.828286,30.134549],[31.828304,30.134526],[31.828322,30.134503],[31.82834,30.13448],[31.828358,30.134458],[31.828376,30.134435],[31.828394,30.134412],[31.828415,30.134384],[31.828437,30.134357],[31.828458,30.134329],[31.828479,30.134302],[31.8285,30.134274],[31.828521,30.134246],[31.828542,30.134219],[31.828563,30.134191],[31.828572,30.134179],[31.828581,30.134167],[31.82859,30.134155],[31.828599,30.134143],[31.828608,30.134131],[31.828617,30.134119],[31.828625,30.134107],[31.829003,30.133574],[31.829354,30.133028],[31.82968,30.13247],[31.829979,30.1319],[31.830251,30.131321],[31.830496,30.130732],[31.830713,30.130135],[31.830718,30.130122],[31.830722,30.130108],[31.830727,30.130094],[31.830732,30.130081],[31.830736,30.130067],[31.830741,30.130053],[31.830745,30.13004],[31.830756,30.130008],[31.830766,30.129976],[31.830776,30.129944],[31.830787,30.129912],[31.830797,30.12988],[31.830807,30.129848],[31.830817,30.129816],[31.830821,30.129802],[31.830825,30.129788],[31.83083,30.129775],[31.830834,30.129761],[31.830838,30.129747],[31.830842,30.129733],[31.830847,30.12972],[31.830878,30.129688],[31.830908,30.129656],[31.830939,30.129624],[31.83097,30.129591],[31.831001,30.129559],[31.831031,30.129527],[31.831061,30.129494],[31.83115,30.129398],[31.831239,30.129301],[31.831326,30.129203],[31.831412,30.129105],[31.831497,30.129006],[31.83158,30.128906],[31.831663,30.128805],[31.832026,30.128341],[31.832367,30.127864],[31.832684,30.127374],[31.832977,30.126874],[31.833246,30.126363],[31.83349,30.125844],[31.833709,30.125315],[31.833916,30.12474],[31.834092,30.124156],[31.834239,30.123567],[31.834354,30.122973],[31.834439,30.122374],[31.834493,30.121773],[31.834516,30.12117],[31.834516,30.121151],[31.834516,30.121132],[31.834516,30.121113],[31.834516,30.121094],[31.834516,30.121075],[31.834516,30.121055],[31.834516,30.121036],[31.834514,30.120802],[31.834507,30.120568],[31.834495,30.120334],[31.834479,30.1201],[31.834457,30.119866],[31.834432,30.119633],[31.834401,30.1194],[31.834377,30.119241],[31.834352,30.119083],[31.834324,30.118925],[31.834294,30.118768],[31.834262,30.11861],[31.834227,30.118453],[31.834191,30.118297],[31.834144,30.118175],[31.834095,30.118053],[31.834043,30.117932],[31.833989,30.117812],[31.833933,30.117692],[31.833874,30.117574],[31.833813,30.117456],[31.83357,30.117034],[31.833296,30.116625],[31.832994,30.116232],[31.832663,30.115856],[31.832307,30.115498],[31.831925,30.115161],[31.83152,30.114846],[31.831093,30.114552],[31.830646,30.114283],[31.83018,30.114039],[31.829698,30.11382],[31.829201,30.113628],[31.828691,30.113463],[31.828477,30.113403],[31.828261,30.113348],[31.828043,30.113297],[31.827824,30.113252],[31.827604,30.113211],[31.827382,30.113176],[31.82716,30.113145],[31.827087,30.11313],[31.827014,30.113116],[31.82694,30.113103],[31.826867,30.113089],[31.826793,30.113077],[31.82672,30.113064],[31.826646,30.113052],[31.826649,30.112771],[31.826657,30.112087],[31.826694,30.109021],[31.825294,30.109008],[31.82385,30.097324],[31.811124,30.098509],[31.811124,30.098508],[31.809226,30.098685],[31.809226,30.098686],[31.803887,30.099183],[31.8028,30.099284],[31.8028,30.099283],[31.802711,30.099291],[31.802621,30.0993],[31.802513,30.09931],[31.8017,30.099386],[31.8017,30.099385],[31.80134,30.099419],[31.801287,30.099424],[31.8011,30.099441],[31.796435,30.099875],[31.795385,30.099973],[31.77766,30.101623],[31.777478,30.10164],[31.77704,30.10168],[31.774382,30.101928],[31.772812,30.102074],[31.772633,30.102091],[31.772454,30.102107],[31.768908,30.102437],[31.766921,30.102622],[31.752566,30.103958],[31.751741,30.104035],[31.751656,30.104043],[31.746996,30.104477],[31.746786,30.104496],[31.74658,30.104515],[31.7399,30.105137],[31.738456,30.105272],[31.738279,30.105307],[31.738095,30.105365],[31.737911,30.105421],[31.737727,30.105478],[31.737543,30.105534],[31.737359,30.10559],[31.737174,30.105645],[31.736989,30.1057],[31.736574,30.105823],[31.736157,30.105944],[31.73574,30.106062],[31.735322,30.106179],[31.734904,30.106295],[31.734484,30.106408],[31.734065,30.10652],[31.734053,30.106523],[31.734041,30.106526],[31.734029,30.106529],[31.734017,30.106532],[31.734005,30.106535],[31.733993,30.106539],[31.733981,30.106542],[31.732776,30.10685],[31.731566,30.107143],[31.730351,30.107421],[31.729132,30.107684],[31.727909,30.107932],[31.726682,30.108165],[31.725451,30.108382],[31.724543,30.108557],[31.723414,30.108774],[31.722281,30.108974],[31.721144,30.109157],[31.720004,30.109323],[31.718861,30.109471],[31.717714,30.109603],[31.716566,30.109718],[31.716208,30.109758],[31.715849,30.109797],[31.71549,30.109834],[31.715131,30.10987],[31.714772,30.109904],[31.714413,30.109936],[31.714053,30.109967],[31.713499,30.110011],[31.712945,30.110052],[31.71239,30.110088],[31.711835,30.110121],[31.711279,30.11015],[31.710723,30.110176],[31.710167,30.110197],[31.709148,30.110354],[31.709107,30.11036],[31.709067,30.110367],[31.709026,30.110373],[31.708986,30.110379],[31.708946,30.110385],[31.708905,30.110392],[31.708865,30.110398],[31.708825,30.110404],[31.708784,30.11041],[31.708744,30.110416],[31.708704,30.110421],[31.708663,30.110427],[31.708623,30.110433],[31.708582,30.110438],[31.708542,30.110444],[31.708501,30.110449],[31.708461,30.110455],[31.70842,30.11046],[31.70838,30.110465],[31.708339,30.11047],[31.708299,30.110475],[31.708258,30.110481],[31.708218,30.110485],[31.708177,30.11049],[31.708136,30.110495],[31.708096,30.1105],[31.708055,30.110505],[31.708015,30.110509],[31.707974,30.110514],[31.707933,30.110518],[31.707893,30.110523],[31.707852,30.110527],[31.707812,30.110531],[31.707771,30.110535],[31.70773,30.110539],[31.707689,30.110543],[31.707649,30.110547],[31.707608,30.110551],[31.707567,30.110555],[31.707527,30.110559],[31.707486,30.110563],[31.707445,30.110566],[31.707405,30.11057],[31.707364,30.110573],[31.707323,30.110577],[31.707282,30.11058],[31.707241,30.110583],[31.707201,30.110586],[31.70716,30.11059],[31.707119,30.110593],[31.707078,30.110596],[31.707037,30.110599],[31.706997,30.110601],[31.706956,30.110604],[31.706915,30.110607],[31.706874,30.110609],[31.706833,30.110612],[31.706792,30.110615],[31.706751,30.110617],[31.706711,30.110619],[31.70667,30.110622],[31.706629,30.110624],[31.706588,30.110626],[31.706547,30.110628],[31.706506,30.11063],[31.706465,30.110632],[31.706424,30.110634],[31.706383,30.110635],[31.706352,30.110637],[31.706305,30.110635],[31.706248,30.110632],[31.706192,30.11063],[31.706135,30.110628],[31.706078,30.110625],[31.706022,30.110622],[31.705965,30.11062],[31.705908,30.110617],[31.705852,30.110614],[31.705795,30.110611],[31.705739,30.110608],[31.705682,30.110605],[31.705625,30.110602],[31.705569,30.110599],[31.705512,30.110595],[31.705455,30.110592],[31.705399,30.110588],[31.705342,30.110585],[31.705286,30.110581],[31.705229,30.110578],[31.705173,30.110574],[31.705116,30.11057],[31.705059,30.110567],[31.705003,30.110563],[31.704946,30.110559],[31.70489,30.110555],[31.704833,30.11055],[31.704776,30.110546],[31.70472,30.110542],[31.704663,30.110538],[31.704607,30.110533],[31.70455,30.110529],[31.704494,30.110524],[31.704437,30.11052],[31.704381,30.110515],[31.704324,30.11051],[31.704268,30.110506],[31.704211,30.110501],[31.704155,30.110496],[31.704099,30.110491],[31.704042,30.110486],[31.703986,30.11048],[31.703929,30.110475],[31.703873,30.11047],[31.703816,30.110465],[31.70376,30.110459],[31.703704,30.110454],[31.703647,30.110448],[31.703591,30.110442],[31.703534,30.110437],[31.703478,30.110431],[31.703422,30.110425],[31.703365,30.110419],[31.703309,30.110413],[31.703253,30.110407],[31.703197,30.110401],[31.70314,30.110395],[31.703084,30.110389],[31.703028,30.110382],[31.702971,30.110376],[31.702915,30.110369],[31.702859,30.110363],[31.702802,30.110356],[31.70279,30.110355],[31.702734,30.110352],[31.702678,30.110348],[31.702623,30.110345],[31.702567,30.110341],[31.702511,30.110338],[31.702456,30.110335],[31.7024,30.110332],[31.702344,30.110329],[31.702288,30.110326],[31.702233,30.110323],[31.702177,30.11032],[31.702121,30.110317],[31.702066,30.110315],[31.70201,30.110312],[31.701954,30.11031],[31.701898,30.110307],[31.701842,30.110305],[31.701787,30.110302],[31.701731,30.1103],[31.701675,30.110298],[31.701619,30.110296],[31.701564,30.110294],[31.701508,30.110292],[31.701452,30.11029],[31.701396,30.110288],[31.70134,30.110286],[31.701285,30.110285],[31.701229,30.110283],[31.701173,30.110281],[31.701117,30.11028],[31.701061,30.110279],[31.701006,30.110277],[31.70095,30.110276],[31.700894,30.110275],[31.700838,30.110274],[31.700782,30.110273],[31.700726,30.110272],[31.700671,30.110271],[31.700615,30.11027],[31.700559,30.110269],[31.700503,30.110268],[31.700447,30.110268],[31.700391,30.110267],[31.700336,30.110267],[31.70028,30.110266],[31.700224,30.110266],[31.700168,30.110266],[31.700112,30.110265],[31.700056,30.110265],[31.700001,30.110265],[31.699945,30.110265],[31.699889,30.110265],[31.699833,30.110265],[31.699777,30.110266],[31.699721,30.110266],[31.699666,30.110266],[31.69961,30.110267],[31.699554,30.110267],[31.699498,30.110268],[31.699442,30.110268],[31.69939,30.110269],[31.695445,30.110192],[31.694289,30.110169],[31.694234,30.11017],[31.693521,30.110155],[31.693287,30.11015],[31.69328,30.11015],[31.674658,30.109786],[31.674394,30.109781],[31.673355,30.10976],[31.673335,30.109765],[31.671284,30.109634],[31.671223,30.109637],[31.671161,30.10964],[31.6711,30.109643],[31.671039,30.109647],[31.670977,30.109651],[31.670916,30.109655],[31.670855,30.109659],[31.670822,30.109662],[31.670788,30.109664],[31.670755,30.109667],[31.670722,30.10967],[31.670688,30.109672],[31.670655,30.109675],[31.670622,30.109678],[31.67057,30.109683],[31.670518,30.109688],[31.670467,30.109693],[31.670415,30.109699],[31.670364,30.109704],[31.670312,30.10971],[31.670261,30.109716],[31.669891,30.109764],[31.669836,30.109772],[31.669782,30.10978],[31.669727,30.109789],[31.669673,30.109797],[31.669618,30.109806],[31.669564,30.109815],[31.66951,30.109824],[31.669435,30.109838],[31.668702,30.109989],[31.667981,30.110179],[31.667275,30.110408],[31.666586,30.110673],[31.665918,30.110975],[31.665272,30.111313],[31.664652,30.111684],[31.664589,30.111728],[31.664525,30.111772],[31.664462,30.111815],[31.664398,30.111858],[31.664334,30.111901],[31.66427,30.111944],[31.664205,30.111986],[31.663492,30.11243],[31.662754,30.112842],[31.661993,30.113222],[31.661212,30.113569],[31.660412,30.113881],[31.659594,30.114158],[31.658762,30.114399],[31.649902,30.116678],[31.649343,30.116883],[31.648771,30.117057],[31.648187,30.1172],[31.647595,30.117311],[31.646995,30.11739],[31.646391,30.117436],[31.645785,30.11745],[31.64518,30.117431],[31.644576,30.117379],[31.643978,30.117295],[31.643386,30.117178],[31.642805,30.11703],[31.642235,30.116851],[31.634999,30.11553],[31.634868,30.115506],[31.634761,30.115486],[31.634462,30.115431],[31.629235,30.114477],[31.628209,30.114369],[31.627193,30.1142],[31.626194,30.113969],[31.625216,30.113679],[31.624263,30.113331],[31.62334,30.112925],[31.622452,30.112465],[31.616042,30.109751],[31.607509,30.107549],[31.60711,30.107447],[31.596058,30.104595],[31.594607,30.104296],[31.593796,30.104167],[31.592986,30.104035],[31.592177,30.103899],[31.591368,30.103761],[31.59056,30.10362],[31.589753,30.103476],[31.588947,30.103328],[31.588885,30.103317],[31.588824,30.103305],[31.588701,30.103283],[31.58864,30.103271],[31.588579,30.10326],[31.588517,30.103248],[31.588456,30.103237],[31.588334,30.103214],[31.588272,30.103202],[31.588211,30.103191],[31.588088,30.103168],[31.587966,30.103145],[31.587843,30.103121],[31.587782,30.10311],[31.587721,30.103098],[31.587546,30.103065],[31.587371,30.103031],[31.587196,30.102997],[31.587021,30.102963],[31.586846,30.102929],[31.586672,30.102895],[31.586497,30.102861],[31.586423,30.102846],[31.586349,30.102832],[31.586275,30.102817],[31.586201,30.102802],[31.586127,30.102788],[31.586052,30.102773],[31.585978,30.102758],[31.585964,30.102755],[31.58591,30.102745],[31.585856,30.102734],[31.58584,30.10273],[31.585787,30.10272],[31.585735,30.102709],[31.585714,30.102705],[31.585694,30.102701],[31.585674,30.102697],[31.585653,30.102693],[31.585633,30.102689],[31.585613,30.102685],[31.585593,30.102681],[31.585542,30.102671],[31.585491,30.10266],[31.585229,30.102607],[31.584968,30.102554],[31.584707,30.102501],[31.584446,30.102447],[31.584185,30.102393],[31.583925,30.102338],[31.583664,30.102283],[31.583583,30.102266],[31.58353,30.102255],[31.583478,30.102244],[31.583462,30.102241],[31.583409,30.102229],[31.583356,30.102218],[31.583343,30.102215],[31.583289,30.102204],[31.583235,30.102192],[31.583224,30.10219],[31.583114,30.102167],[31.583103,30.102164],[31.582992,30.102141],[31.582984,30.102139],[31.582928,30.102127],[31.582871,30.102114],[31.582863,30.102113],[31.582806,30.102101],[31.582749,30.102088],[31.582743,30.102087],[31.582628,30.102062],[31.582623,30.102061],[31.582507,30.102036],[31.582502,30.102035],[31.582444,30.102022],[31.582385,30.10201],[31.582382,30.102009],[31.582264,30.101983],[31.582263,30.101983],[31.582203,30.10197],[31.582143,30.101957],[31.582141,30.101956],[31.582082,30.101943],[31.582022,30.10193],[31.5819,30.101904],[31.581779,30.101877],[31.581719,30.101864],[31.581658,30.10185],[31.581597,30.101837],[31.581537,30.101823],[31.581416,30.101796],[31.581355,30.101783],[31.581294,30.101769],[31.581173,30.101742],[31.581113,30.101729],[31.581052,30.101715],[31.580931,30.101688],[31.58081,30.101661],[31.580689,30.101634],[31.580568,30.101606],[31.580508,30.101593],[31.580447,30.101579],[31.580387,30.101565],[31.580326,30.101551],[31.580266,30.101538],[31.580205,30.101524],[31.580145,30.10151],[31.580084,30.101496],[31.580024,30.101482],[31.579963,30.101468],[31.579903,30.101455],[31.579843,30.101441],[31.579722,30.101413],[31.579601,30.101385],[31.57948,30.101357],[31.579359,30.101329],[31.579239,30.101301],[31.579118,30.101272],[31.578997,30.101244],[31.578937,30.10123],[31.578876,30.101216],[31.578756,30.101187],[31.578695,30.101173],[31.578635,30.101159],[31.578514,30.10113],[31.578394,30.101102],[31.578273,30.101073],[31.578213,30.101059],[31.578153,30.101044],[31.578032,30.101015],[31.577972,30.101001],[31.577911,30.100987],[31.577791,30.100958],[31.577326,30.100845],[31.576862,30.100732],[31.576398,30.100617],[31.575934,30.100502],[31.575471,30.100385],[31.575008,30.100268],[31.574546,30.100149],[31.574507,30.100139],[31.574496,30.100136],[31.574486,30.100133],[31.574475,30.100131],[31.574464,30.100128],[31.574454,30.100125],[31.574443,30.100122],[31.574432,30.100119],[31.574395,30.100109],[31.574363,30.100101],[31.574331,30.100092],[31.574299,30.100083],[31.574268,30.100074],[31.574236,30.100066],[31.574204,30.100057],[31.574172,30.100048],[31.573981,30.099993],[31.573792,30.099937],[31.573602,30.099879],[31.573414,30.09982],[31.573226,30.099758],[31.573039,30.099696],[31.572852,30.099631],[31.572847,30.099629],[31.572842,30.099627],[31.572836,30.099626],[31.572831,30.099624],[31.572826,30.099622],[31.57282,30.09962],[31.572815,30.099618],[31.57281,30.099616],[31.572804,30.099614],[31.572799,30.099612],[31.572794,30.099611],[31.572789,30.099609],[31.572783,30.099607],[31.572778,30.099605],[31.572773,30.099603],[31.572767,30.099601],[31.572762,30.099599],[31.572757,30.099597],[31.572751,30.099595],[31.572746,30.099594],[31.572741,30.099592],[31.572736,30.09959],[31.57273,30.099588],[31.572725,30.099586],[31.57272,30.099584],[31.572714,30.099582],[31.572709,30.09958],[31.572704,30.099578],[31.572698,30.099576],[31.572693,30.099575],[31.572688,30.099573],[31.572683,30.099571],[31.572677,30.099569],[31.572672,30.099567],[31.572667,30.099565],[31.572661,30.099563],[31.572656,30.099561],[31.572651,30.099559],[31.572645,30.099557],[31.57264,30.099555],[31.572635,30.099553],[31.57263,30.099552],[31.572624,30.09955],[31.572619,30.099548],[31.572614,30.099546],[31.572608,30.099544],[31.572603,30.099542],[31.572598,30.09954],[31.572593,30.099538],[31.572587,30.099536],[31.572582,30.099534],[31.572577,30.099532],[31.572571,30.09953],[31.572566,30.099528],[31.572561,30.099526],[31.572556,30.099525],[31.57255,30.099523],[31.572545,30.099521],[31.57254,30.099519],[31.572535,30.099517],[31.572529,30.099515],[31.572524,30.099513],[31.572519,30.099511],[31.572369,30.099455],[31.57222,30.099398],[31.572072,30.09934],[31.571924,30.099281],[31.571777,30.099221],[31.57163,30.09916],[31.571484,30.099097],[31.571448,30.099082],[31.571412,30.099066],[31.571376,30.09905],[31.57134,30.099034],[31.571304,30.099019],[31.571268,30.099003],[31.571232,30.098987],[31.571214,30.098979],[31.571196,30.098971],[31.571178,30.098963],[31.57116,30.098955],[31.571142,30.098947],[31.571124,30.098938],[31.571089,30.098922],[31.571053,30.098906],[31.571017,30.09889],[31.570982,30.098873],[31.570964,30.098865],[31.570946,30.098857],[31.570928,30.098848],[31.57091,30.09884],[31.570893,30.098832],[31.570875,30.098823],[31.570857,30.098815],[31.570839,30.098807],[31.570804,30.09879],[31.570768,30.098773],[31.570733,30.098756],[31.570698,30.098739],[31.570662,30.098722],[31.570627,30.098705],[31.57061,30.098697],[31.570592,30.098688],[31.570591,30.098688],[31.570574,30.09868],[31.570557,30.098671],[31.570555,30.09867],[31.570539,30.098662],[31.570522,30.098654],[31.57052,30.098653],[31.570487,30.098637],[31.570484,30.098635],[31.570468,30.098627],[31.570452,30.098619],[31.570449,30.098618],[31.570417,30.098602],[31.570412,30.0986],[31.570397,30.098592],[31.570382,30.098584],[31.570377,30.098582],[31.570362,30.098574],[31.570347,30.098567],[31.570342,30.098564],[31.570327,30.098557],[31.570312,30.098549],[31.570189,30.098486],[31.570066,30.098423],[31.569944,30.098359],[31.569823,30.098293],[31.569702,30.098228],[31.569582,30.098161],[31.569462,30.098094],[31.569446,30.098085],[31.56943,30.098076],[31.569428,30.098075],[31.569412,30.098065],[31.569396,30.098056],[31.569387,30.098051],[31.569377,30.098045],[31.569367,30.098039],[31.569357,30.098034],[31.569347,30.098028],[31.569337,30.098022],[31.569327,30.098017],[31.569295,30.097998],[31.569294,30.097997],[31.569278,30.097988],[31.569262,30.097979],[31.569261,30.097978],[31.569244,30.097968],[31.569228,30.097959],[31.569227,30.097959],[31.569211,30.097949],[31.569194,30.097939],[31.569161,30.09792],[31.56916,30.097919],[31.569144,30.097909],[31.569127,30.0979],[31.569127,30.097899],[31.569094,30.09788],[31.569077,30.09787],[31.569061,30.09786],[31.569027,30.09784],[31.568994,30.09782],[31.568961,30.0978],[31.568928,30.09778],[31.568911,30.09777],[31.568895,30.09776],[31.568861,30.097739],[31.568845,30.097729],[31.568828,30.097719],[31.568812,30.097709],[31.568795,30.097699],[31.568763,30.097678],[31.568746,30.097668],[31.56873,30.097658],[31.568713,30.097648],[31.568697,30.097637],[31.568664,30.097617],[31.568631,30.097596],[31.568599,30.097575],[31.568566,30.097555],[31.568533,30.097534],[31.568517,30.097523],[31.568501,30.097513],[31.568485,30.097502],[31.568468,30.097492],[31.568452,30.097481],[31.568436,30.097471],[31.568403,30.09745],[31.568387,30.097439],[31.568371,30.097429],[31.568339,30.097408],[31.568323,30.097397],[31.568307,30.097386],[31.56829,30.097376],[31.568274,30.097365],[31.568242,30.097344],[31.56821,30.097322],[31.568178,30.097301],[31.568162,30.09729],[31.568146,30.097279],[31.568114,30.097258],[31.568082,30.097236],[31.568066,30.097225],[31.56805,30.097214],[31.568035,30.097203],[31.568019,30.097193],[31.568003,30.097182],[31.567987,30.097171],[31.567971,30.09716],[31.567955,30.097149],[31.567939,30.097138],[31.567924,30.097127],[31.567908,30.097116],[31.567892,30.097105],[31.56786,30.097083],[31.567845,30.097072],[31.567829,30.097061],[31.567798,30.097039],[31.567766,30.097017],[31.56775,30.097005],[31.567735,30.096994],[31.567704,30.096972],[31.567688,30.096961],[31.567672,30.09695],[31.567657,30.096938],[31.567641,30.096927],[31.567626,30.096916],[31.56761,30.096905],[31.567594,30.096893],[31.567579,30.096882],[31.567566,30.096873],[31.567552,30.096863],[31.567539,30.096853],[31.567526,30.096843],[31.567513,30.096834],[31.567499,30.096824],[31.567486,30.096814],[31.567471,30.096803],[31.567455,30.096792],[31.567245,30.096634],[31.567038,30.096474],[31.566833,30.096311],[31.56663,30.096146],[31.566431,30.095979],[31.566234,30.095809],[31.56604,30.095637],[31.562963,30.094377],[31.561809,30.093904],[31.559932,30.093135],[31.556324,30.091658],[31.555609,30.091365],[31.554154,30.090769],[31.551469,30.089669],[31.551298,30.089616],[31.550907,30.089496],[31.537157,30.085261],[31.530994,30.085514],[31.529629,30.08557],[31.529629,30.085571],[31.521423,30.087476],[31.521698,30.086884],[31.521698,30.086883],[31.506842,30.090212],[31.506141,30.090369],[31.505865,30.089382],[31.505705,30.088809],[31.50504,30.086434],[31.504463,30.084368],[31.504365,30.084018],[31.502013,30.075608],[31.498741,30.076117],[31.491095,30.077306],[31.485959,30.07658],[31.485019,30.076447],[31.484308,30.076389],[31.483604,30.07629],[31.482909,30.076148],[31.482227,30.075966],[31.481561,30.075744],[31.480913,30.075482],[31.480288,30.075183],[31.479688,30.074847],[31.479116,30.074476],[31.478574,30.074072],[31.478065,30.073636],[31.477765,30.073449],[31.477585,30.073336],[31.477143,30.07306],[31.474373,30.071329],[31.474031,30.071115],[31.472596,30.070218],[31.470711,30.069976],[31.466592,30.069447],[31.464743,30.069718],[31.464219,30.069795],[31.464128,30.069808],[31.463969,30.069831],[31.46331,30.069928],[31.463119,30.069956],[31.461948,30.070127],[31.461743,30.070157],[31.461744,30.069977],[31.46175,30.069018],[31.461762,30.066921],[31.461771,30.06542],[31.461776,30.064579],[31.461767,30.064322],[31.461686,30.061873],[31.461665,30.061239],[31.461547,30.057639],[31.46152,30.056848],[31.461412,30.05356],[31.4614,30.053213],[31.449286,30.052177],[31.44904,30.052157],[31.442424,30.051599],[31.442425,30.05159],[31.442314,30.051581],[31.442218,30.051573],[31.442216,30.051573],[31.442171,30.051583],[31.442125,30.051592],[31.442006,30.051617],[31.442005,30.051627],[31.442004,30.05164],[31.44198,30.051642],[31.441956,30.051643],[31.441932,30.051645],[31.441908,30.051647],[31.441883,30.051648],[31.441859,30.05165],[31.441835,30.051652],[31.441163,30.051714],[31.440495,30.051801],[31.439831,30.051913],[31.439174,30.052048],[31.438523,30.052208],[31.437881,30.052392],[31.437249,30.052599],[31.436946,30.052606],[31.436414,30.052617],[31.43524,30.052643],[31.435043,30.052647],[31.432914,30.052693],[31.432644,30.052699],[31.432332,30.052705],[31.432215,30.052692],[31.431757,30.052767],[31.431295,30.052825],[31.430831,30.052865],[31.430366,30.052889],[31.4299,30.052894],[31.429434,30.052883],[31.428969,30.052854],[31.428386,30.05278],[31.427807,30.052684],[31.427233,30.052568],[31.426665,30.05243],[31.426105,30.052272],[31.425552,30.052093],[31.425009,30.051894],[31.424204,30.051829],[31.423396,30.051809],[31.422588,30.051836],[31.421784,30.051908],[31.420987,30.052026],[31.4202,30.052189],[31.419428,30.052396],[31.418672,30.052646],[31.417937,30.052939],[31.415965,30.053469],[31.415638,30.053557],[31.415632,30.053559],[31.415617,30.053563],[31.415603,30.053567],[31.415589,30.053571],[31.415575,30.053575],[31.415561,30.053579],[31.415546,30.053583],[31.415532,30.053587],[31.415518,30.053591],[31.415504,30.053595],[31.41549,30.053598],[31.415475,30.053602],[31.415461,30.053605],[31.415447,30.053609],[31.415432,30.053612],[31.415418,30.053616],[31.415403,30.053619],[31.415389,30.053622],[31.415375,30.053625],[31.41536,30.053628],[31.415346,30.053631],[31.415331,30.053634],[31.415317,30.053637],[31.415302,30.05364],[31.415288,30.053643],[31.415273,30.053645],[31.415258,30.053648],[31.415244,30.053651],[31.415229,30.053653],[31.415215,30.053655],[31.4152,30.053658],[31.415185,30.05366],[31.415171,30.053662],[31.415156,30.053664],[31.415141,30.053667],[31.415127,30.053669],[31.415112,30.053671],[31.415097,30.053672],[31.415082,30.053674],[31.415068,30.053676],[31.415053,30.053678],[31.415038,30.053679],[31.415023,30.053681],[31.415009,30.053682],[31.414994,30.053684],[31.414979,30.053685],[31.414964,30.053686],[31.414949,30.053688],[31.414935,30.053689],[31.41492,30.05369],[31.414905,30.053691],[31.41489,30.053692],[31.414875,30.053693],[31.414861,30.053694],[31.414846,30.053694],[31.414831,30.053695],[31.414816,30.053696],[31.414801,30.053696],[31.414786,30.053697],[31.414771,30.053697],[31.414756,30.053697],[31.414742,30.053698],[31.414727,30.053698],[31.414712,30.053698],[31.414697,30.053698],[31.414682,30.053698],[31.414667,30.053698],[31.414652,30.053698],[31.414637,30.053698],[31.414623,30.053697],[31.414608,30.053697],[31.414593,30.053697],[31.414578,30.053696],[31.414563,30.053696],[31.414548,30.053695],[31.414533,30.053694],[31.414518,30.053694],[31.414504,30.053693],[31.414489,30.053692],[31.414474,30.053691],[31.414459,30.05369],[31.414444,30.053689],[31.414429,30.053688],[31.414415,30.053687],[31.4144,30.053685],[31.414385,30.053684],[31.41437,30.053683],[31.414355,30.053681],[31.414341,30.05368],[31.414326,30.053678],[31.414311,30.053677],[31.414296,30.053675],[31.414282,30.053673],[31.414267,30.053671],[31.414252,30.053669],[31.414237,30.053667],[31.414223,30.053665],[31.414208,30.053663],[31.414193,30.053661],[31.414179,30.053659],[31.414164,30.053656],[31.41415,30.053654],[31.414135,30.053651],[31.41412,30.053649],[31.414106,30.053646],[31.414091,30.053644],[31.414077,30.053641],[31.414062,30.053638],[31.414048,30.053635],[31.414033,30.053632],[31.414019,30.053629],[31.414004,30.053626],[31.41399,30.053623],[31.413975,30.05362],[31.413961,30.053617],[31.413947,30.053613],[31.413932,30.05361],[31.413918,30.053606],[31.413903,30.053603],[31.413889,30.053599],[31.413875,30.053596],[31.413861,30.053592],[31.413846,30.053588],[31.413832,30.053584],[31.413818,30.053581],[31.413804,30.053577],[31.41379,30.053573],[31.413776,30.053568],[31.413762,30.053564],[31.413748,30.05356],[31.413733,30.053556],[31.413719,30.053551],[31.413706,30.053547],[31.413691,30.053543],[31.413677,30.053538],[31.413664,30.053533],[31.41365,30.053529],[31.413636,30.053524],[31.413622,30.053519],[31.413608,30.053514],[31.413594,30.05351],[31.413581,30.053505],[31.413567,30.0535],[31.413553,30.053494],[31.41354,30.053489],[31.413526,30.053484],[31.413513,30.053479],[31.413499,30.053473],[31.413485,30.053468],[31.413472,30.053463],[31.413458,30.053457],[31.413445,30.053451],[31.413432,30.053446],[31.413418,30.05344],[31.413405,30.053434],[31.413394,30.05343],[31.412912,30.053162],[31.412412,30.05292],[31.411897,30.052703],[31.411368,30.052513],[31.410827,30.05235],[31.410277,30.052215],[31.409718,30.052107],[31.419015,30.063255],[31.422861,30.066189],[31.423017,30.066308],[31.423219,30.06652],[31.423715,30.067041],[31.425491,30.06831],[31.426111,30.068753],[31.428652,30.071147],[31.430762,30.073135],[31.431531,30.074173],[31.431932,30.075835],[31.43195,30.076059],[31.431958,30.076284],[31.431956,30.076509],[31.431943,30.076734],[31.43192,30.076958],[31.431887,30.077181],[31.431844,30.077403],[31.431791,30.077644],[31.431786,30.077719],[31.431776,30.077793],[31.43176,30.077866],[31.431739,30.077939],[31.431712,30.07801],[31.43168,30.078079],[31.431643,30.078146],[31.431601,30.078211],[31.431554,30.078274],[31.431503,30.078333],[31.431447,30.07839],[31.431387,30.078443],[31.431323,30.078493],[31.431255,30.078539],[31.431184,30.078581],[31.43111,30.078619],[31.431033,30.078653],[31.430954,30.078682],[31.430873,30.078707],[31.430791,30.078727],[31.430707,30.078742],[31.429201,30.079086],[31.425982,30.07882],[31.423759,30.079114],[31.420886,30.079494],[31.419649,30.079658],[31.412242,30.081083],[31.404639,30.081096],[31.387044,30.080037],[31.382343,30.079553],[31.377778,30.078768],[31.373712,30.078742],[31.372895,30.078835],[31.370647,30.07909],[31.368403,30.079345],[31.367184,30.079483],[31.366677,30.07954],[31.361998,30.080072],[31.361586,30.080118],[31.360454,30.080247],[31.359893,30.080435],[31.358433,30.080925],[31.350442,30.088417],[31.349181,30.089599],[31.348526,30.090911],[31.34752,30.092267],[31.345499,30.093484],[31.342403,30.095347],[31.348941,30.099083],[31.349164,30.09921],[31.358387,30.104399],[31.37025,30.110393],[31.370429,30.110483],[31.3703,30.110624],[31.367082,30.114145],[31.367023,30.116937],[31.368754,30.118684],[31.386772,30.132505],[31.391956,30.13617],[31.393706,30.137131],[31.399671,30.13994],[31.399952,30.140073],[31.400134,30.140158],[31.400808,30.141006],[31.400857,30.141847],[31.401571,30.142469],[31.40149,30.142719],[31.40144,30.142874],[31.40044,30.142334],[31.399956,30.14201],[31.398892,30.14292],[31.397099,30.144455],[31.392472,30.148414],[31.391206,30.149498],[31.391254,30.149533],[31.391351,30.149603],[31.401047,30.156655],[31.403806,30.158661],[31.404058,30.158898],[31.40434,30.159162],[31.404837,30.159628],[31.407652,30.163762],[31.409254,30.165396],[31.41057,30.16676],[31.411332,30.167552],[31.411558,30.167916],[31.412797,30.169915],[31.414291,30.172083],[31.414925,30.174275],[31.415132,30.177413],[31.415319,30.181674],[31.415342,30.182837],[31.415376,30.184621],[31.415326,30.188013],[31.414661,30.190243],[31.414493,30.190484],[31.414327,30.190725],[31.414163,30.190968],[31.414001,30.191211],[31.413841,30.191455],[31.413683,30.191701],[31.413527,30.191947],[31.412513,30.193528],[31.412295,30.193867],[31.412177,30.194096],[31.412078,30.194332],[31.411999,30.194574],[31.411939,30.19482],[31.411899,30.195068],[31.411879,30.195319],[31.41188,30.19557],[31.4119,30.195821],[31.411941,30.196069],[31.411951,30.196129],[31.411962,30.196188],[31.411976,30.196247],[31.411991,30.196305],[31.412008,30.196364],[31.412027,30.196421],[31.412047,30.196479],[31.412049,30.196484],[31.412051,30.19649],[31.412053,30.196495],[31.412056,30.196501],[31.412058,30.196507],[31.41206,30.196512],[31.412062,30.196518],[31.41212,30.19665],[31.412188,30.196778],[31.412265,30.196903],[31.412351,30.197023],[31.412445,30.197138],[31.412548,30.197248],[31.412658,30.197352],[31.412776,30.19745],[31.412901,30.19754],[31.413032,30.197624],[31.413169,30.197701],[31.413311,30.19777],[31.413458,30.19783],[31.413805,30.198273],[31.419208,30.202437],[31.419311,30.202631],[31.419616,30.203204],[31.419953,30.203838],[31.420328,30.204543],[31.420638,30.206498],[31.421246,30.208229],[31.421305,30.20839],[31.422184,30.210799],[31.423551,30.214545],[31.424429,30.216707],[31.425665,30.220279],[31.426164,30.221723],[31.42634,30.222234],[31.426985,30.224596],[31.428374,30.229688],[31.428492,30.230122],[31.430278,30.236668],[31.430344,30.236908],[31.430442,30.237266],[31.430705,30.238231],[31.433332,30.242087],[31.440699,30.248327],[31.441388,30.248933],[31.442132,30.249588],[31.442978,30.250331],[31.444193,30.2514],[31.444388,30.251571],[31.445135,30.252228],[31.454026,30.259727],[31.454343,30.259995],[31.455907,30.261314],[31.458359,30.263382],[31.459423,30.264279],[31.462268,30.266679],[31.464369,30.26845],[31.465234,30.26918],[31.468036,30.271543],[31.468709,30.272111],[31.468721,30.272121],[31.469133,30.272468],[31.471022,30.274061],[31.471256,30.274259],[31.4713,30.274298],[31.471344,30.274337],[31.471387,30.274377],[31.471431,30.274417],[31.471473,30.274457],[31.471516,30.274497],[31.471559,30.274538],[31.471595,30.274572],[31.471631,30.274607],[31.471666,30.274642],[31.471702,30.274678],[31.471737,30.274713],[31.471772,30.274748],[31.471807,30.274784],[31.471922,30.274903],[31.472035,30.275024],[31.472146,30.275146],[31.472254,30.275269],[31.472361,30.275394],[31.472465,30.27552],[31.472567,30.275648],[31.472585,30.27567],[31.472603,30.275693],[31.47262,30.275715],[31.472638,30.275738],[31.472655,30.275761],[31.472672,30.275783],[31.47269,30.275806],[31.472707,30.275829],[31.472715,30.27584],[31.472724,30.275852],[31.472741,30.275875],[31.472787,30.275938],[31.472833,30.276001],[31.472879,30.276064],[31.472924,30.276128],[31.472968,30.276192],[31.473012,30.276256],[31.473055,30.276321],[31.473071,30.276344],[31.473086,30.276368],[31.473102,30.276392],[31.473117,30.276416],[31.473133,30.276439],[31.47314,30.276451],[31.473148,30.276463],[31.473163,30.276487],[31.473179,30.276511],[31.473194,30.276536],[31.473209,30.27656],[31.473224,30.276584],[31.473239,30.276609],[31.473254,30.276633],[31.473261,30.276643],[31.473267,30.276653],[31.473273,30.276663],[31.473279,30.276673],[31.473285,30.276683],[31.473291,30.276693],[31.473297,30.276703],[31.473334,30.276764],[31.473369,30.276825],[31.473405,30.276886],[31.473439,30.276947],[31.473474,30.277009],[31.473508,30.277071],[31.473541,30.277132],[31.473545,30.277139],[31.473549,30.277146],[31.473552,30.277153],[31.473556,30.27716],[31.47356,30.277167],[31.473563,30.277174],[31.473567,30.277181],[31.473569,30.277184],[31.47357,30.277188],[31.473572,30.277191],[31.473574,30.277194],[31.473576,30.277198],[31.473578,30.277201],[31.47358,30.277205],[31.473586,30.277217],[31.473593,30.27723],[31.473599,30.277243],[31.473606,30.277255],[31.473612,30.277268],[31.473619,30.27728],[31.473625,30.277293],[31.473638,30.277318],[31.473644,30.27733],[31.473651,30.277343],[31.473656,30.277354],[31.473661,30.277364],[31.473667,30.277375],[31.473672,30.277386],[31.473678,30.277396],[31.473683,30.277407],[31.473688,30.277418],[31.474336,30.278904],[31.474845,30.28007],[31.475154,30.280733],[31.475663,30.28182],[31.475756,30.28202],[31.476,30.282541],[31.476549,30.283716],[31.47724,30.285193],[31.478109,30.285413],[31.488758,30.277516],[31.500468,30.27624],[31.501684,30.276278],[31.502625,30.276307],[31.517361,30.27804],[31.534889,30.280099],[31.535776,30.280817],[31.536412,30.281331],[31.537332,30.282076],[31.549442,30.291879],[31.549704,30.292092],[31.553301,30.295003],[31.55396,30.295536],[31.554162,30.2957],[31.554293,30.295806],[31.55442,30.295916],[31.55715,30.298291],[31.558251,30.299248],[31.561051,30.301684],[31.568348,30.308029],[31.590617,30.295833],[31.597657,30.295209],[31.597851,30.295191],[31.615196,30.295787],[31.615407,30.295797],[31.616082,30.295828],[31.619214,30.29597],[31.61988,30.296001],[31.620134,30.296012],[31.619922,30.296241],[31.610324,30.306588],[31.615322,30.310052],[31.617363,30.309863],[31.617602,30.310118],[31.600999,30.328298],[31.600694,30.328632],[31.62625,30.346009],[31.626359,30.346083],[31.626656,30.34629],[31.627467,30.346856],[31.628055,30.347266],[31.62905,30.34796],[31.629899,30.348552],[31.629982,30.34861],[31.630082,30.348679],[31.630188,30.348753],[31.630235,30.348785],[31.631,30.349319],[31.632049,30.35005],[31.632492,30.350359],[31.632611,30.350443],[31.633857,30.351311],[31.63585,30.352701],[31.63775,30.354026],[31.639654,30.355353],[31.641613,30.356719],[31.64253,30.357358],[31.643629,30.358124],[31.645591,30.359492],[31.646679,30.360251],[31.64668,30.360251],[31.648324,30.361397],[31.651203,30.363404],[31.670027,30.376528],[31.67029,30.376712],[31.68285,30.385469],[31.683211,30.38572],[31.692255,30.392026],[31.692307,30.392018],[31.692785,30.391943],[31.70966,30.389313],[31.711611,30.406021],[31.723143,30.413279],[31.723299,30.415879],[31.723329,30.415878],[31.723688,30.415865],[31.731918,30.415568],[31.731927,30.416162],[31.731939,30.417005],[31.731972,30.41923],[31.731979,30.419713],[31.750226,30.432257],[31.75869,30.432338],[31.765964,30.424325],[31.765958,30.425289],[31.765912,30.432026],[31.765811,30.446983],[31.768123,30.446989],[31.768123,30.4471],[31.768118,30.448536],[31.768112,30.450427],[31.768111,30.45063],[31.768111,30.450734],[31.772944,30.450745],[31.78405,30.454276],[31.787123,30.459017],[31.788474,30.461102],[31.791287,30.461108],[31.81175,30.461152],[31.811746,30.462508],[31.811742,30.463805],[31.811741,30.464228],[31.811739,30.464843],[31.811736,30.466018],[31.811736,30.466254],[31.811735,30.466453],[31.811734,30.466926],[31.811731,30.467811],[31.81173,30.468363],[31.811721,30.471476],[31.811719,30.472187],[31.811719,30.472329],[31.811716,30.473293],[31.811715,30.473913],[31.811711,30.475321],[31.81171,30.475494],[31.81171,30.475593],[31.824105,30.475618],[31.82441,30.475423],[31.824747,30.475207],[31.841996,30.464187],[31.842784,30.463684],[31.843214,30.463409],[31.844105,30.46284],[31.844287,30.462661],[31.844482,30.462492],[31.844688,30.462334],[31.844905,30.462187],[31.845133,30.462052],[31.845369,30.46193],[31.845614,30.46182],[31.845617,30.461819],[31.84562,30.461818],[31.845624,30.461816],[31.845627,30.461815],[31.84563,30.461814],[31.845633,30.461812],[31.845637,30.461811],[31.845659,30.461802],[31.845682,30.461793],[31.845705,30.461784],[31.845728,30.461775],[31.845751,30.461766],[31.845775,30.461757],[31.845798,30.461749],[31.845801,30.461747],[31.845804,30.461746],[31.845808,30.461745],[31.845811,30.461744],[31.845814,30.461742],[31.845818,30.461741],[31.845821,30.46174],[31.846021,30.461672],[31.846225,30.461613],[31.846431,30.461563],[31.84664,30.461521],[31.846851,30.461487],[31.847064,30.461463],[31.847278,30.461447],[31.847599,30.46144],[31.847919,30.461454],[31.848237,30.461487],[31.848552,30.461539],[31.848862,30.461612],[31.849164,30.461703],[31.849459,30.461812],[31.849917,30.461931],[31.852518,30.462605],[31.854625,30.463151],[31.855825,30.463461],[31.865903,30.466071],[31.882347,30.47033],[31.904148,30.473038],[31.92595,30.475746],[31.925911,30.475982],[31.92565,30.477563],[31.925365,30.479284],[31.924857,30.482357],[31.924307,30.485679],[31.923554,30.490235],[31.92329,30.491829],[31.921683,30.501548],[31.921019,30.505558],[31.92063,30.507911],[31.933366,30.509489],[31.933569,30.509514],[31.941052,30.510441],[31.941054,30.510441],[31.941057,30.510442],[31.95169,30.511759],[31.953593,30.511995],[31.96128,30.512947],[31.961371,30.512958],[31.961478,30.512972],[31.962226,30.511384],[31.963482,30.508717],[31.963621,30.508421],[31.96411,30.507327],[31.964135,30.507331],[31.964156,30.507334],[31.964203,30.50734],[31.965925,30.507587],[31.977066,30.509184],[31.991059,30.511654],[31.992034,30.511826],[31.995247,30.512393],[31.99958,30.513157],[31.999972,30.513226],[32.004861,30.514089],[32.007807,30.514609],[32.007929,30.51463],[32.009637,30.514932],[32.014473,30.515785],[32.015966,30.516049],[32.018924,30.516571],[32.020245,30.516804],[32.022095,30.51713],[32.022453,30.517193],[32.022515,30.517204],[32.022929,30.517277],[32.023452,30.51737],[32.029577,30.518451],[32.033245,30.519098],[32.035329,30.519466],[32.040792,30.520429],[32.044099,30.521013],[32.044554,30.521093],[32.044785,30.521137],[32.044809,30.521141],[32.044898,30.521159],[32.045032,30.521184],[32.045239,30.521224],[32.045231,30.521279],[32.045223,30.521334],[32.045216,30.521389],[32.045208,30.521444],[32.045201,30.521499],[32.045195,30.521555],[32.045188,30.52161],[32.045176,30.521717],[32.045164,30.521824],[32.045154,30.521931],[32.045144,30.522038],[32.045135,30.522145],[32.045127,30.522252],[32.04512,30.522359],[32.045114,30.522467],[32.045108,30.522574],[32.045103,30.522682],[32.045099,30.522789],[32.045096,30.522897],[32.045094,30.523004],[32.045092,30.523112],[32.045092,30.523269],[32.045093,30.523425],[32.045096,30.523582],[32.0451,30.523738],[32.045107,30.523895],[32.045115,30.524051],[32.045125,30.524207],[32.045178,30.5248],[32.045256,30.52539],[32.04536,30.525977],[32.045488,30.526561],[32.045641,30.52714],[32.045819,30.527714],[32.046021,30.528282],[32.046149,30.528616],[32.046253,30.52889],[32.047671,30.532601],[32.047821,30.532994],[32.047891,30.533154],[32.047962,30.533312],[32.048036,30.53347],[32.048112,30.533627],[32.04819,30.533783],[32.04827,30.533939],[32.048352,30.534093],[32.048575,30.53449],[32.048811,30.53488],[32.049061,30.535265],[32.049324,30.535642],[32.049601,30.536012],[32.04989,30.536375],[32.050192,30.53673],[32.050237,30.536782],[32.050283,30.536833],[32.050329,30.536884],[32.050375,30.536935],[32.050421,30.536985],[32.050468,30.537036],[32.050515,30.537086],[32.050628,30.537259],[32.050812,30.537482],[32.050899,30.537587],[32.053359,30.540577],[32.053874,30.541203],[32.053884,30.541215],[32.053894,30.541227],[32.053904,30.541239],[32.053914,30.541251],[32.053924,30.541262],[32.053934,30.541274],[32.053943,30.541286],[32.054382,30.541846],[32.054784,30.542426],[32.05515,30.543023],[32.055479,30.543637],[32.055768,30.544266],[32.056018,30.544907],[32.056227,30.545558],[32.056241,30.545605],[32.056254,30.545652],[32.056267,30.545699],[32.056279,30.545745],[32.056292,30.545792],[32.056304,30.545839],[32.056316,30.545886],[32.056422,30.546236],[32.05655,30.546658],[32.05909,30.55503],[32.059099,30.555051],[32.059109,30.555072],[32.059118,30.555093],[32.059127,30.555114],[32.059136,30.555135],[32.059145,30.555156],[32.059154,30.555178],[32.059182,30.555245],[32.059209,30.555312],[32.059235,30.555379],[32.05926,30.555446],[32.059285,30.555514],[32.059309,30.555582],[32.059332,30.55565],[32.059347,30.555697],[32.059362,30.555744],[32.059377,30.55579],[32.059391,30.555837],[32.059404,30.555884],[32.059418,30.555931],[32.059431,30.555978],[32.059433,30.555988],[32.059436,30.555997],[32.059439,30.556007],[32.059441,30.556016],[32.059444,30.556025],[32.059446,30.556035],[32.059448,30.556044],[32.059454,30.556066],[32.059462,30.556097],[32.05947,30.556127],[32.059477,30.556158],[32.059484,30.556189],[32.059492,30.55622],[32.059499,30.556251],[32.059506,30.556282],[32.05951,30.556304],[32.059515,30.556325],[32.059517,30.556336],[32.05952,30.556347],[32.059524,30.556369],[32.059529,30.556391],[32.059533,30.556413],[32.059537,30.556435],[32.059542,30.556457],[32.059544,30.556468],[32.059546,30.55648],[32.05955,30.556502],[32.059552,30.556512],[32.059554,30.556523],[32.059554,30.556524],[32.059558,30.556545],[32.059558,30.556546],[32.059561,30.556567],[32.05957,30.556616],[32.059578,30.556665],[32.059585,30.556714],[32.059592,30.556763],[32.059599,30.556812],[32.059605,30.556862],[32.059611,30.556911],[32.059612,30.556922],[32.059613,30.556933],[32.059614,30.556944],[32.059616,30.556955],[32.059616,30.556956],[32.059618,30.556978],[32.05962,30.557001],[32.059623,30.557023],[32.059624,30.557035],[32.059625,30.557046],[32.059627,30.557068],[32.059629,30.557091],[32.05963,30.557102],[32.059631,30.557113],[32.059632,30.557136],[32.059633,30.557147],[32.059634,30.557158],[32.059636,30.557181],[32.059637,30.557203],[32.059638,30.557215],[32.059639,30.557226],[32.05964,30.557248],[32.059641,30.557271],[32.059642,30.557282],[32.059643,30.557294],[32.059644,30.557316],[32.059645,30.557339],[32.059646,30.557361],[32.059647,30.557384],[32.059647,30.557406],[32.059648,30.557429],[32.059649,30.557451],[32.059649,30.557474],[32.05965,30.557497],[32.05965,30.557519],[32.05965,30.557542],[32.059651,30.557564],[32.059651,30.557587],[32.059651,30.557609],[32.059651,30.557632],[32.059651,30.557655],[32.059651,30.557677],[32.05965,30.5577],[32.05965,30.557722],[32.05965,30.557745],[32.059649,30.557767],[32.059649,30.557779],[32.059648,30.55779],[32.059648,30.557812],[32.059647,30.557835],[32.059646,30.557858],[32.059645,30.55788],[32.059644,30.557903],[32.059643,30.557925],[32.059642,30.557936],[32.059642,30.557948],[32.059641,30.55797],[32.059639,30.557993],[32.059638,30.558015],[32.059636,30.558038],[32.059635,30.55806],[32.059633,30.558083],[32.059632,30.558094],[32.059631,30.558105],[32.059629,30.558128],[32.059627,30.55815],[32.059625,30.558173],[32.059623,30.558195],[32.059621,30.558218],[32.059619,30.55824],[32.059617,30.558262],[32.059617,30.558263],[32.059614,30.558285],[32.059611,30.558311],[32.059608,30.558336],[32.059605,30.558362],[32.059602,30.558388],[32.059599,30.558413],[32.059595,30.558439],[32.059592,30.558465],[32.064489,30.565915],[32.064788,30.56637],[32.065682,30.56773],[32.066201,30.56815],[32.066686,30.568601],[32.067135,30.569078],[32.067545,30.569581],[32.067915,30.570106],[32.068243,30.570653],[32.068528,30.571217],[32.068767,30.571796],[32.068961,30.572388],[32.069108,30.57299],[32.069208,30.5736],[32.06926,30.574213],[32.069264,30.574829],[32.069203,30.576445],[32.069185,30.576916],[32.069091,30.579427],[32.068791,30.583406],[32.069627,30.586953],[32.069714,30.587324],[32.069863,30.587957],[32.070033,30.588678],[32.070107,30.588776],[32.07018,30.588874],[32.070251,30.588974],[32.070321,30.589074],[32.070389,30.589175],[32.070456,30.589277],[32.070522,30.589379],[32.070812,30.58987],[32.071069,30.590374],[32.071293,30.59089],[32.071483,30.591417],[32.071639,30.591951],[32.071759,30.592492],[32.071844,30.593039],[32.071857,30.593155],[32.071869,30.593272],[32.071879,30.593389],[32.071888,30.593505],[32.071895,30.593622],[32.0719,30.593739],[32.071904,30.593856],[32.071906,30.593988],[32.071906,30.594119],[32.071904,30.594251],[32.0719,30.594382],[32.071894,30.594514],[32.071886,30.594645],[32.071876,30.594776],[32.071949,30.595435],[32.072523,30.600607],[32.072717,30.602348],[32.072909,30.606243],[32.072993,30.607954],[32.074362,30.612523],[32.074624,30.613398],[32.074886,30.614272],[32.074912,30.61436],[32.07493,30.614421],[32.075026,30.61474],[32.0753,30.615655],[32.075394,30.615967],[32.075837,30.616625],[32.076247,30.617299],[32.076622,30.617988],[32.076961,30.618691],[32.077263,30.619406],[32.077529,30.620132],[32.077757,30.620868],[32.078023,30.621333],[32.078669,30.622465],[32.082163,30.628583],[32.086089,30.633074],[32.088132,30.635397],[32.088811,30.636169],[32.088883,30.636251],[32.088951,30.636332],[32.089019,30.636413],[32.089087,30.636495],[32.089154,30.636577],[32.08922,30.636659],[32.089286,30.636741],[32.089352,30.636824],[32.089445,30.636941],[32.089536,30.637058],[32.089627,30.637176],[32.089716,30.637294],[32.089805,30.637413],[32.089894,30.637532],[32.089981,30.637652],[32.090013,30.637697],[32.090046,30.637742],[32.090078,30.637787],[32.09011,30.637832],[32.090142,30.637877],[32.090174,30.637923],[32.090206,30.637968],[32.09033,30.638148],[32.090453,30.638328],[32.090574,30.63851],[32.090693,30.638692],[32.09081,30.638875],[32.090925,30.639059],[32.091038,30.639244],[32.091102,30.639351],[32.091166,30.639458],[32.091228,30.639565],[32.091291,30.639672],[32.091352,30.63978],[32.091413,30.639887],[32.091474,30.639996],[32.09148,30.640007],[32.091486,30.640018],[32.091492,30.640029],[32.091498,30.64004],[32.091505,30.640052],[32.091506,30.640055],[32.091509,30.64006],[32.091511,30.640063],[32.091512,30.640065],[32.091515,30.640071],[32.091517,30.640074],[32.091518,30.640076],[32.091521,30.640081],[32.091523,30.640086],[32.091526,30.640091],[32.091537,30.64011],[32.091538,30.640112]],[[31.432054,30.077289],[31.43212,30.076796],[31.432149,30.076302],[31.43214,30.075806],[31.432094,30.075312],[31.432011,30.074822],[31.433433,30.076742],[31.433473,30.076793],[31.433512,30.076844],[31.433551,30.076896],[31.43359,30.076948],[31.433628,30.077],[31.433666,30.077052],[31.433703,30.077105],[31.433689,30.077109],[31.433639,30.077071],[31.433586,30.077037],[31.433531,30.077006],[31.433473,30.076978],[31.433413,30.076954],[31.433352,30.076934],[31.433289,30.076917],[31.433224,30.076905],[31.433159,30.076896],[31.433094,30.076891],[31.433028,30.07689],[31.432962,30.076893],[31.432897,30.0769],[31.432832,30.076911],[31.432768,30.076926],[31.432706,30.076945],[31.432646,30.076968],[31.432587,30.076994],[31.43253,30.077023],[31.432477,30.077056],[31.432425,30.077092],[31.432335,30.077204],[31.432254,30.077321],[31.432183,30.077443],[31.432122,30.077568],[31.432071,30.077698],[31.432031,30.07783],[31.432002,30.077964],[31.431984,30.078099],[31.431977,30.078236],[31.431975,30.078256],[31.431974,30.078277],[31.431974,30.078297],[31.431974,30.078318],[31.431976,30.078339],[31.431978,30.078359],[31.431982,30.078379],[31.431982,30.078382],[31.431983,30.078385],[31.431983,30.078387],[31.431984,30.07839],[31.431984,30.078392],[31.431985,30.078395],[31.431985,30.078397],[31.431986,30.078401],[31.431987,30.078405],[31.431988,30.078409],[31.431989,30.078412],[31.43199,30.078416],[31.431991,30.07842],[31.431992,30.078424],[31.431999,30.078447],[31.432008,30.078471],[31.432018,30.078493],[31.432029,30.078516],[31.432041,30.078538],[31.432054,30.078559],[31.432068,30.07858],[31.432137,30.078694],[31.432214,30.078803],[31.432301,30.078907],[31.432396,30.079006],[31.432499,30.079098],[31.432609,30.079184],[31.432726,30.079262],[31.432849,30.079334],[31.432978,30.079397],[31.430555,30.079197],[31.430698,30.079147],[31.430837,30.079089],[31.430971,30.079023],[31.4311,30.078949],[31.431223,30.078869],[31.43134,30.078782],[31.43145,30.078688],[31.431552,30.078588],[31.431647,30.078482],[31.431734,30.078372],[31.431813,30.078257],[31.431952,30.077776],[31.432054,30.077289]],[[31.434287,30.079181],[31.434095,30.079162],[31.433904,30.079143],[31.433712,30.079123],[31.433521,30.079103],[31.433329,30.079082],[31.433138,30.079061],[31.433061,30.079051],[31.432985,30.079035],[31.432911,30.079016],[31.432838,30.078991],[31.432767,30.078963],[31.432699,30.078931],[31.432633,30.078895],[31.43257,30.078855],[31.432511,30.078811],[31.432454,30.078764],[31.432402,30.078714],[31.432354,30.078661],[31.43231,30.078605],[31.43227,30.078547],[31.432235,30.078486],[31.432204,30.078424],[31.432179,30.07836],[31.432158,30.078295],[31.432143,30.078228],[31.432132,30.078161],[31.432127,30.078094],[31.432127,30.078026],[31.432133,30.077958],[31.432143,30.077891],[31.432159,30.077825],[31.43218,30.07776],[31.432206,30.077696],[31.432236,30.077633],[31.432272,30.077573],[31.43229,30.077531],[31.432311,30.077491],[31.432336,30.077451],[31.432363,30.077414],[31.432393,30.077378],[31.432426,30.077343],[31.432462,30.077311],[31.432499,30.077281],[31.432539,30.077253],[31.432582,30.077228],[31.432626,30.077205],[31.432671,30.077184],[31.432718,30.077166],[31.432767,30.077151],[31.432816,30.077139],[31.432866,30.07713],[31.432917,30.077124],[31.432968,30.077121],[31.43302,30.07712],[31.433071,30.077123],[31.433122,30.077129],[31.433172,30.077137],[31.433222,30.077149],[31.43327,30.077163],[31.433318,30.07718],[31.433364,30.0772],[31.433408,30.077222],[31.43345,30.077247],[31.433491,30.077275],[31.433529,30.077305],[31.433565,30.077336],[31.434479,30.0792],[31.434287,30.079181]]]}}
]
}
