{"type":"FeatureCollection","features":[{"type":"Feature","properties":{"اسم_الخط":"القطار الكهربائي الخفيف LRT"},"geometry":{"type":"MultiLineString","coordinates":[[[31.72315321900004,30.03082955000008],[31.72575765400006,30.03751965400005],[31.72650162600007,30.03925436900005],[31.72734682600003,30.04095362500004],[31.72829103600003,30.04261295500004],[31.72933177900006,30.04422799700006],[31.73046632300003,30.04579450300002],[31.73169168800007,30.04730835500004],[31.73300465600004,30.04876557000006],[31.73440177800006,30.05016231800005],[31.73587938400004,30.05149492500004],[31.73743358900003,30.05275988600005],[31.73906030800003,30.05395387300007],[31.74075526700005,30.05507374800004],[31.74251400700007,30.05611656300005],[31.74469221600003,30.05725831300003],[31.79266469400005,30.08093521600006]],[[31.75341035600007,30.16628555200003],[31.74949122800007,30.16716295600003],[31.72784742100004,30.17218712200003],[31.74950194900003,30.16719781400008]],[[31.70555459700006,30.17737375700005],[31.66565712800008,30.18232220100003],[31.65730465800004,30.18364192100006]],[[31.45667824300006,30.15610996200007],[31.43146834900006,30.14915569300007]],[[31.58636666400002,30.17703129600005],[31.56101925100006,30.17386118500008]],[[31.80534938800002,30.11811709300002],[31.80700237300005,30.13965843900007]],[[31.51892166300007,30.16856478200003],[31.49507481700005,30.16555984300004]],[[31.48320026200003,30.16331973200005],[31.47184258300007,30.16029103800003],[31.46075237500003,30.15715029200004]],[[31.72150707800006,30.17383263000005],[31.72492609000005,30.17295623300004],[31.72130649700006,30.17387925000003],[31.70844207700003,30.17686280100003]],[[31.42823700000002,30.14824985400003],[31.42459346000004,30.14730310800007],[31.41800643200003,30.14548552700006],[31.42458089800004,30.14733749900006]],[[31.72492937100003,30.01214623900006],[31.72498333100003,30.01956507700004],[31.72497678000008,30.01296428400008]],[[31.60706767000005,30.17966016100007],[31.59380687400005,30.17799788000008]],[[31.49144420900006,30.16499634400003],[31.49476665600002,30.16552070800003],[31.49113989600005,30.16493881500003],[31.48615534100003,30.16399185700004]],[[31.54453668200006,30.17180506100004],[31.53270368900007,30.17033909200006]],[[31.80683839900007,30.14400061400005],[31.80529796300004,30.15406530400003]],[[31.63813770800004,30.18346367200007],[31.62675382600003,30.18204517100003]],[[31.80237457000004,30.09663264500006],[31.80237457000004,30.09663264500006],[31.80270434300007,30.09869278900004],[31.80362336900004,30.10583821100005]],[[31.76925217700006,30.16906981600005],[31.76046087000003,30.16650809800007]],[[31.55649802900007,30.17338682800005],[31.54879750100002,30.17242153700005]],[[31.78503902700004,30.16737819100007],[31.77779507200006,30.16921623100006]],[[31.73050086600006,30.04577453500008],[31.73172499200007,30.04728685100002],[31.72936746800008,30.04420961700004]],[[31.61706343400004,30.18085903100007],[31.61074578800003,30.18007092700003]],[[31.64627818900004,30.18403541200007],[31.64102998800007,30.18372812800004]],[[31.80073696300008,30.09031323800007],[31.80189148200003,30.09459549900004]],[[31.65402710200004,30.18394362200006],[31.64904747900005,30.18407879100005]],[[31.80392818900003,30.15814599200007],[31.80220553700008,30.16136387900008]],[[31.52936555400004,30.16987939100005],[31.52552976600003,30.16939666800005]],[[31.62366892700004,30.18171915400006],[31.62026584600005,30.18129485000003]],[[31.59174797200006,30.17775017700006],[31.59003039600003,30.17753750200006]]]}}]}