{"type":"FeatureCollection","features":[{"type":"Feature","properties":{"اسم_الخط":"مترو الخط الرابع"},"geometry":{"type":"MultiLineString","coordinates":[[[31.79558819900006,30.08204315900008],[31.79626062900007,30.08107820700008],[31.78563608800005,30.07583260400003],[31.78499265300007,30.07681103000004],[31.79581476200008,30.08171926600005],[31.79713236700007,30.08257289200003],[31.79796149100002,30.08369419800005],[31.79875637400005,30.08462005800004],[31.79943646100003,30.08568781000002],[31.80025162000004,30.08769171000006],[31.79898098400002,30.08545262200005],[31.79762716800008,30.08406804100002],[31.79884887600008,30.08552432300007],[31.79979154500006,30.08706535500005],[31.80057593300006,30.08889481100005],[31.80099941300006,30.09060406500004],[31.80110155100004,30.09198003100005],[31.80089817400005,30.09336447000004],[31.80053752700007,30.09448819300007],[31.80025914800007,30.09473888400004],[31.80062165600003,30.09232402600003],[31.80056155800003,30.09084554100008],[31.80010750400004,30.08893879400006],[31.79890228300007,30.08702897400008],[31.79993711600002,30.08939974100008],[31.80033584500006,30.09157672600003],[31.80015098900003,30.09396794300005],[31.79955433200007,30.09645314700003],[31.80030474800003,30.09398895100003],[31.80049122800006,30.09156892500005],[31.80008755400007,30.08936504700006],[31.79890228300007,30.08702897400008],[31.79724546700004,30.08477700600002],[31.79612813900007,30.08367641800004],[31.79500820900006,30.08283491800006],[31.78286340000005,30.07662500200007],[31.79510069500003,30.08272606500003],[31.79623805000006,30.08358058600004],[31.79736821300003,30.08469375500005],[31.79918084900005,30.08690754900005],[31.79749095900007,30.08461050400007],[31.79634796000005,30.08348475300005],[31.79519318100006,30.08261721300005],[31.78318798200007,30.07604771900003],[31.79470487800006,30.08177114300003],[31.79628108600008,30.08285177200003],[31.79796149000003,30.08369419700006],[31.79692669100007,30.08277627600006],[31.79573347700006,30.08183468200007],[31.79702952900004,30.08267458400007],[31.79773319400005,30.08396812900003],[31.79638569900004,30.08275145800008],[31.79476336900007,30.08169655400008],[31.78495731000003,30.07780682300006],[31.78509363400008,30.07759938800007],[31.78338228600006,30.07674865900003],[31.78324595900006,30.07695609200005],[31.78485077100004,30.07697065000008],[31.79464638700006,30.08184573200003],[31.79545305800008,30.08236052900003],[31.79752114300004,30.08416795400007],[31.79921332900005,30.08634428400006],[31.80002372300004,30.08792328200008],[31.80060824600002,30.08948901300005],[31.80084472600004,30.09061964900008],[31.80093411600006,30.09219910700006],[31.80074579100005,30.09333656300004],[31.79941277000006,30.09639688200008],[31.79861304700006,30.09789249500005],[31.79798757500004,30.09869336500003],[31.79682878600005,30.09956465700003],[31.79543173800005,30.10005131900004],[31.78935050000007,30.10083716600008],[31.78325310100007,30.10185411100008],[31.78079925300005,30.10241754500004],[31.78330688500006,30.10212073000002],[31.78940081800005,30.10110429700006],[31.79550415200003,30.10031458200007],[31.79699355600007,30.09979432300003],[31.79820862600008,30.09867389700003],[31.79691117100003,30.09967949000004],[31.79546794500004,30.10018295000003],[31.78937565900003,30.10097073200006],[31.78327999300006,30.10198742100005],[31.78078128800007,30.10228310600007],[31.76478200400004,30.10402190000008],[31.75143773100007,30.10507601600006],[31.74125838100008,30.10588630000007],[31.73705027800003,30.10629561100006],[31.72735543700003,30.10817432400006],[31.72277383500005,30.10904637100003],[31.71047206400004,30.11099269200002],[31.70667356700005,30.11128587000007],[31.70331567000005,30.11125314200007],[31.68140873300007,30.11082888800007],[31.67835926700008,30.11079806800007],[31.67248778800007,30.11081013900002],[31.67015918900006,30.11093600000004],[31.66775624900004,30.11126512900006],[31.66627485800007,30.11183032800005],[31.66395712300005,30.11325602500006],[31.66217790900004,30.11407933100003],[31.65609646300004,30.11585602900004],[31.65180597600005,30.11731837100007],[31.64869796100004,30.11829291700008],[31.64629799000005,30.11850089100005],[31.64185771300004,30.11804244500007],[31.63994966100006,30.11756999700003],[31.63622911200002,30.11640006300007],[31.62999003100003,30.11555287700003],[31.62804435000004,30.11527456100004],[31.62808896800004,30.11503881500005],[31.63003464500002,30.11531713000005],[31.63122498500007,30.11560839200007],[31.62484619200006,30.11460276800005],[31.61957932800004,30.11192548900004],[31.61224095300003,30.10933904300003],[31.60648992500006,30.10723279500007],[31.60474753900007,30.10674481900003],[31.59747364900005,30.10594753500004],[31.59127410500002,30.10485490400004],[31.58529048000003,30.10332517200004],[31.58040741200006,30.10254534700005],[31.57651758500003,30.10215647600006],[31.57385082400003,30.10143720900004],[31.57162417100005,30.10010624600005],[31.57396966100004,30.10118703700005],[31.57657522900007,30.10189034600006],[31.58045554600005,30.10227792700005],[31.58535423900003,30.10306023700008],[31.59134830900007,30.10459203000005],[31.59752821700005,30.10568099400007],[31.60482157700005,30.10648189700004],[31.60660755000004,30.10698217300006],[31.61230171800003,30.10921444400003],[31.60654873800007,30.10710748400004],[31.60478455800006,30.10661335800006],[31.59750093300005,30.10581426500005],[31.59131120700005,30.10472346700004],[31.58532236000008,30.10319270500003],[31.58043147900003,30.10241163700005],[31.57654640700002,30.10202341100006],[31.57391024300006,30.10131212300007],[31.57154407500008,30.10022246300008],[31.56997376600003,30.09941037200008],[31.56764012700006,30.09756604100005],[31.56412166700005,30.09503651300003],[31.56244123600004,30.09409894100003],[31.55930669600007,30.09286099500002],[31.55247203600004,30.09078731300008],[31.55252890000003,30.09066133600004],[31.55408488600006,30.09133782500004],[31.55918481100008,30.09311005300003],[31.56229299300003,30.09433694600006],[31.56393069900003,30.09525025900007],[31.56754251900002,30.09767145600006],[31.56402618400006,30.09514338600007],[31.56236711500003,30.09421794300005],[31.55924575300003,30.09298552400003],[31.55252890000003,30.09066133600004],[31.53976075900005,30.08622849100004],[31.53851672300004,30.08592402000005],[31.53441315200007,30.08528745800004],[31.53307328800003,30.08525790000004],[31.53093190000004,30.08552195800007],[31.51390618700002,30.08947479400007],[31.49892475900003,30.09295191900003],[31.48921368200007,30.09508969200004],[31.48641206400004,30.09532776400005],[31.48241563800008,30.09528820300005],[31.47829289700007,30.09465328700002],[31.46942099000006,30.09217063700004],[31.46341485500005,30.09030858900007],[31.4600086440489,30.08868555689979],[31.45783384672563,30.08773668119655],[31.45688190973822,30.08762130694307],[31.45597651881839,30.08770397576718],[31.45481476651477,30.08810653059267],[31.45109021164241,30.09048813694778],[31.45472870956113,30.08799355581965],[31.45594224424257,30.08757196842377],[31.45688405062777,30.08748598932351],[31.45787417878218,30.08760597492955],[31.46008571061311,30.08856798555265],[31.45787269855642,30.0878866666253],[31.45696644663528,30.08775854480509],[31.45601079347757,30.08783598310229],[31.45490070103978,30.08821958417567],[31.45118852048813,30.09059304586783],[31.45113194082786,30.0904613393325],[31.45102858069903,30.09041556151825],[31.45096874213428,30.09026915799775]],[[30.948474038032,29.9681245012621],[30.9455968631735,29.9716231966665],[30.9428715185626,29.974797859196],[30.9486247839807,29.9679662221642],[30.9498569790072,29.9657913423613],[30.9540214441177,29.9608626232027],[30.9553141218264,29.959813149723],[30.95681099361011,29.9589949315125],[30.9612945305266,29.9575127120657],[30.9624342079153,29.9575875060438],[30.9633406212724,29.9580025593937],[30.9758128780981,29.9661998667578],[30.980516500844,29.9695418100603],[30.9880285775317,29.974372496094],[30.9893547094598,29.9749813371717],[30.9907641718766,29.9754262134943],[30.9922303685751,29.975698729724],[30.9937256317603,29.9757937429422],[30.9959612827407,29.9756004472362],[30.9990225292032,29.9748310523138],[31.0576390937318,29.9578208011934],[31.0590528882845,29.9576424135278],[31.0599012827497,29.9578581930838],[31.0604887450227,29.9582027992748],[31.0610371340173,29.9588063760932],[31.0613298192447,29.9595218578032],[31.0637684403924,29.9698514115517],[31.0646505818237,29.9727963357919],[31.0652310263763,29.9810859674987],[31.0654040412405,29.9818750815823],[31.0658487909532,29.9825510231786],[31.066453500262,29.9830193849135],[31.0704818883635,29.9847850146237],[31.0676799209973,29.9835755516342],[31.066137397498,29.9827332863563],[31.0654666883456,29.981858260519],[31.0653016955876,29.9811445075629],[31.0650825592127,29.977784972717],[31.0646144855263,29.9727695010948],[31.0637441377011,29.9698813087146],[31.0613903981919,29.9599035765887],[31.0610098140688,29.9588192771508],[31.0603333211195,29.9581250295664],[31.0592229899823,29.9576916874053],[31.0580212627183,29.9577472969229],[30.9990321558918,29.9748567832068],[30.9959675316513,29.9756269558571],[30.9937255114534,29.9758208032222],[30.9922259882374,29.9757255199576],[30.9907556142433,29.975452227969],[30.9893421361137,29.9750060848199],[30.9873865253042,29.97403204523451],[30.9803902524152,29.9694916638866],[30.9757082443836,29.9661641016992],[30.9630124252604,29.9578437490946],[30.9622681739253,29.9575761589711],[30.961460655063,29.9575231618449],[30.9597341193109,29.957981607527],[30.9597208394562,29.957826691808],[30.9579817766573,29.9584124267475],[30.9580807309541,29.9586352020544],[30.9598197972152,29.9580494659808],[30.9597099030853,29.9579270917851],[30.9573396607014,29.9587641915285],[30.9553030694546,29.9598006333],[30.9532583777365,29.9616823436629],[30.9501193870678,29.9654397802976],[30.9501896439922,29.9653060033385],[30.9514551110197,29.9640439623884],[30.95123327232,29.9639034549566],[30.950075396852,29.9652894132803],[30.9502972367607,29.9654299227042],[30.9496170520352,29.9660230981785],[30.9486721641963,29.9678014599438],[30.9440956727782,29.9732862798126],[30.9485952293959,29.9679479194919],[30.9498275868125,29.9657727549802],[30.9539937118658,29.9608422611214],[30.9552920170941,29.9597881168858],[30.9567955185436,29.9589663630713],[30.9612846930912,29.957481900438],[30.9622853231835,29.957519265615],[30.9633581482313,29.9579746068599],[30.9724651098724,29.9639053432489],[30.9786117489403,29.9681424062694],[30.9880432324814,29.9743432597472],[30.9893535418511,29.9749463471894],[30.9907458595847,29.9753887633492],[30.9921943366799,29.9756622939545],[30.9936720805162,29.9757618601953],[30.9958835305999,29.9755818746608],[30.9973144714401,29.9752455758218],[31.0516243543307,29.9594774020453],[31.0579292092599,29.9577087580709],[31.0590537489402,29.9576105144109],[31.0599168653477,29.957829427808],[31.0605143117839,29.958180052465],[31.0610712654802,29.958794539912],[31.0613641599985,29.9595108736321],[31.063803214279,29.9698420511781],[31.06468650083441,29.972791954993],[31.0652672442444,29.9810840219665],[31.0654394298927,29.9818669121054],[31.0658754879662,29.9825293150621],[31.0664802971195,29.9829968824717],[31.0715030976491,29.9853822507025],[31.070496070122,29.9847906941887],[31.0703613868484,29.9850346001709],[31.0723460066086,29.9858650844348]],[[31.0637085658803,29.9695255081402],[31.0618408613445,29.9613885706808],[31.0638403784827,29.969863329485],[31.0643836774241,29.9716485883459],[31.0647834831415,29.9738716452756],[31.06532292444041,29.9815734310585],[31.0656546312359,29.9822885506283],[31.0669389443948,29.9832552260852],[31.0705325341695,29.9849936201181],[31.07336313400004,29.98617809600006],[31.08201116000016,29.98976760000004],[31.08393658000013,29.99022807500004],[31.08579196500013,29.9901603610001],[31.09103414000016,29.98895390000003],[31.09281431900008,29.98872857000007],[31.09675068500018,29.9889322850001],[31.10275998000009,29.98885160000008],[31.1050393490001,29.98915658200014],[31.11167634500005,29.99109582500006],[31.11381159200007,29.99200687800005],[31.1145893920001,29.99253192200016],[31.11519071800014,29.99317050800008],[31.11623409000009,29.99530405600019],[31.1167614600002,29.99598120600008],[31.11775285000017,29.99662389000014],[31.11895803000006,29.99690025000006],[31.12031653500009,29.99672592000006],[31.1214819300002,29.99607636500004],[31.12506174500015,29.99296208600003],[31.12826789000031,29.98923655500023],[31.12909179000007,29.98868901700005],[31.13328689899998,29.98693986500015],[31.13540163000011,29.9854069350001],[31.13638443000009,29.98517115000006],[31.13738674000001,29.98527394400003],[31.20345043427495,30.01015741487035],[31.20650222000007,30.01135743000012],[31.20804661999,30.01236752001187],[31.20967511049423,30.01408796947443],[31.20811978922615,30.01234980087463],[31.20651818100004,30.01133312000007],[31.20564935300007,30.01091873800004],[31.20228649500007,30.00975648600007],[31.13715172000008,29.98521884000007],[31.13625558000007,29.98518234500006],[31.13539236600008,29.98541098000004],[31.13324722900006,29.98696098000005],[31.12871636000006,29.98890331500007],[31.12789787000003,29.98959320100005],[31.12499722000007,29.99302680000005],[31.12151944900006,29.99604525500007],[31.12044644500003,29.99668080000004],[31.11918068500006,29.99690634500007],[31.11788960900003,29.99667801000004],[31.11681452500005,29.99603060100003],[31.11624778000004,29.99532834500008],[31.11517363200005,29.99314763700005],[31.11455548100002,29.99250358800003],[31.11376765200004,29.99198261800007],[31.11167634500003,29.99109582500006],[31.10510929800006,29.98917326800006],[31.10275998000003,29.98885160000003],[31.09675068500007,29.98893228500003],[31.09282467300005,29.98872805500002],[31.09105244500006,29.98895017000007],[31.08576265500005,29.99016525600007],[31.08380281100006,29.99021418000007],[31.08187871000007,29.98971607000004],[31.07145988879813,29.98536411784711],[31.0816047776911,29.98961777873723],[31.07149719882347,29.98529500680013],[31.08157792967285,29.98966760977112],[31.08324195000007,29.99004706000004],[31.08488058000006,29.99016659000018],[31.08601197000007,29.99002614000013],[31.09213473000007,29.9886969900001],[31.09364984000019,29.98864043000007],[31.09626088000003,29.98884775000018],[31.0978921700002,29.98884675000007],[31.10275541750021,29.98878442000006],[31.10444646000018,29.98896027000002],[31.11076805000011,29.99074760000018],[31.10444584000016,29.98896292000008],[31.10276568000001,29.98878746000017],[31.09986080000001,29.98881502000012],[31.10268383000017,29.98886088000017],[31.10438451000006,29.98903885000015],[31.11073382000012,29.99083561000018],[31.10431377000004,29.98902369000015],[31.1026527900001,29.98885721000004],[31.09986257000014,29.98889190000008],[31.10267119000003,29.98891554000005],[31.10437182000005,29.9890927600002],[31.11071354,29.99088773000016],[31.11401897000014,29.99202805000006],[31.11487366000016,29.99267789000019],[31.11547560000002,29.99346194999998],[31.11606393000006,29.99476882000013],[31.11620549000004,29.99523196000008],[31.11659528000013,29.99579188000006],[31.11723046000009,29.99633106000003],[31.11801946000005,29.99670360000019],[31.11892682000013,29.99687588],[31.11986331999999,29.99681549000022],[31.1207407600001,29.99652427000009],[31.12149627000009,29.99602341000021],[31.12058291000005,29.99653476000002],[31.11956654000012,29.99680507000006],[31.11850459999999,29.9967690400001],[31.11751548000009,29.99643069000015],[31.11691016000009,29.99601909000018],[31.11644108999997,29.99550087000013],[31.11550014000012,29.99351220000007],[31.11493240000004,29.99274180000008],[31.11406015000018,29.9920559500002],[31.11262288000006,29.99135097000018],[31.11400174000011,29.99212705000005],[31.11486750000017,29.99280575000009],[31.11543746000009,29.99357491000013],[31.11638640000007,29.9955702600002],[31.11688460000011,29.9961140500001],[31.11751002000017,29.99653256000004],[31.11853059000004,29.99687498000015],[31.11961356000012,29.99690807000021],[31.12065920000016,29.99662878000006],[31.12154642000019,29.99606768000013],[31.12068755000019,29.99667796000019],[31.11963216000003,29.99696143000018],[31.11851798000005,29.99692890000017],[31.11748678999999,29.99658453000007],[31.11684033000019,29.99615334000012],[31.11633804999997,29.99560683000002],[31.11538045000016,29.99359868000012],[31.11481911000011,29.99284117000015],[31.11395732000017,29.9921672300002],[31.11255334000005,29.99148243999998]],[[31.30051587000003,30.05706754500005],[31.29862332200003,30.05618795200007],[31.29308109100003,30.05501426200004],[31.29211879400003,30.05476551900006],[31.29139200500003,30.05433315200003],[31.28709245000005,30.04996098700008],[31.28351952600008,30.04822427000005],[31.28695640600005,30.05009147400006],[31.29125627000008,30.05445961400005],[31.29197278500004,30.05489668700005],[31.29495095200008,30.05558274400005],[31.29889429000008,30.05641629500008],[31.30061962700006,30.05718093300004],[31.30253033000002,30.05800316300002],[31.30055906200005,30.05697711900007],[31.30211495300006,30.05790555800007],[31.30062513300004,30.05719946200003],[31.30244633900003,30.05815382800006],[31.30255162900005,30.05799837300003],[31.30055906200005,30.05697711900007],[31.30045377000005,30.05713257300005],[31.30048165000005,30.05711806700003],[31.29860130500003,30.05624337500007],[31.29501582600005,30.05539262500002],[31.29307487500006,30.05499025100005],[31.29301621400003,30.05520438000008],[31.29495716800005,30.05560675400005],[31.29324511900006,30.05504594800004],[31.29484422400003,30.05538858400007],[31.29319703600004,30.05522146400006],[31.29318781500007,30.05520842300007],[31.29486146500005,30.05552023400003],[31.29488555400007,30.05543230000006],[31.29304983700007,30.05512834600006],[31.29200222600008,30.05484393600005],[31.29130044900006,30.05441521300003],[31.28700058700008,30.05004718700008],[31.28207601000003,30.04733254500007],[31.28352016500003,30.04825189400002],[31.28366696500007,30.04807260600006],[31.28350968400002,30.04801279500003],[31.28208322900008,30.04732372800004],[31.28346882700004,30.04814044000005],[31.28352911200005,30.04806681500003],[31.28213345500006,30.04714661700007],[31.28080101700004,30.04629643500004],[31.28065421400004,30.04647572000005],[31.28066830400007,30.04645817800002],[31.27917453300006,30.04543205600004],[31.27586720300008,30.04228883600006],[31.27311741100004,30.04018187300005],[31.26934942500003,30.03644500400003],[31.27316628500006,30.04014072600006],[31.27591431000008,30.04224613200006],[31.27922132500004,30.04538909100006],[31.28074771600006,30.04636226200006],[31.27926801700005,30.04534621900007],[31.27596131600006,30.04220352000004],[31.27321505300006,30.04009966600006],[31.26945055400006,30.03636607200008],[31.27326392700007,30.04005851900007],[31.27600842200007,30.04216081600003],[31.27931480800004,30.04530325400003],[31.28217563100003,30.04721087800004],[31.27929141000004,30.04532473900002],[31.27598486600004,30.04218217000005],[31.27323948800006,30.04007909500007],[31.26766244000004,30.03467309800004],[31.26717669500005,30.03404540800005],[31.26696522200007,30.03344636700007],[31.26706303200007,30.03074834700004],[31.26693346500008,30.03015607700007],[31.26663597200007,30.02961059300003],[31.26140380900006,30.02477516000005],[31.26052787000003,30.02432668700004],[31.25754386800003,30.02389534900004],[31.25928634800005,30.02412542400003],[31.25927076500005,30.02421479600002],[31.25757363800005,30.02402529200003],[31.25758407200004,30.02403761900007],[31.25924099300005,30.02408485300003],[31.25655121800003,30.02388638400004],[31.25368352100003,30.02394041000002],[31.25297152800005,30.02373592200007],[31.25221511500007,30.02325686600005],[31.25168933000003,30.02258350600005],[31.25147746600004,30.02195765300007],[31.25135475600007,30.01896115700004],[31.25118752600002,30.01819408700004],[31.24980350600003,30.01568566000003],[31.24896216700006,30.01492274200007],[31.24830741200003,30.01466129000005],[31.24751062500007,30.01456704800006],[31.24296320800005,30.01501580200005],[31.24776158200007,30.01451416300006],[31.24876206200003,30.01475573800008],[31.24946211300005,30.01520077700008],[31.24999257400003,30.01586418200003],[31.25130774400003,30.01833438000006],[31.25151887500004,30.02175143500006],[31.25168322200005,30.02241626000006],[31.25214184600003,30.02309859500008],[31.25283764100004,30.02360678300005],[31.25386992500006,30.02390509500003],[31.25656132500006,30.02382819000007],[31.25994038300007,30.02425914300005],[31.26083626700006,30.02450853100004],[31.26147061900008,30.02490800100003],[31.26666579200003,30.02976919200006],[31.26699626600004,30.03076752400005],[31.26689811200004,30.03345570700003],[31.26711513000004,30.03407045800003],[31.26749875500008,30.03459452800007],[31.27319066900003,30.04012019600003],[31.27593781300004,30.04222482600005],[31.27924467100007,30.04536765500006],[31.28213621700007,30.04725901400008],[31.27919793200005,30.04541057100005],[31.27589076000004,30.04226748200006],[31.27314185000006,30.04016129700005],[31.26755598200003,30.03474665800007],[31.26705356500003,30.03409550800006],[31.26683100200006,30.03346504700005],[31.26692755800008,30.03075725500003],[31.26680426500008,30.03019277500005],[31.26652159800005,30.02967447300006],[31.26132157100005,30.02486959200007],[31.26048197400007,30.02443800700007],[31.25938729700005,30.02424424800006],[31.25657143300003,30.02377000000007],[31.25369531500007,30.02382260200005],[31.25286953900007,30.02355480000006],[31.25231346100003,30.02317593600003],[31.25181657600007,30.02254259600005],[31.25161360200008,30.02195395600006],[31.25148870700009,30.01894442400004],[31.25131686400005,30.01815965100008],[31.24992714900003,30.01563670700006],[31.24910135900006,30.01486174900003],[31.24828986600005,30.01453444900005],[31.24754226200002,30.01444905800003],[31.24294745700007,30.01489932800007],[31.23922759000005,30.01544573000013],[31.23604023000014,30.01560275000016],[31.23294321000003,30.01607626000009],[31.22796146000013,30.0160439900001],[31.22536146000011,30.01580391000012],[31.22115613000019,30.0162292000001],[31.21948529000009,30.01628442000009],[31.21794763000008,30.01612570000011],[31.21528178071351,30.01556938526501],[31.2178578119898,30.016166203203],[31.21528117082591,30.01562514451626],[31.21273069100005,30.01517395200005],[31.21076325500007,30.01472294000007],[31.21005199500007,30.01441374000007],[31.20954873000005,30.01400640600008],[31.20806698100006,30.01234439000007],[31.20652059500003,30.01133332400008],[31.20250249000003,30.00990871000012],[31.19691124000013,30.00780916000015],[31.2045719700002,30.01049266000012],[31.19698001000019,30.00767130000007],[31.20330544334457,30.01011046195232],[31.19695480000004,30.00772182000003],[31.203328217525,30.01012132084357],[31.20250368000013,30.00990621000011],[31.19691247000009,30.0078066800001]],[[31.67836107700003,30.11066273700004],[31.67248344800004,30.11067484600005],[31.67014229400007,30.11080143900006],[31.66771591400004,30.11113441000003],[31.66619278400003,30.11171532800006],[31.66387411600004,30.11314152800003],[31.66211490400008,30.11395556900004],[31.65604453600002,30.11572838700005],[31.65174840600002,30.11719262600008],[31.64866286900008,30.11816104400003],[31.64630717300003,30.11836564200007],[31.64189209100005,30.11791043300008],[31.63999900900006,30.11744163700007],[31.63626692400004,30.11626873300003],[31.63125012300003,30.11547483000004],[31.62490248800003,30.11447657900004],[31.61964814000005,30.11180409000008],[31.61224095300003,30.10933904300003],[31.61951051400007,30.11204688800007],[31.62478989600004,30.11472895800006],[31.62573907400002,30.11496058400007],[31.63119984600007,30.11574195300005],[31.63619130000006,30.11653139300006],[31.63990031300006,30.11769835800004],[31.64182333400004,30.11817445700007],[31.64628880700008,30.11863613900005],[31.64873305300006,30.11842479000006],[31.65186354600007,30.11744411500007],[31.65614839000006,30.11598367200003],[31.66224091500004,30.11420309400006],[31.66404013000005,30.11337052200003],[31.66635693300003,30.11194532800005],[31.66779658400003,30.11139584900008],[31.67017608300007,30.11107056200007],[31.67249212800004,30.11094543100006],[31.67835745700006,30.11093339900003],[31.68140692200006,30.11096421800005],[31.70331265700003,30.11138845700003],[31.70673131300003,30.11141922800005],[31.71049312700006,30.11112678900002],[31.72280618200006,30.10917875800004],[31.72738763900003,30.10830673700008],[31.73707903200005,30.10642868000008],[31.74127478400004,30.10602088900004],[31.75145174100004,30.10521081000007],[31.76480048900004,30.10415630600005],[31.78079925300005,30.10241754500004],[31.76476351800005,30.10388749500004],[31.75142372000005,30.10494122300003],[31.74124197800006,30.10575171100004],[31.73702152500005,30.10616254200005],[31.72732323400004,30.10804191000005],[31.72274148900004,30.10891398300004],[31.71045100000003,30.11085859600007],[31.70666715300007,30.11115064400008],[31.70331868300008,30.11111782700004],[31.68141054400007,30.11069355700005],[31.67836107700003,30.11066273700004]],[[31.0440295456171,29.9617422263624],[30.9969590702553,29.9753627949077],[30.9948572638779,29.975730742894],[30.9934275622575,29.9757733337557],[30.9920037749363,29.9756524924774],[30.989932739719,29.9751701152094],[30.9886298522595,29.9746558708595],[30.9869996248501,29.97372864149],[30.978965400559,29.9684258036845],[30.9755405400996,29.9659997428058],[30.9629007361986,29.9577391005479],[30.9621174951373,29.9575054257692],[30.9603393027829,29.9577474481409],[30.9597046526498,29.9579152719592],[30.9609013871661,29.9575287261193],[30.9616184856349,29.95743001349789],[30.9622925605108,29.9574929485834],[30.9630619765214,29.9577695474209],[30.9725000803322,29.9638945250151],[30.9874446319873,29.9739628695458],[30.989366160608,29.9749216170844],[30.9907544983586,29.9753627692563],[30.9921988349964,29.9756355186331],[30.9936723547926,29.9757348009152],[30.9958774837692,29.9755553308108],[30.997304334631,29.975219993868],[31.0580038946769,29.95766253646291],[31.0592380352961,29.9576067455367],[31.0603948110108,29.9580578210006],[31.061098610627,29.9587816794075],[31.0612029041867,29.959084071056],[31.0607512322477,29.9584148660513],[31.0600671338274,29.9579172023408],[31.0592305298116,29.9576492180082],[31.0575406751796,29.9578324950779],[31.0460761757013,29.96113902471039]],[[31.43503287500005,30.05280351200003],[31.43642825300003,30.05276045900007],[31.43878251200005,30.05226928200005],[31.43977096300006,30.05225232000004],[31.44113313700007,30.05271481300008],[31.44200175100008,30.05350453600005],[31.44241856800005,30.05437255300006],[31.44428952000004,30.06105033300003],[31.44486433000003,30.06185614900005],[31.44657553800005,30.06330934800008],[31.44717721800004,30.06410326400004],[31.44839632800006,30.06787110600004],[31.44983667300005,30.07004990900003],[31.45085021300002,30.07319091500005],[31.45252099500004,30.07611563800003],[31.45264321600007,30.07711445800004],[31.45218424400008,30.08001253400005],[31.45219463700005,30.08162823300006],[31.45245279700003,30.08260661600008],[31.45395151700006,30.08652860900003],[31.45409178200003,30.08719953300005],[31.45400631900003,30.08786372900004],[31.45365722100007,30.08854161400006],[31.45316591100004,30.08902349800007],[31.44777551100003,30.09244860400003],[31.45314234200004,30.08899947600003],[31.45362691500003,30.08852419000004],[31.45397119100005,30.08785566900008],[31.45405557400005,30.08720287500006],[31.45391625100007,30.08653645200008],[31.45241829200006,30.08261644700008],[31.45215868500003,30.08163264600006],[31.45214817600004,30.08000887500003],[31.45260695500008,30.07711284300007],[31.45248593200006,30.07612388700005],[31.45081641600007,30.07320246800003],[31.44980336800006,30.07006249800003],[31.44836256200006,30.06788271100004],[31.44714425000006,30.06411652800006],[31.44654851900003,30.06333043600007],[31.44483637200005,30.06187629700003],[31.44425613400006,30.06106277000004],[31.44238347300006,30.05438061900003],[31.44197102700008,30.05352138400008],[31.44111243500004,30.05274077200005],[31.43976597700004,30.05228361500008],[31.43878374400003,30.05230115200004],[31.43643303600004,30.05279176800008],[31.43503349000002,30.05290697100003],[31.43644431200005,30.05286556400007],[31.43879372200007,30.05237520100007],[31.43975422800003,30.05235738400006],[31.44106363700007,30.05280196200005],[31.44166019800008,30.05327628000003],[31.44209114800003,30.05387105500006],[31.44417744000003,30.06109208500004],[31.44477047000004,30.06192378700007],[31.44648150700004,30.06337692400007],[31.44706654100003,30.06414779500005],[31.44828297200007,30.06791006800006],[31.44972486200004,30.07009217200005],[31.45073675600003,30.07322970300004],[31.45240328100004,30.07614332900005],[31.45251788700006,30.07716164200008],[31.45206316000008,30.08000024600005],[31.45201786800004,30.08113365300005],[31.45233695900004,30.08263962100006],[31.45383312300004,30.08655493700007],[31.45396651100003,30.08741592100006],[31.45365950500008,30.08833184100007],[31.45417371200006,30.08742714900006],[31.45403464500004,30.08651012400003],[31.45253413000006,30.08258344500007],[31.45222506500005,30.08112426700006],[31.45226926000004,30.08002115600004],[31.45272531900002,30.07716812800004],[31.45260364600006,30.07609619600004],[31.45092987300006,30.07316368000005],[31.44991517900007,30.07002023500007],[31.44847591800004,30.06784374900008],[31.44725492700007,30.06407199600005],[31.44664563000003,30.06326586600005],[31.44493023200005,30.06180865800007],[31.44436821400006,30.06102101900007],[31.44227992500004,30.05379604700005],[31.44181941600004,30.05316047400004],[31.44118193500003,30.05265362300003],[31.43978271200007,30.05217855100005],[31.43877294900005,30.05219518100006],[31.43641697700008,30.05268666300003],[31.43503241700006,30.05272654400005]],[[31.40094324000006,30.05150388300007],[31.39913634600003,30.05131896600005],[31.39530410400005,30.05072432400004],[31.40093913400005,30.05153416400003],[31.39915426300007,30.05120272200003],[31.39915874300004,30.05117366100006],[31.39750681400005,30.05109971800005],[31.39913186700005,30.05134802700007],[31.39914978400003,30.05123178300005],[31.38213085100006,30.04946762900005],[31.38106403300003,30.04950384800003],[31.37980897900007,30.04986881400004],[31.37899334800005,30.05034633400004],[31.37465482900006,30.05352448800005],[31.37145905500006,30.05559406300006],[31.36618588600004,30.05753657100007],[31.36540013000007,30.05799241600005],[31.36473560900004,30.05888665700007],[31.36384508900005,30.06215294300006],[31.36336544900007,30.06297184800007],[31.35818883800005,30.06788814700008],[31.35711368300008,30.06852422700007],[31.35549074300008,30.06904865700005],[31.35331018300008,30.06913351000003],[31.34959221600008,30.06872189800004],[31.34769567700005,30.06812041600006],[31.34567769100005,30.06786908700008],[31.34277450000008,30.06798721900003],[31.32760589900005,30.06633913100006],[31.32661956600003,30.06613587000004],[31.32503856200004,30.06543226500003],[31.32428372700008,30.06523192700007],[31.31961347500004,30.06472336500008],[31.31789088900007,30.06479897500003],[31.31960897900007,30.06472306200004],[31.32425502200005,30.06522746600007],[31.32500138700004,30.06541810100003],[31.32659427600004,30.06610375100007],[31.32747473500007,30.06626586300007],[31.34278099300008,30.06792881800004],[31.34569303500007,30.06781165800004],[31.34771346200006,30.06806376800006],[31.34960414600005,30.06866410300006],[31.35330610700004,30.06907409700005],[31.35547760300005,30.06899107600003],[31.35669606900007,30.06863839200003],[31.35814252500006,30.06784534600007],[31.36331508300003,30.06293244800003],[31.36378267400005,30.06212924900007],[31.36467211200005,30.05886644800006],[31.36535493700006,30.05794860800006],[31.36615692900006,30.05748350800008],[31.37142320000004,30.05554437800004],[31.37461393200005,30.05347786900006],[31.37894975300003,30.05030156100003],[31.37977431900003,30.04981828300004],[31.38078943300007,30.04949149700008],[31.38212870200005,30.04940860500005],[31.39752337900006,30.05101290000005],[31.39527721600007,30.05089868800007],[31.39753158700006,30.05098427400003],[31.39529514100008,30.05078244500004],[31.39750681400005,30.05109971800005]],[[31.49888334800005,30.09282146600003],[31.48918928800003,30.09495603400006],[31.48640436300008,30.09519257000005],[31.48243517000003,30.09515394200002],[31.47833310600004,30.09452252800003],[31.46947087200004,30.09204244600005],[31.46347639900006,30.09018428800005],[31.45992710900003,30.08880082600007],[31.46335331100005,30.09043289000005],[31.46937110800008,30.09229882900007],[31.47825268800005,30.09478404500004],[31.48239615100005,30.09542247000007],[31.48641976500005,30.09546295800004],[31.48923807500006,30.09522335100007],[31.49896617100006,30.09308237200003],[31.51394546900008,30.08960574500002],[31.53096695600004,30.08565381800003],[31.53308414600008,30.08539292100005],[31.53439580600008,30.08542194900008],[31.53306243000003,30.08512288000003],[31.53089684400004,30.08539009700007],[31.51386690500004,30.08934384300005],[31.49888334800005,30.09282146600003]],[[31.34234430800007,30.06791341600007],[31.34568885400006,30.06784075200005],[31.34753396300005,30.06805585400008],[31.34935119800008,30.06864343200004],[31.35283245200003,30.06905350500006],[31.35420219600007,30.06914803700005],[31.35548486700003,30.06901970500007],[31.35670994200007,30.06866511100003],[31.35816424500007,30.06786776800004],[31.36334169900005,30.06295043900008],[31.36374550500005,30.06232284000004],[31.36398313500007,30.06126542700002],[31.36368221900005,30.06230263100008],[31.36328846700007,30.06291445600004],[31.35812080600004,30.06782292400004],[31.35668219600007,30.06861167300008],[31.35547033900008,30.06896244700005],[31.35420150500005,30.06908940100004],[31.35088528500006,30.06878280200004],[31.34936895800007,30.06858686200007],[31.34754809900005,30.06799851700004],[31.34568666700005,30.06778141700005],[31.34232758100006,30.06802979200006],[31.34319871100007,30.06809176500008],[31.34479437200002,30.06791574800008],[31.34566168600004,30.06795599300006],[31.34751688700004,30.06817281400004],[31.34931562800006,30.06875673300004],[31.35281573500004,30.06916988200004],[31.35419625300005,30.06926547300003],[31.35551113100007,30.06913486900005],[31.35676689600007,30.06877153400006],[31.35825689900003,30.06795334400005],[31.36345272900007,30.06301771900007],[31.36387834700002,30.06234932700005],[31.36420247700005,30.06131944900005],[31.36464523300003,30.05962692900005],[31.36439848000003,30.05957808700003],[31.36395572000004,30.06127060600005],[31.36420537300006,30.06117013400006],[31.36439558400008,30.05972740200009],[31.36405420700004,30.06118647400007],[31.36415553900002,30.06120653100004],[31.36411460300008,30.06129145000006],[31.36381491800006,30.06232946100005],[31.36339945000003,30.06298178900005],[31.35821339800003,30.06790854500002],[31.35713098000008,30.06854948500006],[31.35549663200004,30.06907760500007],[31.35419564000006,30.06920683600003],[31.35086856600003,30.06889917900003],[31.34933338800005,30.06870016300007],[31.34753127000005,30.06811552300007],[31.34567707800005,30.06789856900008],[31.34478969200006,30.06785724900004],[31.34319750700007,30.06803313300003],[31.34051278800007,30.06765288300005],[31.33887578400004,30.06745480100005],[31.33884438000007,30.06767322900004],[31.34233677600002,30.06805308400004],[31.34236817200008,30.06783465500007],[31.34219706700003,30.06784696100004],[31.34223075700004,30.06797618400003],[31.34224365100005,30.06788648500003],[31.33886824900003,30.06759445200004],[31.33338201100003,30.06699756800003],[31.33885988400004,30.06765264000006],[31.33339874900003,30.06688119400008]],[[31.41411474000006,30.05378363600004],[31.41338496800006,30.05356222400007],[31.41062522500005,30.05225924100005],[31.40954371200007,30.05205905700006],[31.40095128200005,30.05144457700004],[31.40995944400004,30.05204778900003],[31.41076263000008,30.05228016400002],[31.41337807400004,30.05352550200007],[31.41412469200003,30.05375441000007],[31.41000864800003,30.05210274300003],[31.40094520800005,30.05148937000007],[31.40954606000003,30.05202990100003],[31.41061338600008,30.05228682400008],[31.41337009700004,30.05358863200007],[31.41410741800007,30.05381234500004],[31.41559291300007,30.05377991300003],[31.42202363600006,30.05197710100003],[31.42313987700004,30.05180588500008],[31.42463727600006,30.05191081700008],[31.42831136700005,30.05282052400003],[31.43261327400006,30.05282907800006],[31.42832144200003,30.05275341100003],[31.42465468900008,30.05184486200005],[31.42313490000004,30.05173835300008],[31.42200183400007,30.05191214100006],[31.41557396400003,30.05371427900008],[31.41412469200003,30.05375441000007],[31.41484799600005,30.05393105800005],[31.41561186200005,30.05384554700004],[31.42204543800005,30.05204206100007],[31.42314485400004,30.05187341700002],[31.42461986300003,30.05197677200005],[31.42830129200007,30.05288763700003],[31.43289909400005,30.05289565600003],[31.43311563900005,30.05308574900005],[31.43361181200004,30.05308592200004],[31.43342128700004,30.05305318300003],[31.43342072700005,30.05290809000007],[31.43437515100004,30.05290540000004],[31.43462738200003,30.05298649700006],[31.43440112000008,30.05308002600003],[31.43487688800008,30.05307645700003],[31.43443352600008,30.05294094600004],[31.43487348300005,30.05290395500003],[31.43487284000003,30.05273346300004],[31.43442963400003,30.05273472700003],[31.43442865200007,30.05249428000008],[31.43464670400004,30.05246823500005],[31.43437096200006,30.05248003600008],[31.43437199900006,30.05273489100006],[31.43339934900007,30.05273765800007],[31.43339799600005,30.05253696700004],[31.43314583100005,30.05254304600004],[31.43334062100007,30.05255211000008],[31.43334171200007,30.05273781600005],[31.43289850600007,30.05273908100003],[31.43289914600007,30.05290957200003],[31.43334235200007,30.05290831400004],[31.43334291200006,30.05305344100003],[31.43261318700007,30.05281437400004]],[[31.38603387400008,30.04978849500003],[31.39334224000004,30.05055450700007],[31.38407817000007,30.04957971600004],[31.38186718600008,30.04936721800004],[31.38025826200004,30.04959938400003],[31.37910698100006,30.05015581100002],[31.37622173500005,30.05250731700005],[31.37917444200008,30.05033301100008],[31.38017081600003,30.04981859000003],[31.38156255400003,30.04954609200007],[31.38600925900005,30.04996311200006],[31.39347979800004,30.05068025500003],[31.39514861800006,30.05071482000005],[31.39343363300003,30.05064036700003],[31.39333327600009,30.05061262800007],[31.38422001400005,30.04977416800006],[31.38420917800005,30.04976210400002],[31.38591235300004,30.04990937400004],[31.38592500100003,30.04981964800004],[31.38406175800003,30.04969612800005],[31.38155941600007,30.04948751400008],[31.38014482300002,30.04976448300005],[31.37913695400005,30.05028407100008],[31.37609680300005,30.05258840300007],[31.37597862800004,30.05246739200004],[31.37470691400006,30.05338861600006],[31.37611087300007,30.05253313800006],[31.37103674300005,30.05590298900006],[31.36585729400008,30.05779024100008],[31.36505605400004,30.05850500300005],[31.36461769500005,30.05963258100007],[31.36479005700005,30.05855696800007],[31.36560963400007,30.05772448000005],[31.37094445500003,30.05574640700006],[31.37457809300003,30.05346490200003],[31.37097573500006,30.05579835200007],[31.36564945100002,30.05777180000007],[31.36484993100004,30.05858391500004],[31.36448622900008,30.05960655900003]],[[31.0703418111904,29.9850388188632],[31.0662507354051,29.9830138151525],[31.0656482518583,29.9824832266778],[31.0652420313689,29.9817548948827],[31.06454044617,29.9728107770631],[31.0636657741263,29.9698965481238],[31.0620322247939,29.961471785843],[31.0611990382625,29.9598203606323],[31.0619374341739,29.9614173569735],[31.0618255373765,29.9613913090739],[31.0612938269831,29.9598747899605],[31.0614057219383,29.959900838236],[31.0619460654667,29.9614871826037],[31.0639187423294,29.9698480912785],[31.0647966364638,29.9727775135964],[31.0654909577006,29.9816924678465],[31.0658586507556,29.98235166094531],[31.066322965405,29.9827776846288],[31.0705122511776,29.9847301588253],[31.0703720955682,29.9849839317154],[31.0681222798319,29.983901922321],[31.0660767369364,29.9827964719438],[31.065376770099,29.9818837028185],[31.065208051152,29.9811550962717],[31.0649884167741,29.977789565117],[31.0652372315806,29.98005915792],[31.06498014051551,29.9777899688412],[31.0646165338843,29.9727692282821],[31.0647179325546,29.9727557233509],[31.0646083403765,29.9727703195415],[31.0650949735999,29.9777843671208],[31.0649760023862,29.9777901707032],[31.0647745995172,29.9746607796566]],[[31.32356314200007,30.06517489500004],[31.32477404100007,30.06537246200003],[31.32692473200007,30.06621630100005],[31.33144332100005,30.06666839800005],[31.32693962200005,30.06615910900006],[31.32479620400005,30.06531708100005],[31.32356314200007,30.06517489500004],[31.32490969200006,30.06541662700005],[31.32719215000003,30.06635807000004],[31.33341425300006,30.06686061200003],[31.33143412600003,30.06664512200007],[31.33140270500007,30.06686354700003],[31.33338283600006,30.06707903700004],[31.33324314900005,30.06687290500003],[31.33157380900008,30.06685125600006],[31.33327682600003,30.06700213000005],[31.33328972800007,30.06691243300003],[31.33142658100007,30.06678477200006],[31.32720815200003,30.06630110500004],[31.32493486100003,30.06536222600005],[31.32339236700005,30.06516311700005],[31.32128005500005,30.06495125900005],[31.32130582700006,30.06477222500007],[31.32360080400008,30.06502215900008],[31.32357503600008,30.06520119300006],[31.32339236700005,30.06516311700005],[31.32346633500003,30.06512125700004],[31.32130582700006,30.06477222500007],[31.32340973700008,30.06515137100007],[31.32151933300003,30.06495913500004],[31.31948113200008,30.06474508000002],[31.31789435800005,30.06482814000004],[31.31632040600005,30.06485629600007],[31.31528037700008,30.06468223800005],[31.31179315500003,30.06294806900006],[31.30978206900005,30.06197859200006],[31.30989010000008,30.06182456300007],[31.31186450100006,30.06287232500006],[31.31175647200007,30.06302635600002],[31.31160790500007,30.06292638100007],[31.31169510900003,30.06291464000003],[31.30989010000008,30.06182456300007],[31.31184311800007,30.06287683000005],[31.30999133000006,30.06205265500006],[31.30248163300007,30.05807506100007],[31.30981020400003,30.06196446100006]],[[31.24640407500004,30.01459763500003],[31.24146765300003,30.01512836900002],[31.23934349500007,30.01550008100003],[31.23605397500006,30.01566736000007],[31.23296828500003,30.01614419000003],[31.22808915000007,30.01611265000003],[31.22535589000017,30.01593584000019],[31.22789593000005,30.01616961999999],[31.23098365000004,30.01619874000012],[31.22788966000003,30.01611411999999],[31.22339615000004,30.01595689000015],[31.22033377000016,30.01639178000009],[31.21791459169089,30.01617612777601],[31.21562138457761,30.01562458295254],[31.21795716000015,30.0161300800001],[31.21954711000006,30.01628928000015],[31.22118728000003,30.01622864000009],[31.22338182000012,30.01587986000015],[31.22100011000005,30.01639643000012],[31.21949411000015,30.01644403000014],[31.21814490000002,30.01628310000014],[31.21527044004501,30.01562626970242],[31.21791397858402,30.01617878676905],[31.22045938000008,30.0163360300001],[31.22339143000016,30.01593151000003],[31.22101003000011,30.01639260000015],[31.21954623000015,30.01644364000012],[31.21813542000013,30.01627849000012],[31.21560899709517,30.01567854460416],[31.21797006300005,30.01618820500005],[31.22035425000009,30.01638821000014],[31.22339566000016,30.01595422000008],[31.22049070000014,30.01633730999998],[31.21797378700017,30.01618891000012],[31.22039636500006,30.01636384000005],[31.22339379500005,30.01594420500004],[31.22537118600007,30.01586828100005]],[[31.15168049000016,29.99077984000014],[31.15851501000008,29.99327269000015],[31.1517340400002,29.9906722300001],[31.15855860000012,29.99318536000006],[31.14995241000003,29.98994045000014],[31.14003329000014,29.98616023000019],[31.14992728000004,29.98999094000006],[31.13998097000008,29.98626535000018],[31.14987373000007,29.99009855000009],[31.14022651000017,29.98636092000011]],[[31.25154569800003,30.02116653800005],[31.25150026100005,30.01963322300003],[31.25139643900008,30.01963571900006],[31.25140126400004,30.02112488500006],[31.25154087100003,30.01967737700005],[31.25157177100004,30.01953041100006],[31.25131894900005,30.01953649400008],[31.25137036600006,30.02127184500006],[31.25162319000003,30.02126576700005],[31.25142369900004,30.01867696500005],[31.25123813400006,30.01805630900003],[31.24960954800002,30.01529701900006],[31.24893258100008,30.01480318200004],[31.24828091900002,30.01456271500007],[31.24756731600007,30.01447830800004],[31.24655212800008,30.01455960000004],[31.24757163700008,30.01441967800002],[31.24829881300008,30.01450618200005],[31.24912035300002,30.01483753300005],[31.24966074600007,30.01525889700002],[31.25130106500006,30.01803535000005],[31.25148961900004,30.01866385300008],[31.25154671500007,30.01954184700003],[31.25154458800006,30.02211221300007],[31.25180228600004,30.02271630300004],[31.25223932400007,30.02323647400004],[31.25298637600002,30.02370960300004],[31.25405836500005,30.02394762800003],[31.25613240100006,30.02384417400003],[31.25742852300004,30.02395548800007],[31.25612213100004,30.02378547600006],[31.25404519600005,30.02388801100005],[31.25301057200005,30.02365406900003],[31.25241845100004,30.02330464300007],[31.25186593000006,30.02269446300005],[31.25161400900004,30.02211176800006],[31.25153013900007,30.02125717400003],[31.25167973600003,30.02209883900002],[31.25192519400002,30.02266655400007],[31.25233765400003,30.02315553100004],[31.25304041900006,30.02360149600003],[31.25404844600007,30.02382944000004],[31.25612162700003,30.02372683900006],[31.25744874200007,30.02383953700007],[31.25613277900004,30.02390281300006],[31.25405553500008,30.02400621600003],[31.25295668000007,30.02376224200003],[31.25219090700006,30.02327725900005],[31.25174292300005,30.02274405100007],[31.25147877900002,30.02212482000004],[31.25139542000005,30.02126041500003],[31.25128982300004,30.01869327700007],[31.25110627900006,30.01808552300002],[31.24948363700003,30.01535031600002],[31.24894399400006,30.01494743000006],[31.24829776700005,30.01468938300007],[31.24758659900004,30.01459604100006],[31.24656788300007,30.01467607400008],[31.24759562200006,30.01453747600004],[31.24831705600008,30.01463319800007],[31.24898034000006,30.01489805400007],[31.24953422200008,30.01531157900007],[31.25116913500005,30.01806439400008],[31.25135580400007,30.01868056000006],[31.25141199800004,30.01954508600005]],[[31.26796635700003,30.03519210400003],[31.26720870600008,30.03439938100007],[31.26683440300008,30.03363404700008],[31.26676192000008,30.03297162100006],[31.26689364700007,30.03075948500003],[31.26677192500006,30.03020196000006],[31.26649296800008,30.02969046300007],[31.26129921900008,30.02489188700002],[31.26047048600003,30.02446587200006],[31.25937806700006,30.02427295100006],[31.26049346000008,30.02441014900007],[31.26134007200005,30.02484437500004],[31.26655022100005,30.02965848700006],[31.26683659800005,30.03018359100002],[31.26696146100005,30.03075502600007],[31.26682996800002,30.03296977800005],[31.26690067800007,30.03362064700008],[31.26726630900004,30.03436791800004],[31.26801597000008,30.03515161900003],[31.26732378700007,30.03433652400003],[31.26696681000004,30.03360727700004],[31.26701334700005,30.03060221000004],[31.26684265700004,30.03002474400006],[31.26651030400006,30.02950381600004],[31.26137188400003,30.02479022200004],[31.26051638400003,30.02435454500005],[31.25939844400006,30.02415608300004],[31.26053935800007,30.02429882200005],[31.26141300500007,30.02474295000007],[31.26656567600003,30.02946946100008],[31.26690585300003,30.03000282500005],[31.26708085500007,30.03059487700006],[31.26703308500004,30.03359387700004],[31.26738139000003,30.03430506100005],[31.26811508800006,30.03507073700007],[31.26815880500004,30.03517827000007],[31.26808146900004,30.03523863100003],[31.26919459800007,30.03636951400006],[31.26933139200003,30.03624820200002],[31.26813675600005,30.03505974400002],[31.26794843300007,30.03520673000003],[31.26928051900006,30.03649878600004],[31.26946884200004,30.03635179800006]],[[31.29306546400005,30.05507130400002],[31.29209091900003,30.05481891100004],[31.29134863400003,30.05437824900002],[31.28704821700006,30.05000523500007],[31.28213621700007,30.04725901400008],[31.28461666300007,30.04876839300005],[31.28702441600007,30.05002621900007],[31.29114658100008,30.05423716300004],[31.29192691800006,30.05478140000002],[31.29920097000007,30.05645504300003],[31.31466754700006,30.06448995400007],[31.31605188400005,30.06486387600006],[31.31789435800005,30.06482814000004],[31.31631633100005,30.06491482900003],[31.31525920500007,30.06473791100007],[31.31175804500003,30.06299812900005]],[[31.16955497000017,29.99733032000018],[31.1619803800001,29.9944796],[31.1695298600002,29.99738082000005],[31.16193679000005,29.99456693000012],[31.16947632000018,29.99748843000012],[31.17719907000003,30.00021093000011],[31.17133688000014,29.99806184000012],[31.17714554000004,30.00031855000017],[31.17128335000013,29.99816945000017]],[[31.18763068000005,30.00432876000013],[31.1935137600001,30.00646532000014],[31.18768419000003,30.0042211400001],[31.19355733000015,30.00637798000004],[31.18587694000006,30.00354034000009],[31.17898108000002,30.00094235000006],[31.18584854000018,30.00359747000016],[31.17892756000003,30.00104997000004]],[[31.0978922300002,29.98884946000008],[31.09626071000004,29.98885045000003],[31.09366012000017,29.98864341000013],[31.09213509000011,29.98869968000016],[31.08602273000009,29.99002674000019],[31.08488074000009,29.99016929000006],[31.08325136000013,29.9900516300001],[31.08164163000016,29.98955148000011],[31.08325509000009,29.99015448000006],[31.08494479000007,29.9902845400002],[31.08609690000005,29.99014036000018],[31.09223797000011,29.98880079000014],[31.09375232000013,29.98873855000016],[31.09789407000016,29.98892907000011],[31.09375072000017,29.98879356000008],[31.09224558000018,29.98885541000006],[31.08610116000018,29.99019600000016],[31.08493750000003,29.99033994000015],[31.08324094000013,29.99020811000008],[31.08157793000005,29.98966761000014]],[[31.31789088900007,30.06479897500003],[31.31605188400005,30.06486387600006],[31.31466754700006,30.06448995400007],[31.29899464200003,30.05634973200006],[31.29195628500003,30.05472835500007],[31.29119272700007,30.05419400000005],[31.28707033300003,30.04998311100007],[31.28465220400005,30.04871856300008],[31.28217779900007,30.04721278700003]],[[31.55258576400007,30.09053535800007],[31.55419861200005,30.09108587000003],[31.53970653900006,30.08635540800003],[31.53848431400007,30.08605639700005],[31.53439580600008,30.08542194900008],[31.53854912100007,30.08579164100007],[31.53981500400005,30.08610158300007],[31.55258576200004,30.09053535800007]],[[30.9441081663834,29.9732944775224],[30.9430481034998,29.97451908331],[30.9442756984738,29.9733479284963],[30.9429341853428,29.9745008107882],[30.9431017186972,29.9745542633134],[30.9487535719753,29.967849666649],[30.9497034420744,29.9660642378429],[30.950256581332,29.9653484002341],[30.9536075838292,29.9613431672217],[30.9544485089634,29.9605084748257],[30.9563082089267,29.9592633449148],[30.9580977043998,29.9585483895703],[30.9562590886472,29.9591890820111],[30.9543787267635,29.9604480410127],[30.953531211726,29.9612890491598],[30.9512739280497,29.9639849771515]],[[31.12809148000009,29.98928276000012],[31.12533746000014,29.99256194000013],[31.12374032000016,29.99402145000013],[31.12538682000013,29.99259632000014],[31.12813654000007,29.98932145000009],[31.12524122000019,29.99280056000019],[31.12383273000018,29.99410303000017],[31.12524365000021,29.99280224000013],[31.12816988000003,29.98935006000015],[31.12529316000019,29.99283646000011],[31.12387930000012,29.99414414000012]],[[31.24099613999999,30.01520581000019],[31.23923458000008,30.01550314000008],[31.23603864000016,30.01566117000004],[31.23294977,30.01613372000004],[31.23603886000017,30.01567981000017],[31.23923645000008,30.01552082000013],[31.24100060000002,30.01522261000013],[31.23925341000008,30.01557459000015],[31.23605753000015,30.01573315000016],[31.23295904000009,30.01621486000017]],[[31.79969589000007,30.09650942300004],[31.80068450900006,30.09453293600006],[31.80105055700005,30.09339237700004],[31.80125721800005,30.09198269400002],[31.80105519900007,30.09001014800003],[31.80053014000003,30.08809622300004],[31.79989155400006,30.08629270900008],[31.79925374100003,30.08507815100006],[31.79808273400005,30.08360934200005],[31.79938996300007,30.08501253200006],[31.80003679500004,30.08624408000003],[31.80068158600005,30.08806502500005],[31.80105557600007,30.09001345600007]],[[31.13820156000014,29.98552927000006],[31.13690857000007,29.98515711000013],[31.13569943000005,29.98527986000018],[31.13495968000012,29.98563709000009],[31.13344594000013,29.98681587000004],[31.13149254000013,29.9876415300002],[31.13330894000013,29.98697224000007],[31.13491179000005,29.98569751000007],[31.13564627000012,29.98533321000014],[31.13686297000005,29.98520547000004],[31.13817313000009,29.98558639000011],[31.13685566000015,29.98526013000015],[31.13565872000006,29.98538791000005],[31.13494342000017,29.9857460000002],[31.1333442,29.9870179200001],[31.13156673000005,29.98778063000018]],[[31.41884841100006,30.07948974300007],[31.41675492600007,30.08037109100007],[31.41365853000008,30.08096807900005],[31.41670830500004,30.08022413200007],[31.41365706600004,30.08061577400002],[31.41668050900006,30.08066275800007],[31.42077119300006,30.07964782300007]],[[31.0676270807403,29.9836562795046],[31.0662605884534,29.9829442143252],[31.0656038903116,29.9823159022826],[31.0652485716392,29.9815151557196],[31.0651223958703,29.9800647596446],[31.0652413698043,29.9800589560542],[31.0653818348487,29.9815647882014],[31.0657053734563,29.9822611982447],[31.0663373124481,29.9828644843006],[31.067686077138,29.9835661464437]],[[31.57161456800003,30.10010180400008],[31.57006454100008,30.09930035600008],[31.56764246600005,30.09756771200006],[31.56988299200003,30.09952038800003],[31.57147358300006,30.10034312300007]],[[31.21274838000011,30.01514849000009],[31.21060967146235,30.01464420575599],[31.20968208910978,30.01409449095896],[31.21073735055154,30.01474589809749],[31.21273701000008,30.0152056200002],[31.21077810072883,30.01475461737081],[31.21009507948748,30.01447129088388]],[[31.0591010158977,29.9577453019453],[31.0598905853958,29.9579618486698],[31.0605542287625,29.9583927233035],[31.0610179162231,29.9589898630872],[31.0612851962218,29.9598049642981],[31.0613241701048,29.9590445157065],[31.0609895593841,29.95849801120981],[31.0605045668532,29.9580450100986],[31.0597375202899,29.9576560569116]],[[31.79832829700007,30.09876044300006],[31.79888421100003,30.09802568200007],[31.79969589000007,30.09650942200005],[31.79874850700003,30.09795929300003],[31.79820862600008,30.09867389700003]],[[30.9822205675745,29.9705318626957],[30.9808147550676,29.9696080805536],[30.9807522180189,29.9696802239501],[30.982171355765,29.9706635046742],[30.9808014311045,29.9695485825479]],[[31.0369117997589,29.9637561392294],[31.0352406086368,29.9642401038256],[31.0352733686958,29.9643258717917],[31.037008394171,29.9638661050329],[31.0351767758562,29.9642159047881]],[[31.0218702587434,29.9681111095867],[31.0201989318779,29.9685948763009],[31.0202316799909,29.9686806474367],[31.0219668398504,29.9682210858009],[31.02013510045809,29.9685706700229]],[[31.0010759213433,29.9741281688811],[30.9994044069997,29.9746116618974],[30.9994371385861,29.9746974374069],[31.0011724840343,29.9742381594799],[30.9993405774717,29.9745874456093]],[[31.78483431400008,30.07699569200003],[31.78497063900005,30.07678825700003],[31.78325929100004,30.07593752800005],[31.78312296300004,30.07614496100007],[31.78483431400008,30.07699569200003]],[[31.55032650000004,30.09003741600003],[31.54849158000007,30.08941092900005],[31.54859198600008,30.08918854500007],[31.55042690300007,30.08981503100006],[31.55032650000004,30.09003741600003]],[[31.47278214500005,30.09327390000004],[31.47091226700007,30.09273116400004],[31.47099925400004,30.09250455000006],[31.47286912900006,30.09304728500007],[31.47278214500005,30.09327390000004]],[[31.59574635300005,30.10561533400005],[31.59380883200004,30.10529788100007],[31.59385972000007,30.10506309900006],[31.59579723600007,30.10538055200004],[31.59574635300005,30.10561533400005]],[[31.69656770400007,30.11127298700006],[31.69657521500005,30.11103417100003],[31.69460418200003,30.11098205700006],[31.69459666700004,30.11122087200005],[31.69656770400007,30.11127298700006]],[[31.75560469100003,30.10464468900005],[31.75364053900006,30.10479458600003],[31.75366456400008,30.10503259600006],[31.75562872000006,30.10488269900003],[31.75560469100003,30.10464468900005]],[[31.44360301975511,30.05894381371272],[31.44350205130904,30.0589644410134],[31.44309893883368,30.05747132098702],[31.44319990581842,30.05745069394066],[31.4433663002637,30.05741670088315],[31.44376941557164,30.05890982022381],[31.4436684482401,30.05893044676504]],[[31.45053698610668,30.07242134519155],[31.45043649062644,30.07244370192517],[31.4499995201443,30.07095779392246],[31.45010001316616,30.07093543655422],[31.45026562624914,30.0708985929061],[31.4507026005177,30.07238450107014],[31.45060210718085,30.07240685795764]],[[31.44800701279837,30.06684747079188],[31.44790657084697,30.06686998696529],[31.44746651136401,30.06538477333226],[31.44756695188311,30.06536225744073],[31.44773247752995,30.06532515135903],[31.44817254080559,30.06681036424563],[31.44807209893774,30.06683287964621]],[[31.35273179200004,30.06902656500006],[31.35098211100006,30.06883641900004],[31.35096922600007,30.06892611900003],[31.35266257300003,30.06914460100006],[31.35264867900003,30.06915400100007],[31.35267439600005,30.06897495900006]],[[30.9720695529911,29.9636618520836],[30.9706639339963,29.9627379694733],[30.970601394514,29.9628101079765],[30.9720203319646,29.963793489931]],[[31.049534043476,29.9600942473079],[31.0512058666274,29.9596120913913],[31.0495666797256,29.9601800513243]]]}}]}