{"type":"FeatureCollection","features":[{"type":"Feature","properties":{"اسم_الخط":"وصلة كفر داوود - السادات"},"geometry":{"type":"MultiLineString","coordinates":[[[30.82515234016858,30.45737747676849],[30.82780767223569,30.44792540030033],[30.82814019153322,30.44615297786411],[30.82818938151103,30.44435779867921],[30.82803116746042,30.44290302202599],[30.82762621472043,30.44190614478136],[30.82683905327996,30.44091047485513],[30.82576531083349,30.4401417352139],[30.82431933195773,30.43962167372671],[30.81372623614912,30.43855512120453],[30.80526824057261,30.43610686610296],[30.80414024137,30.43591907619246],[30.80270595367035,30.43587613647212],[30.80072892708039,30.43617461752579],[30.79889168023094,30.43687421523012],[30.79656506204175,30.4383637539853],[30.79450328524122,30.44019719272233],[30.79319315209225,30.44089912338768],[30.79180770131187,30.44126084834843],[30.78597925949921,30.44202433492926],[30.78395369794061,30.44271965856757],[30.78242366269399,30.44356824496268],[30.78108714227461,30.44463434730789],[30.78018483438461,30.44562222839842],[30.77319642479499,30.45521703768862],[30.77234409693126,30.45621805042024],[30.77126212241392,30.4571286537505],[30.77027764707467,30.45773409997042],[30.76892846960732,30.4583186383458],[30.76777874245552,30.45863784631762],[30.7656850811297,30.45886098517205],[30.76130431691323,30.45869872992318],[30.75264350022005,30.45988937360278],[30.71633808531657,30.46249551163293],[30.70650811148069,30.46267934641273],[30.66639678026878,30.46705267831822],[30.66364257484513,30.46699371029224],[30.66098431773794,30.46636672125008],[30.65889911856445,30.46540385314774],[30.65681641402973,30.46384164526493],[30.6558400811328,30.46276902752142],[30.6523227320417,30.45816396921678],[30.64255582934265,30.44882997421606],[30.59698994319213,30.40721399568461],[30.5890546140713,30.4001585567524],[30.58836101852786,30.3993828351168],[30.58694142042331,30.39717503735886],[30.58271173779753,30.39320587921598],[30.5750323956314,30.38629436118557],[30.56766527689343,30.38005666642862],[30.56108128795794,30.37468422653869],[30.54616966758537,30.36158824159018]],[[30.82698858819158,30.42937555253122],[30.82747103064236,30.43579340574805],[30.82737425979831,30.43659197034809],[30.82704193261394,30.43741369989674],[30.82609209306976,30.4385006320232],[30.82487876382412,30.4391595050059],[30.82347957761419,30.43942326816709],[30.82158822573212,30.43928894848319]]]}}]}