{"type":"FeatureCollection","features":[{"type":"Feature","properties":{"اسم_الخط":"مترو الخط السادس"},"geometry":{"type":"MultiLineString","coordinates":[[[31.2891470094977,30.0707591390053],[31.2897293152641,30.0701357703385],[31.29007561521111,30.0693912019069],[31.2901554103355,30.0685910204311],[31.2893965851327,30.066950738679],[31.2855988345519,30.0622996913373],[31.2840828198537,30.0607564955526],[31.2816871952305,30.0587061697373],[31.2750731173445,30.0513761172147],[31.2736623895779,30.0499884257259],[31.27193209073589,30.0487062249564],[31.2673085780344,30.0458187242563],[31.2637513970517,30.042287847514],[31.2627332953314,30.0409156083996],[31.2622779293965,30.0396650849069],[31.2621350308623,30.0370163614102],[31.2626546363244,30.0362333102186],[31.2648944526352,30.0345063144434],[31.2662102580829,30.0331083662678],[31.266622138814,30.0319321043486],[31.2665848630937,30.0307028853666],[31.2663971678987,30.0301080772753],[31.265707838115,30.0290346456473],[31.2616677754019,30.0252167923059]],[[31.2834680230054,30.1095975706701],[31.2811589984634,30.1048627176509],[31.2789489127996,30.1001343620959],[31.2771904648028,30.0960824310838],[31.2759218343466,30.0928784239358],[31.2737334804458,30.0875220490923],[31.2710827576296,30.0814027199329],[31.2707687749627,30.0801180847365],[31.2708992738675,30.0793925515592],[31.2712492469239,30.0787242424612],[31.2721253677063,30.0779346638371],[31.2741210180596,30.0769832902146],[31.2757487373181,30.076481303211],[31.2770711782927,30.0765363561942],[31.2795778036976,30.0772143068544],[31.2806707658393,30.07734088698099],[31.28174175354451,30.0770558242996],[31.2837007628132,30.0758065723081]],[[31.2707925946674,29.9970398875863],[31.2718333636189,29.9854233736292],[31.2724333319164,29.9783427507031],[31.2724042605547,29.9768937382679],[31.2720787064271,29.9758501022138],[31.2703304210352,29.9723441306368],[31.2699970809368,29.9709766482971],[31.2702503938474,29.9701821621079],[31.2708147671228,29.9695200489595],[31.2720705573012,29.9689608482672]],[[31.2542838608465,30.0211644173833],[31.25227054852,30.0190014845791],[31.251487696732,30.0178989597086],[31.2512863764014,30.0172059190892],[31.2512693632164,30.01649122984909],[31.2515887142422,30.015458585921],[31.2542961311693,30.0113631398944],[31.2558681525618,30.0097495120504],[31.2585568393605,30.0084374115814],[31.2602141463623,30.0081731012271],[31.2655380391442,30.0081315129562],[31.2672830247837,30.0078195105971],[31.2683469185554,30.0070306766146]],[[31.3046030790448,30.1644500562086],[31.3020773415053,30.159207384819],[31.2996927335437,30.1541245415618],[31.2958950207002,30.1456977992315],[31.2941559814567,30.14136133790671]],[[31.3056413336615,29.9644158213182],[31.3108219816408,29.9664682924077],[31.3209757664578,29.9693204958995],[31.3270346707784,29.9694269304558]],[[31.2910317930605,30.1325627599676],[31.2903245543622,30.1307714655057],[31.2852470076952,30.115342247495]],[[31.2787575808071,29.9663816826515],[31.2889037603456,29.9616487017216],[31.291239541991,29.9611019993627],[31.2951799639515,29.9615914841722]],[[31.3291643627967,29.9693847931508],[31.3323446903456,29.96935426040161],[31.3389246351436,29.9688978442688],[31.3468745255696,29.9677327411095]],[[31.2700084704099,30.0035427335804],[31.2703490331623,29.99972744899]],[[31.34891478394101,29.9676757298106],[31.3523727841184,29.9680140885879]],[[31.2989689462399,29.962331391349],[31.3012976619234,29.9626231963051]],[[31.2594822477139,30.0241319738469],[31.2574738317478,30.0237539291018]],[[31.2852897518643,30.0743017802358],[31.2863745376598,30.0727957814294]],[[31.2745627905674,29.9687686890014],[31.2752854231315,29.9685941388006],[31.2761055803557,29.9682005930907]],[[31.2771180601178,30.0959133576092],[31.2765945298985,30.0946264234302]]]}}]}