{"type":"FeatureCollection","features":[{"type":"Feature","properties":{"اسم_الخط":"مترو الخط الثاني"},"geometry":{"type":"LineString","coordinates":[[31.21765196278989,29.97470068639473],[31.21160919715481,29.98151665224549],[31.2101963125981,29.98383307750851],[31.20915669700003,29.98652248700006],[31.20890593523296,29.9879309718678],[31.20840686998781,29.99982119601776],[31.20809188800013,30.00194139400008],[31.20792278141572,30.00764348791945],[31.20779737956309,30.00853075887073],[31.20699235025875,30.01087457729381],[31.20517499447448,30.01380352910343],[31.20064435440014,30.02758405815945],[31.19798954138383,30.03293052692175],[31.19791963602745,30.03359437717756],[31.19813285507234,30.03428036016925],[31.19846252825926,30.03482210587424],[31.19892845974856,30.03529803397578],[31.19940810872635,30.03554506954538],[31.21175093452348,30.0383872902305],[31.22119976653079,30.04020858115762],[31.22227211244547,30.04063112106024],[31.22698071952925,30.04328707989254],[31.24441747859771,30.04545866517657],[31.2452752327921,30.04584330628359],[31.24596115666805,30.04645412095425],[31.24648241225412,30.04714565601353],[31.24659741595082,30.04757514179471],[31.24673286273401,30.05096956984318],[31.24673222388219,30.05436039290356],[31.24617642267236,30.05782923789224],[31.24640689761691,30.06033685391071],[31.24595740549444,30.06167199499555],[31.244992119389,30.06239452872632],[31.2446572420036,30.06320940622976],[31.24496292358941,30.06584572715184],[31.24497477694149,30.07226681845958],[31.24533968831497,30.08598690773567],[31.24514983474779,30.09108874056579],[31.24535991373364,30.09714578669929],[31.24522155423273,30.10339507912556],[31.2454106506969,30.10377698152593],[31.24595840608958,30.104208378267],[31.24617826260874,30.10460178925632],[31.24621131820896,30.10532751772672],[31.24583948135961,30.1063894557675],[31.24584471843229,30.10686730185535],[31.24781648550635,30.11090666197498],[31.24905223072398,30.11489929647337],[31.24915145017548,30.11572559587989],[31.24908408200008,30.11616314200012],[31.24878361235176,30.11677371174028],[31.24681529899999,30.1192115020001],[31.24591451650161,30.12118692070408],[31.24337401100018,30.12411922899997]]}}]}