{"type":"FeatureCollection","features":[{"type":"Feature","properties":{"اسم_الخط":"مترو الخط الأول"},"geometry":{"type":"LineString","coordinates":[[31.33426534100005,29.84902233300005],[31.33398984000007,29.85129514900007],[31.33337084300006,29.85253891600007],[31.32573192100006,29.86162914000005],[31.31513353600008,29.87632109500004],[31.30874694700003,29.88781089200006],[31.30117601900002,29.90286991300007],[31.29323435100002,29.91947639500006],[31.29197160300004,29.92114511100004],[31.28951609600006,29.92334949400004],[31.28817336900005,29.92501757700006],[31.27795114300005,29.94243781000006],[31.27670536400007,29.94392997700004],[31.27488970600007,29.94552197300004],[31.26531960300002,29.95132689700006],[31.26365195900007,29.95262826100003],[31.26225257600004,29.95408325600005],[31.23600165700003,29.99034319100008],[31.23005563800007,29.99691545000007],[31.22904894600003,29.99884398200004],[31.22875960100004,30.00053932600002],[31.22939920100004,30.00531701000006],[31.23004998000005,30.00880286900008],[31.22987228300008,30.01201541000006],[31.22997861500005,30.01357543700004],[31.23258102600006,30.02249267000008],[31.23320858300008,30.02619987800006],[31.23385163100005,30.02757051400005],[31.23561559600006,30.02949084300008],[31.23660767800004,30.03099412900008],[31.23717103000007,30.03347024400006],[31.23875010500007,30.03899022100006],[31.23866528200006,30.03940066100006],[31.23643363200006,30.04296806800005],[31.23493741900006,30.04647195900003],[31.23446338600007,30.04875844000003],[31.23468168100004,30.04956014800007],[31.24593733600005,30.06051514000006],[31.24702691000005,30.06124020300008],[31.24946336700003,30.06266464800007],[31.25147606074832,30.06363303759724],[31.26572844342053,30.06941639269538],[31.26839281000002,30.07105366100006],[31.27140972200004,30.07377873900003],[31.27396020300006,30.07549741500003],[31.28592910200007,30.08080043900003],[31.28715106200008,30.08164151900007],[31.29791560000007,30.09018060900007],[31.29966271600006,30.09174824600007],[31.30115500900007,30.09330353500008],[31.30484178900008,30.09817703300007],[31.30653709000006,30.10116427100007],[31.30993687600005,30.10519530200003],[31.31210759400005,30.10819917700007],[31.31315294100006,30.10989614500005],[31.31368789100003,30.11134323900006],[31.31397685000007,30.11328333300003],[31.31345497400002,30.11757784400004],[31.31343702000004,30.11963185300004],[31.31365097700007,30.12069772600006],[31.31427659600007,30.12212654500007],[31.31627716800006,30.12566127300005],[31.32190934200003,30.13632014000007],[31.32290276000003,30.13766740300002],[31.32403385900005,30.13885734500008],[31.33291380100007,30.14622605700004],[31.33388452200006,30.14722941600007],[31.33449200700005,30.14814713100003],[31.33514987900003,30.14980924800005],[31.33644647500006,30.15502558600008],[31.33751422200004,30.15866744600004],[31.33765236100004,30.16189877000005],[31.33789724800005,30.16281402600004],[31.33827200000007,30.16350970000008]]}}]}