{"type":"FeatureCollection","features":[{"type":"Feature","properties":{"اسم_الخط":"مونوريل أكتوبر"},"geometry":{"type":"MultiLineString","coordinates":[[[30.9514394544053,29.9848766129398],[30.9514937353172,29.9842363115477],[30.9514488486459,29.9853207005055],[30.9519725892981,29.9883995895234],[30.9628802084781,29.9963446461606],[30.9670452055771,29.999046744572],[30.9700636082206,30.0009951668487],[30.9796829804799,30.0072178242358],[30.9828338291855,30.0089445879681],[30.9895969840066,30.0086577645105],[30.991539001133,30.0086709049259],[30.9925971420225,30.0090939537383],[31.0320362734005,30.0349408928391],[31.0357989760837,30.0373579474489]],[[30.9176642069614,29.9590081705541],[30.91989878655651,29.9605091198769],[30.9176345323957,29.9590429166323],[30.9151568263405,29.9574135269499],[30.909766479897,29.9539074244571],[30.9011603638093,29.9483064621004],[30.8861238466373,29.9385307502201],[30.8825401396289,29.9361796408739],[30.8760588335355,29.9319609391831],[30.870593676441,29.9284275723449],[30.8585416423988,29.9206889906787]],[[30.8539356698496,29.91625488791],[30.8427695258889,29.9089849379212],[30.8364022238795,29.9048330857518],[30.839116966013,29.8994804072089],[30.8361514469445,29.9032185803374],[30.8539654521325,29.9162202199516],[30.8554814205184,29.9176882012721],[30.8555254172088,29.9176678962647]],[[30.9519386402132,29.9813197504527],[30.9430486174138,29.9755845811817],[30.9414164784595,29.97452119288049],[30.9325534872936,29.96873648127839],[30.9431235577441,29.9755698721393],[30.9519710565673,29.981286771547]],[[31.1646587616741,30.0635469942732],[31.1688973662629,30.0629406126802],[31.171503568399,30.0626092081736],[31.169090315085,30.0629638475244],[31.164666837133,30.0635897208986],[31.16117280167269,30.0641287189502],[31.155234921171,30.0650696177413],[31.1467738705397,30.0664184726244],[31.1428021965741,30.06679349262039],[31.1401404198502,30.0668248841664],[31.1374853067316,30.0666581985093],[31.1348563093044,30.06629465677459],[31.1332343748706,30.0660521687124]],[[30.9011794705972,29.9482648441398],[30.8853867813723,29.9379974291997],[30.883274280975,29.936601248341],[30.8760885915642,29.931926252427]],[[31.1237507807417,30.0644878228753],[31.1216908438523,30.0643109949132],[31.1186081634091,30.0640940530173],[31.116512455696,30.063930156942],[31.1112452371876,30.06356705617049],[31.1077964567617,30.06326862618659],[31.1055901458189,30.063104460876],[31.1022891618838,30.06289659994],[31.0985411599164,30.0625062504942],[31.1006864620905,30.0625930858417]],[[31.0824427132407,30.0587257923005],[31.0868890447859,30.060520551487],[31.082422219638,30.0587652525982],[31.0788326665777,30.057295616469],[31.0722828844742,30.054785051345]],[[31.0956663155509,30.0624621678339],[31.0916709226835,30.0619310083199],[31.0897209704271,30.0614643138137],[31.0868890447949,30.060520551496],[31.0897360347592,30.0614230439086],[31.0916822495265,30.0618888438876],[31.0956699842682,30.0624189853093]],[[31.0432373567841,30.0416058669357],[31.0461393347305,30.0430606875719],[31.0402990435631,30.0399357253062],[31.0421999230542,30.04093866818051],[31.0397541889653,30.0396867989202],[31.0377492491682,30.0385053295622],[31.0377313468554,30.0384339381186]],[[31.1794972180821,30.066583473043],[31.1847061446808,30.0659482530876],[31.1795045978828,30.0666262947432],[31.1759014526145,30.0669107459881]],[[31.068468492485,30.0534276582311],[31.0640125826468,30.0517366049441],[31.0595381775564,30.0500511785674],[31.0575309255613,30.0490902770526]],[[30.9248660196546,29.9625129090541],[30.9290759059001,29.9652598454255],[30.924895832244,29.9624782520132]],[[31.19837653933631,30.0603900478032],[31.2041205462903,30.0607623950176]],[[31.1877721771405,30.060173026423],[31.1870935374775,30.0627923359964]],[[31.1108000380869,30.0634887583917],[31.1078014554832,30.063225544788]],[[31.0528668345437,30.0457667847071],[31.0547385169303,30.0471378023625]],[[31.1287100464113,30.0652502488159],[31.1266445732258,30.064883958853]],[[31.1906652670047,30.0592053121226],[31.192378840327,30.0595093287589],[31.1923896086878,30.0594670539327]],[[31.1718993819174,30.0625113534454],[31.1728422390946,30.062641130107],[31.1734892587554,30.062997849458]],[[31.0460173128814,30.043071481859],[31.0474603669599,30.0437568853498]],[[30.9322138980259,29.9684541739873],[30.9311372402322,29.9674438932899]]]}}]}