{"type":"FeatureCollection","features":[{"type":"Feature","properties":{"اسم_الخط":"الخط الأخضر"},"geometry":{"type":"MultiLineString","coordinates":[[[30.50621108500007,30.31620887100007],[30.51117248300005,30.31306515700004],[30.51758201600006,30.30873109700008],[30.92442303500007,30.02247210900003],[30.92999584700004,30.01835166200004],[31.00082154200004,29.96394238900007],[31.00602938700007,29.96035714100003],[31.01250896100004,29.95622277500007],[31.01785430300004,29.95242626900006],[31.03988056200006,29.93557098100007],[31.04525917600006,29.93132784800002],[31.08703214700006,29.89746904900005],[31.09114745600004,29.89405088000007],[31.13845523600003,29.85398260600005],[31.14118075700003,29.85213142400005],[31.14412527800005,29.85055563900005],[31.15356700100006,29.84638661800005],[31.15691068300004,29.84518302000004],[31.16014355700003,29.84437521500007],[31.16345765700004,29.84387693300005],[31.18874361500009,29.84186648800005],[31.19151786800006,29.84148583600006],[31.19345387400006,29.84105890000006],[31.19627344900005,29.84017960100005],[31.19857789400004,29.83920939200004],[31.22110195500005,29.82800080700002],[31.22447109000007,29.82673311300005],[31.22711373800007,29.82606011200005],[31.23023579400007,29.82558520300006],[31.24763006400008,29.82381250600002],[31.27826390700005,29.82161401600007],[31.28326855300003,29.82158413400003],[31.29472821900004,29.82235696000004],[31.29700662600004,29.82227531000007],[31.29926802400007,29.82201964300003],[31.30149496200005,29.82159193200005],[31.30387226700003,29.82093065600003],[31.31568187500005,29.81669038400003],[31.32002721100002,29.81489565500004],[31.33623144100005,29.80747405100004],[31.33998824600008,29.80605537200006],[31.34388732600007,29.80496729900005],[31.34587834500007,29.80455069400006],[31.34991900100005,29.80397744200008],[31.35400480700002,29.80375511700004],[31.38452754900004,29.80410250700004],[31.38675082160339,29.80407739245247],[31.38929077000006,29.80374502800004],[31.39302054800004,29.80290810000002],[31.39541027700005,29.80208630500005],[31.40563040000006,29.79716060200008],[31.40832251255143,29.79625926037704],[31.4111981113662,29.79547870909634],[31.41446462036229,29.79482741996229],[31.41687430073185,29.79468525575171],[31.41982601235731,29.79476532869833],[31.42269920511346,29.79510028452745],[31.42547804237382,29.79576803989639],[31.42813080742649,29.79666168480706],[31.43116248253074,29.79804683140878],[31.44117915800007,29.80366283000006],[31.44493886500004,29.80632707400002],[31.44795467400007,29.80933680000004],[31.44957619800005,29.81140627000008],[31.45054131400008,29.81285580500003],[31.45249070300002,29.81657885000004],[31.45346822200003,29.81987933500005],[31.45388307300004,29.82246348700005],[31.45397582267826,29.82394783903788],[31.45386379308116,29.82714049199823],[31.45340349478061,29.8304260716449],[31.45302389473153,29.83195452239824],[31.45179302014596,29.83497892577708],[31.43548808600008,29.86884922000007],[31.43471525900003,29.87133915900006],[31.43420360000005,29.87407705700008],[31.43408727400003,29.87702760700006],[31.43429381700003,29.87910042600004],[31.43471253300004,29.88116957700004],[31.43540080600008,29.88329909900006],[31.43632922700004,29.88536376200005],[31.43721741700006,29.88694870800003],[31.43918255100004,29.88967988200005],[31.44092285200003,29.89146610100005],[31.44273389600005,29.89302302500005],[31.44487694700007,29.89451560900005],[31.44778430200006,29.89614130900003],[31.46131545200006,29.90158942500005],[31.46538311800003,29.90280896200005],[31.46898250600003,29.90337405900004],[31.47263731800007,29.90349321700007],[31.47446287600008,29.90338448400007],[31.47806505900007,29.90283308700003],[31.52532713100004,29.89069094600006],[31.52839886600003,29.89003285200005],[31.53154326800006,29.88969467900006],[31.53391979600008,29.88966139400003],[31.55710858400005,29.89108072700003],[31.56157863300007,29.89103062800007],[31.56454254400006,29.89075154500006],[31.56747366400003,29.89027762400008],[31.57049237100006,29.88957473200003],[31.59577779800003,29.88215501100007],[31.60001765200008,29.88114061200002],[31.60343013200003,29.88061988100003],[31.60688059500006,29.88034948600006],[31.63419038200004,29.87982746000007],[31.63779535300006,29.87954956500005],[31.64014658700006,29.87912841200006],[31.64244316000003,29.87851991100007],[31.65222090900005,29.87511298800007],[31.65529664900004,29.87421122300003],[31.65920184700008,29.87343386700007],[31.66318160600002,29.87303690200002],[31.69184987700004,29.87319826600003],[31.69550799700005,29.87355479000007],[31.69879894100006,29.87427979500006],[31.70092045800004,29.87496842000007],[31.70310903800004,29.87587614800003],[31.73291359032726,29.88968652071647],[31.74942726000006,29.89719101300005],[31.75173825500008,29.89811089200003],[31.75588944601986,29.89943360519475],[31.75899789600004,29.90010749700008],[31.76257345281832,29.9006593507673],[31.76601274632966,29.90092373969825],[31.76940030390364,29.90095163160017],[31.77171475500903,29.90081265012022],[31.78144934438481,29.89977460539714],[31.78768862183908,29.89860221854109],[31.79238473591175,29.89727916177414],[31.79585072280538,29.89601965969511],[31.79904433961145,29.8946524684081],[31.81173637700005,29.88795379300007],[31.83139635900005,29.87742290600005],[31.83718853500005,29.87395443300005],[31.85024433500007,29.86482450500005],[31.85263611000005,29.86279862600003],[31.85471784100002,29.86061564700003],[31.85652568400008,29.85825458200003],[31.85803975800007,29.85574141900003],[31.85904480100004,29.85360585800004],[31.86309581900008,29.84377806000003],[31.86427443200006,29.84126705600005],[31.86688808400004,29.83634315700004],[31.86983562900008,29.83156479100006],[31.87143132800003,29.82923557900006],[31.87485937000002,29.82470757500005],[31.88649177300005,29.81041571000003],[31.88857936300008,29.80761082900005],[31.89022272300008,29.80502620500005],[31.90199771200002,29.78495024100005],[31.90337404400004,29.78285954900008],[31.90510756600003,29.78078143700003],[31.90709982700002,29.77888806400006],[31.90932515200006,29.77720381600005],[31.91212468500004,29.77555851200002],[31.93866622600007,29.76285261100003],[31.94274368000004,29.76116635000005],[31.94484167300004,29.76044109800006],[31.94913626800007,29.75923323800004],[31.95353505200006,29.75835629100004],[31.95800461500005,29.75781691600002],[32.01001219500006,29.75421686400006],[32.01279913800005,29.75380482700007],[32.01531447600007,29.75319099900003],[32.01774631000006,29.75235958100006],[32.02006998600007,29.75131900500003],[32.02226194900004,29.75007982100004],[32.02429998200006,29.74865459200004],[32.02616343100004,29.74705776600007],[32.02783341400004,29.74530553200003],[32.02929301500006,29.74341565200007],[32.03386491200007,29.73618728100007],[32.03680647400006,29.73223992900006],[32.04025124200007,29.72861596800004],[32.04214811600008,29.72694064100006],[32.04625900200006,29.72389139100005],[32.04845920700006,29.72252770300003],[32.05133444400008,29.72098067400004],[32.09734054300003,29.69841484400007],[32.10117818100008,29.69666691800006],[32.10411029800002,29.69553801500007],[32.11016934700007,29.69372106000003],[32.11642382700006,29.69251031400006],[32.11959965500006,29.69213736900008],[32.12599817600005,29.69186223800006],[32.14325840300006,29.69214741900004],[32.14867075000006,29.69209580800003],[32.15407257400005,29.69179703600003],[32.16212320700004,29.69088742700006],[32.16774626300003,29.68991439800004],[32.23499848300003,29.67647227400005],[32.23741730500006,29.67577976800004],[32.23974665900005,29.67488341700005],[32.24196408000006,29.67379187000006],[32.24404818200003,29.67251565400005],[32.24615221700003,29.67093412700007],[32.26234852000005,29.65768660700007],[32.2653626220401,29.6552271803819],[32.2663551094414,29.6545407307144],[32.2677084691804,29.6538251828775],[32.2962831858235,29.6418398236159],[32.3025325389771,29.6392186073719],[32.3039643234438,29.6387689894907],[32.3051842751492,29.6386400262319],[32.3064090332402,29.6387275647375],[32.3075887661256,29.6390280430972],[32.3086754734234,29.6395292354881],[32.309624938173,29.6402107494259],[32.3103985254229,29.6410448551782],[32.3109647541239,29.6419976136557],[32.3113005784082,29.6430302569683],[32.3133297248609,29.6546169775723]],[[29.7654675229491,30.8906582557151],[29.7516670213274,30.915425249576],[29.7489783026575,30.9200682636455],[29.73356183715971,30.9458794364922],[29.72967638857531,30.95216588847943],[29.72678568433521,30.95692330573578],[29.7258355804006,30.95785553942381],[29.7246829773919,30.95850132734654],[29.72292000633219,30.95892712546784],[29.72109676170349,30.9588001547378],[29.71988022600004,30.95838520800004],[29.71739020100006,30.95710313000006],[29.7108016681125,30.953744205372],[29.7229310620527,30.9601795487459],[29.725553158345,30.9619193696635],[29.7270870251334,30.9632878106583],[29.7284245935164,30.9648014999327],[29.7294404580511,30.9660216370884],[29.7405933175659,30.9854606835299],[29.7418933159007,30.9870974256512],[29.7429436567223,30.988062845627],[29.7441229302764,30.9889106005559],[29.7465284274942,30.9901262431207],[29.751623147743,30.99231078621751],[29.7537884029371,30.9932590527063],[29.76028845412131,30.99615397955071],[29.7621490902838,30.9969183221556],[29.7652350239281,30.9981156931257],[29.7667809826369,30.9988763215975],[29.76773139200003,30.99955923900006],[29.76629056500008,30.99865835700007],[29.76504395200004,30.99806424800005],[29.76697205700003,30.99892776400003],[29.76811354400007,30.99966212100002],[29.7811769010403,31.009734283579],[29.7831226369457,31.0112081271881],[29.7854379968257,31.0129427837],[29.7879038018915,31.0145230949895],[29.7892011649704,31.0150947674797],[29.8049577387163,31.020363029831],[29.8087701113246,31.0219203367369],[29.8151235269657,31.0254204288593],[29.8184231471079,31.0275943417957],[29.8199382592508,31.0290144038324],[29.8273802828858,31.0375508813401],[29.8287313808843,31.0390924169841],[29.8300590241671,31.0405925477476],[29.83201022435239,31.0428344532517],[29.8346691902032,31.0459484221064],[29.8360386930547,31.0475388261019],[29.8437549379546,31.0564095926432],[29.8456597255024,31.0584730465862],[29.8696672168785,31.0823934183234],[29.8725519064959,31.0855058974892],[29.874399955425,31.0878405421286],[29.8962523166132,31.1177112953993],[29.8986648450817,31.1205934431003],[29.9284505661959,31.1498287502579],[29.92683926800004,31.14787754900004],[29.92654143000004,31.14873668100006],[29.92662320900007,31.14893606400005],[29.92667724700004,31.14951258900004],[29.92650134100006,31.14982371100007],[29.92626515500007,31.14968620200005],[29.92631602800003,31.14926943700004],[29.92620229200003,31.14886195800005],[29.92581137900004,31.14801971400004],[29.92559223600006,31.14792391700007],[29.92493472400002,31.14780246300006],[29.92455308600006,31.14791177200004],[29.92468071500008,31.14813113800005],[29.92562262800004,31.14829250800005],[29.92232166900004,31.14395000600007],[29.92359943500003,31.14469564600006],[29.91718727000006,31.13853301200004],[29.91449017700006,31.13605152800005],[29.91630064100008,31.13801955600007],[29.91787243200002,31.13963278000006],[29.91639808200006,31.13797414000004],[29.92185387400008,31.14361850900008],[29.92316776700005,31.14502115700003],[29.92539284100008,31.14643091400006],[29.92683926800004,31.14787754900004],[29.92837376800003,31.14923909500004],[29.92440517100005,31.14551240700007],[29.92255326000003,31.14400985400005],[29.91716005600006,31.13858578100007],[29.92141898000006,31.14282590900007],[29.92358860700006,31.14510077800003],[29.92044342000003,31.14194317900007],[29.92318501100004,31.14498761200008],[29.92491663200008,31.14679001100006],[29.92692205200007,31.14781512200005],[29.92496027300007,31.14677579700003],[29.92632916000002,31.14826221800007],[29.92513530300005,31.14664381100005],[29.92648921000006,31.14814152600007],[29.92398467300006,31.14581079500005],[29.92647620100007,31.14815133600007],[29.92531033100005,31.14651182400007],[29.92666423900005,31.14800953800005],[29.92451218500003,31.14602459200006],[29.92245622700005,31.14382982900003],[29.91695112800005,31.13874331900007],[29.92130018500006,31.14293420600006],[29.91441725000004,31.13610651600004],[29.92158766800003,31.14308032400004],[29.92675580800005,31.14792180500007],[29.92458262700006,31.14599017000006],[29.92604102700005,31.14806439600005],[29.92786365800004,31.14962377000006],[29.92632916000002,31.14826221900006],[29.92803868900006,31.14949178000006],[29.92648921000006,31.14814152600007],[29.92822232000003,31.14995300000004],[29.92647620100007,31.14815133600007],[29.92821371900004,31.14935978900007],[29.92666423900005,31.14800953800005],[29.92837813400007,31.14981682900003],[29.92665123000006,31.14801934800005],[29.92855316600003,31.14968483800004],[29.92651867100005,31.14853429400006],[29.92842938200005,31.14977818300002],[29.92520505200002,31.14597584400008],[29.91986872900003,31.14999956500003],[29.92347726800006,31.15351650800005]],[[28.02134650900007,31.04443339200003],[28.02767148500004,31.04381591000003],[28.06209150700005,31.03866551900006],[28.05820146200006,31.03918864600007],[28.04900883000005,31.04045417800006],[28.05818828300005,31.03907080600004],[28.06065455300006,31.03894932800006],[28.05674282100006,31.03944593200004],[28.04907729100006,31.04079330200005],[28.05824646700006,31.03941147200004],[28.05538679100005,31.03953829900007],[28.05803635300003,31.03929339800004],[28.06064513800004,31.03890272100006],[28.06080297900007,31.03968411400007],[28.05672626800003,31.03946823700005],[28.04906788200003,31.04074669500005],[28.05216405400006,31.04009359800006],[28.04992227700006,31.04055925700004],[28.04692447900004,31.04117859600007],[28.04907083900002,31.04076134300004],[28.04690270600003,31.04107073300003],[28.04946864500005,31.04062726500007],[28.04682950500006,31.04070808200004],[28.04901349000005,31.04047726000005],[28.04685127700003,31.04081594600007],[28.04944050800003,31.04048788600005],[28.04688810200003,31.04099838100007],[28.04903105300008,31.04056426000005],[28.04427326900003,31.04163907300006],[28.03549513400003,31.04246684400005],[28.03309897800006,31.04293583900006],[28.03555218800005,31.04269701000004],[28.03312583800005,31.04306900500006],[28.03700285600007,31.04240002200004],[28.04474513400004,31.04143246400002],[28.04156696900003,31.04167945400008],[28.04385977400005,31.04146651200006],[28.04692447900004,31.04117859600007],[28.04474047600007,31.04140938200004],[28.04689105900007,31.04101302900006],[28.04466432600003,31.04103208300006],[28.04684832000004,31.04080129700003],[28.04468609600008,31.04113994600004],[28.04686292500003,31.04087365000004],[28.04472291700005,31.04132238200003],[28.04686588200008,31.04088829800003],[28.04674531900002,31.04163215300002],[28.04677470600006,31.04177774700003],[28.04725930000006,31.04170523100004],[28.04722991200003,31.04155963700003],[28.04755366100005,31.04151118900006],[28.04750492000005,31.04126971700003],[28.04637283100004,31.04143912600006],[28.04642156900007,31.04168059900007],[28.04936808100006,31.04057052200005],[28.04428043600007,31.04167458400008],[28.04912872600005,31.04104809000006],[28.04476950300005,31.04155320000007],[28.04901349000005,31.04047726000005],[28.04470069900002,31.04121229900005],[28.04905327600005,31.04067434200005],[28.04474047600007,31.04140938200004],[28.04904618300003,31.04074365000002],[28.04469824200004,31.04130466000004],[28.04900639800007,31.04054656600005],[28.04474482600006,31.04153548000005],[28.04680484200003,31.04069037400006],[28.04467602500006,31.04119457700006],[28.04909510700003,31.04098601000004],[28.04424859000005,31.04162134900002],[28.04689981200005,31.04116089000007],[28.04900639800007,31.04054656600005],[28.04686343700007,31.04098067300004],[28.04904618300003,31.04074365000002],[28.04689981200005,31.04116089000007],[28.04426065000007,31.04124163600005],[28.04934342700005,31.04055283000002],[28.04683826100006,31.04085594200006],[28.04944399200008,31.04060957400003],[28.05821433400007,31.03935609300004],[28.06061246500008,31.03884515400006],[28.05820620800005,31.03929008700004],[28.05822790200006,31.03939750500007],[28.04905173800006,31.04077117100007],[28.05216231000003,31.04018932700006],[28.04986953200006,31.04040240500007],[28.05815941200007,31.03905838200006],[28.05818110600006,31.03916580100002],[28.06060394800005,31.03880298500007],[28.02764673600007,31.04379807800007],[28.08358421800006,31.03544447900003]],[[27.3359515426983,31.2096780444725],[27.3004706821991,31.2521694620818],[27.30231441700005,31.25038123400003],[27.30112022800006,31.25197271700006],[27.30359797800003,31.24884487300005],[27.30570946700004,31.24569164700006],[27.30518332300005,31.24695145400005],[27.31070764700007,31.24019315100003],[27.31287647900007,31.23737000200003],[27.31108749700007,31.23935221800008],[27.30961789900005,31.24101518000003],[27.31116152100003,31.23940646300002],[27.30601227500006,31.24527511100007],[27.30362437600007,31.24886115100003],[27.30368739100004,31.24890000900007],[27.30185286900007,31.25009661800004],[27.30304701900008,31.24850512500007],[27.30204191600006,31.25021319600006],[27.30321988500003,31.24861172300007],[27.30466433200007,31.24662687400007],[27.30471708600004,31.24666395400004],[27.31064121600008,31.24019932000004],[27.30677717000003,31.24469925200003],[27.30477359800005,31.24706569700004],[27.30568054700007,31.24589508700006],[27.30755605000007,31.24366645400005],[27.30475851500006,31.24668780500008],[27.30186692000007,31.25010528300004],[27.30526250200006,31.24614119600005],[27.31041556000002,31.24006017900007],[27.30665682900008,31.24462960200003],[27.31279771400006,31.23732143500007],[27.30655603500003,31.24492015700002],[27.30347301400008,31.24872649700006],[27.30223096300006,31.25032977200004],[27.30340893100004,31.24872829800006],[27.30208257400005,31.25023373500006],[27.30394036700005,31.24806669300006],[27.30068236800003,31.25225244600006],[27.30185286900007,31.25009661900003],[27.30555654100004,31.24631796300002],[27.30344428700005,31.24870424400007],[27.30298878800005,31.24847753400007],[27.30047984800007,31.25157782000008],[27.30204191600006,31.25021319600006],[27.30065271600006,31.25168442100005],[27.30189352700006,31.25011715700003],[27.30223096300006,31.25032977200004],[27.30084176400004,31.25180100000006],[27.30208257400005,31.25023373500006],[27.30052208700005,31.25215812900007],[27.30224501400005,31.25033843700004],[27.30250283300006,31.25137362600003],[27.30260122400006,31.25182539900004],[27.30238175400007,31.25198176600003],[27.30218459800005,31.25173641700007],[27.30215310700004,31.25114791900006],[27.30221914800006,31.25090474800004],[27.30257071600005,31.25100096700004],[27.30298638000005,31.24846496400005],[27.30400210500004,31.25014770500007],[27.30410432600006,31.24991903800003],[27.30374770700007,31.24983889900005],[27.30309887200008,31.25000538400008],[27.30286457200003,31.25013128100005],[27.30308316600008,31.25038665600005],[27.30042533600005,31.25154576400007],[27.30043352000007,31.25290932700005],[27.30091336400005,31.25233503400005],[27.30008393900005,31.25182354800006],[27.29960409300003,31.25239783800004],[27.30016757700002,31.25283844400008],[27.30221626900004,31.25031618000003],[27.30264459400007,31.25019842600005],[27.30371503900005,31.24891529800004],[27.30295885900006,31.24844899200008],[27.30188920300003,31.24973083600003],[27.30162543300003,31.24966993600003],[27.30136064600003,31.24989574100005],[27.30132690600004,31.25015128600006],[27.30146531500003,31.25023664000003],[27.30038924800004,31.25152454500004],[27.30114862500005,31.25198892600002],[27.30222150500003,31.25070295800003],[27.30221821000004,31.25090727600008],[27.30279388600007,31.25096026000006],[27.30315559900004,31.25051187800005],[27.30286457200003,31.25013128100005],[27.30295262700002,31.25077026200006],[27.30043796800004,31.25210173100004],[27.30183817600005,31.25008302300006],[27.30091859600003,31.25184385500006],[27.30081300100005,31.25177873800004],[27.30209662400006,31.25024240000005],[27.30072954800005,31.25172727500006],[27.30062395400006,31.25166215800004],[27.30190757800005,31.25012582100004],[27.30054050100006,31.25161069400008],[27.30045108700006,31.25155555400005],[27.30173471200004,31.25001922000007],[27.30385629700004,31.24801030900005],[27.30183817600005,31.25008302300006],[27.30523380400007,31.24611894800006],[27.30751773100008,31.24364282400006],[27.31020508200004,31.24032517600006],[27.31275726600006,31.23729649500007]],[[28.86029751600006,30.87060033500006],[28.86297644100006,30.86895448700005],[28.85994424000006,30.87051291900008],[28.86457762800006,30.86763769300006],[28.86289858300006,30.86886343600003],[28.86458786400004,30.86764966400006],[28.86309183100008,30.86908943100008],[28.86470166800007,30.86714034700003],[28.86382865500008,30.86769584300004],[28.86402841900008,30.86770238600008],[28.86491403500003,30.86709708400008],[28.86655689800006,30.86676306300006],[28.86263565400003,30.86931596900007],[28.86666983800006,30.86673985100003],[28.86294077000002,30.86891277000007],[28.86648555500005,30.86667963100007],[28.86290478600006,30.86887069200003],[28.86644957200008,30.86663755300003],[28.86290478800004,30.86887069100004],[28.86540798200008,30.86767170100006],[28.86563981700004,30.86791851200007],[28.86535554500006,30.86809939600005],[28.86546101200003,30.86822272900002],[28.86496479600004,30.86853847300006],[28.86485932900007,30.86841513800005],[28.86457505400006,30.86859602000004],[28.86435667800004,30.86834064500005],[28.86643095800002,30.86661578900004],[28.86280304600007,30.86875170800005],[28.86634782800007,30.86651857300006],[28.86436712200003,30.86892980700003],[28.86521143300007,30.86892968600006],[28.86585791300007,30.86850623000004],[28.86631364800007,30.86646735900007],[28.86271616800008,30.86863884200005],[28.86637444700006,30.86653845600006],[28.86291903200004,30.86887607900007],[28.86651217500003,30.86669951300007],[28.86287155000008,30.86896118300007],[28.86689820800007,30.86662870600003],[28.86268092900008,30.86935763000002],[28.86669007000006,30.86675225800008],[28.86305444300007,30.86911098200005],[28.86659872100006,30.86680071700005],[28.86311228200003,30.86910207200003],[28.86600351300007,30.86811592900006],[28.86593077200007,30.86855784900007],[28.86526394200007,30.86899702200003],[28.86460829700007,30.86766229900007],[28.86291903300003,30.86887607900007],[28.86459806100004,30.86765032900007],[28.86278130800002,30.86871501800005],[28.86448235800003,30.86751502500005],[28.86233574200003,30.86926569600007],[28.86455773500006,30.86760317200003],[28.85965782500006,30.87109161800004],[28.86237606700007,30.86931285400004],[28.86474602400006,30.86782335800007],[28.86225746700006,30.86904114900005],[28.85759363200003,30.87224076500007],[28.85462478600004,30.87418265400004],[28.85962777400005,30.87105024600004],[28.85468216800007,30.87424976600005],[28.85987717600005,30.87054318500003],[28.86227792000005,30.86905379600006],[28.85766290400005,30.87219949500007],[28.85757084700003,30.87220485200004],[28.86028799100006,30.87057790600005],[28.86031799000006,30.87061299000004],[28.86304497100008,30.86902335500002],[28.86460829700007,30.86766229900007],[28.86645137700003,30.86662841500004],[28.86459806100004,30.86765032900007],[28.86631184300006,30.86647649600008],[28.86276706400002,30.86870962800003],[28.86448235800003,30.86751502500005],[28.86709543500007,30.86630987500007],[28.86455773500006,30.86760317200003],[28.86986800400007,30.86459478100005],[28.86651217600007,30.86669951200003],[28.86481116500005,30.86789953400006],[28.86683748300004,30.86615250500006],[28.87168395300006,30.86327776900004],[28.87171706200007,30.86320348300006],[28.86914300500007,30.86499754700003],[28.86778350200007,30.86587013900004],[28.86774525800007,30.86582541900003],[28.86919582600007,30.86461364300004],[28.87483461500005,30.86142656800007],[28.86983105400003,30.86455780000006],[28.87477722500006,30.86135946400003],[28.87175011000005,30.86323286400005],[28.87472741500005,30.86131241800008],[28.86978274900002,30.86451254400004],[28.86453730300008,30.86759053600008],[28.86635403100007,30.86652582800008],[28.86466479200004,30.86773962500007],[28.86800537600003,30.86545652300003],[28.86467502800008,30.86775159600006]],[[30.29588899700008,30.44260136200006],[30.30664700600004,30.43543867200003],[30.31164964900006,30.43225575800005],[30.32739607700006,30.42260379400005],[30.33301310300004,30.41902677300004],[30.34023457000006,30.41404106600004],[30.36634770600006,30.39522325400003],[30.37224562200004,30.39158402900006],[30.39389176500003,30.37962261300004],[30.39874768700003,30.37686742700004],[30.40355996000005,30.37407413400008],[30.40842866200006,30.37132669900006],[30.48154695200003,30.33103180900002],[30.49227429400003,30.32477344800003],[30.50459329500006,30.31742442900003],[30.49982019700008,30.31984931600005],[30.49865241200007,30.32063500300006],[30.49969604400007,30.31999368100003],[30.49946061800006,30.32112547400004],[30.49935844900006,30.32100033900008],[30.49907166800006,30.32117656800006],[30.49886012000007,30.32091746600003],[30.49993427200008,30.32025738900006],[30.50014582200004,30.32051648900006],[30.49985904300007,30.32069272000007],[30.49996121200007,30.32081785300005],[30.50031901000006,30.32019645500003],[30.50054820000003,30.32054817600005],[30.49939602700005,30.32126116800004],[30.49896389300005,30.32151198500003],[30.49881101000005,30.32150901700004],[30.49802108700004,30.32054151900007],[30.49881101000005,30.32150901700004],[30.50005851300006,30.32302130400006],[30.49900561000004,30.32173175300005],[30.50332569900007,30.32704814100003],[30.50212398700006,30.32424730200006],[30.50369530900008,30.32718776200005],[30.50196916800007,30.32444903600003],[30.50195977800007,30.32445290900005],[30.50309133200005,30.32641771100003],[30.50230918800003,30.32556125000008],[30.50449327500007,30.32846522700004]],[[28.64074705000007,30.98003645100005],[28.64445388900003,30.97955426600004],[28.64076965500004,30.98016113500006],[28.64771534300007,30.97914022600003],[28.65092530800007,30.97846683200004],[28.64688040600004,30.97934449500008],[28.65024746200004,30.97885097900007],[28.65313704200003,30.97840252200007],[28.65092786400004,30.97848245400007],[28.65313437500004,30.97838782700006],[28.65094369600007,30.97856973200004],[28.65313437500004,30.97838782700006],[28.65535284400005,30.97835906600005],[28.65286752400004,30.97863391100003],[28.65033982700004,30.97901903300004],[28.65602574500008,30.97821609600004],[28.65099959800006,30.97887787700006],[28.65570568200008,30.97808618400006],[28.65092786600007,30.97848245400007],[28.65528497200006,30.97798501800003],[28.65100174500003,30.97878116900006],[28.65532717000008,30.97810915000002],[28.65096587800008,30.97858345900005],[28.65529129400005,30.97791144000007],[28.65266676100003,30.97901464200004],[28.65299132500007,30.97897092900007],[28.65301782400007,30.97911698600007],[28.65350363700002,30.97905155300003],[28.65347713800003,30.97890549600003],[28.65380170200007,30.97886178100003],[28.65375775100006,30.97861954000007],[28.65262281200006,30.97877240100007],[28.65075388100007,30.97876984600003],[28.65536304700004,30.97830686000003],[28.65035554900004,30.97899713900006],[28.65605436800007,30.97826541200004],[28.65062589500008,30.97895317400003],[28.65288969700003,30.97864762500006],[28.65537500600004,30.97837276300004],[28.65063237100003,30.97898879600007],[28.65313650800005,30.97829110700008],[28.65098590900004,30.97869389200002],[28.65313384200005,30.97827641200007],[28.64747864200007,30.97897870100007],[28.65312067300005,30.97820382900005],[28.65093307700005,30.97840266900005],[28.65315921100006,30.97841623400006],[28.65026964500004,30.97886471000004],[28.65317238100005,30.97848881700003],[28.65100618600007,30.97880566100002],[28.64689812000006,30.97930958400008],[28.64079188200003,30.98017492700006],[28.64739149000008,30.97895941600007],[28.65032147500006,30.97859588600005],[28.64445292700003,30.97951334100003],[28.64773753800006,30.97915397300005],[28.64774534900005,30.97919704000003],[28.65101870700005,30.97887468200003],[28.65313650800005,30.97829110700008],[28.65532717000008,30.97810915000002],[28.65289614600005,30.97868325000007],[28.65734658600007,30.97770890700007],[28.65312067300005,30.97820382900005],[28.65527432500005,30.97781792800004],[28.65315921100006,30.97841623400006],[28.65606976400005,30.97808346800008],[28.65312333900005,30.97821852400006],[28.65945095300003,30.97766805900005],[28.65534300800005,30.97819642700006],[28.65318934700002,30.97858232900006],[28.65592518500006,30.97784109900005],[28.66183866100005,30.97717158400008],[28.65859132300005,30.97773615100004],[28.65691643300005,30.97796787300007],[28.65690647000002,30.97791297400005],[28.65884412500003,30.97741681200007],[28.66555931400006,30.97683890100006],[28.65943798700005,30.97762053800005],[28.66554435600005,30.97675652300006],[28.66185224100008,30.97721081100008],[28.66551456200006,30.97670058800003],[28.65940857100003,30.97756679100007],[28.65310117100006,30.97820481100007],[28.65603710300007,30.97801188700004],[28.65314754400003,30.97846041000003],[28.65533781500005,30.97827624100006],[28.65942881100005,30.97765438800008],[28.66174729500005,30.97721059500003]],[[30.0999981911874,30.6346824154457],[30.1046693798048,30.6300114250499],[30.1092305223162,30.6255421027864],[30.1659217237542,30.5709142751135],[30.1697693990839,30.5671884364831],[30.23112908000007,30.50751460700008],[30.28122889300005,30.45870310400005],[30.28524290900003,30.45394036300006],[30.28828923900005,30.44979447100008]],[[28.43477056600005,31.00200488500008],[28.46808983200003,30.99614638800006],[28.47580565100003,30.99530860100003],[28.56882779400007,30.98901461400004],[28.57687097200005,30.98825243700003],[28.59508597000007,30.98619171900003],[28.60253186000006,30.98525457400007],[28.71281284900004,30.97039629800003]],[[27.8014655772243,31.0912579002268],[27.7724001490187,31.1073948025589],[27.77445158200004,31.10617586600006],[27.78221769400005,31.10173544400004],[27.78419481334344,31.10215555368724],[27.78150908576782,31.10355879029965],[27.78410805206,31.10203968469164],[27.78146769074505,31.1035035055407],[27.78611603879432,31.09995555494221],[27.78247917387677,31.10208446298589],[27.78611036810338,31.09994798188758],[27.78236973048626,31.10193830111018],[27.78607747591364,31.09990405938523],[27.78236406436805,31.10193072545034],[27.78611036590319,31.09994798310747],[27.78431850941218,31.10094146186308],[27.78598447679809,31.09977986122428],[27.78227673409302,31.10181410026502],[27.78598447899827,31.09977986000438],[27.78229375001068,31.10183681749763],[27.7859345771345,31.09971321705842],[27.78224384518313,31.10177017555828],[27.78595158692544,31.09973593746681],[27.78402685598728,31.10065840404861],[27.78217863670412,31.10168308222029],[27.78513412906942,31.10062536204062],[27.7853722973999,31.10094343189675],[27.78427481539388,31.10138043800369],[27.78436781391952,31.10150463737886],[27.78478146029119,31.10127529997244],[27.78468846146425,31.10115110089664],[27.78496481112555,31.10099788346546],[27.78481056937324,31.10079189492397],[27.78418674094875,31.10111311499358],[27.78384422291244,31.10132766428215],[27.78399846349733,31.10153365398362],[27.78453495437322,31.10045707708409],[27.78360381367253,31.1009733265632],[27.78486817632654,31.10027018346454],[27.78483868915182,31.10023080328687],[27.78371572117528,31.10063371246094],[27.78362272312966,31.10050951401858],[27.78334637708061,31.10066272878885],[27.78319213567904,31.10045673553738],[27.78415847659616,31.09992096964091],[27.78431271916519,31.10012696173244],[27.78403636488629,31.1002801776872],[27.7841293632332,31.10040437583019],[27.78320436260237,31.102978492667],[27.78552525953234,31.10319055053699],[27.78760588174951,31.1020369618134],[27.78604081890444,31.10303149437001],[27.78643381246154,31.10446136610203],[27.78711175988628,31.10746392675293],[27.78817198206865,31.10889535162536],[27.78746746944559,31.10798354688442],[27.78692876572462,31.1069952863694],[27.78663178855722,31.10608082861603],[27.78634357372188,31.10447208878625],[27.7866687650501,31.10607453669786],[27.78696417697641,31.10698417367601],[27.78750004111439,31.10796722429778],[27.78822939515749,31.10885331431178],[27.78721455809544,31.1074233906803],[27.78664960697697,31.10579031186975],[27.78722883561746,31.10741776066383],[27.7882700627324,31.10882353786725],[27.78685476397477,31.10756526658111],[27.78625821447648,31.10584082828114],[27.78625393868127,31.10619134362217],[27.78656961573973,31.10714163228988],[27.78713472806652,31.10816857818618],[27.78789926920006,31.10909502852],[27.78673768787546,31.10761143233544],[27.78613085650427,31.10585726590613],[27.7859772144131,31.10363680638234],[27.78564836999259,31.10288639940994],[27.786683265387,31.1002227326512],[27.78414196550003,31.10081213969839],[27.78229374455021,31.10183681952571],[27.78421228087543,31.10090604663974],[27.78224752994781,31.10177509774357],[27.78408639376986,31.10073792289242],[27.78241027366205,31.10199244921476],[27.78432739425102,31.10105978129974],[27.78606046280215,31.09988133980337],[27.78409575022853,31.10075041858098],[27.78593457387443,31.09971321786674],[27.784258496299,31.10096776771135],[27.78611603553424,31.09995555575053],[27.78432739425102,31.10105978129974],[27.78567450889993,31.10333217853598],[27.78598961902459,31.10451869729518],[27.786004911579,31.10321274469584],[27.78530376701064,31.10207929176217],[27.78604021492723,31.1032013838685],[27.7863810062785,31.10446818177815],[27.78563435479622,31.10333232939675],[27.78496169966882,31.10225120088309],[27.78516934894344,31.10234490829202],[27.78561226181822,31.10290465427535],[27.78552501495876,31.10331890212742],[27.78405413738555,31.10411333932997],[27.78553165387199,31.10329582584642],[27.78404392997964,31.10409970769739]],[[30.0425347695156,30.6899798470032],[30.0296804400278,30.7017388445893],[30.0251206690801,30.7061965842826],[30.0203596038495,30.7113501279375],[30.01603385704439,30.7158084746668],[29.98596880795001,30.7447237272335],[29.9810282640485,30.7491541837666],[29.8923064871693,30.820724467915]],[[31.10775640900005,29.87993961400008],[31.12618004700005,29.86437382300005],[31.10757952900008,29.87978122200008],[31.11420723700007,29.87484274900004],[31.11552796500007,29.87356508400006],[31.11864327300003,29.87092237100006],[31.11545588000007,29.87350034300005],[31.11849888000006,29.87079308200003],[31.11531148700004,29.87337105100005],[31.11835448700003,29.87066379400005],[31.11516709500006,29.87324175900005],[31.11878766700005,29.87105165900005],[31.11560027300004,29.87362963500004],[31.11917279500005,29.87056442700003],[31.10761201700006,29.87981031400005],[31.12130296000004,29.86825998400008],[31.11265149200005,29.87603332700007],[31.11477809800004,29.87372594300007],[31.11142441400006,29.87689158600006],[31.10987062500004,29.87833218400004],[31.10782499600003,29.88000103200005],[31.11884795100008,29.87027349500005],[31.12253320100007,29.86740507700006],[31.11884803100003,29.87027343100004],[31.12256569200002,29.86743416900003],[31.12425636200004,29.86612248400007],[31.12215493400004,29.86759696600006]],[[28.75000268000002,30.95456491500005],[28.78040257300006,30.93043127700003],[28.78547760000004,30.92639447300007],[28.83450203900003,30.88734516700003],[28.84037041700003,30.88327395600004],[28.89139932200004,30.85079996600007],[28.89692418700002,30.84710166400004],[28.90232372400004,30.84337075000008]],[[27.78761155268905,31.10204453479375],[27.78572961333388,31.10284532592646],[27.78528670006319,31.10228558034826],[27.78630112168238,31.10447756802743],[27.78674058539075,31.10661980048472],[27.78752651983451,31.1081400250003],[27.79254570310898,31.1133242859032],[27.78741071902829,31.10820157690706],[27.78660991403261,31.10665258462487],[27.78616651762044,31.1044949411392],[27.78604754917016,31.10388031788473],[27.78564836999259,31.10288639940994],[27.78287229631729,31.1023294882683],[27.77460850600005,31.10636857700007],[27.77246777700003,31.10742694800007],[27.77574093300007,31.10553092400005],[27.77461839000006,31.10610570200004],[27.78222147700006,31.10175583400007],[27.77961896500005,31.10331966400003],[27.78163440800006,31.10235339900004],[27.77455821900003,31.10631705700007],[27.77697435900006,31.10500990500003],[27.77244365700005,31.10739477300007],[27.79797001300005,31.09319927000007],[27.79560759100008,31.09450166900007],[27.79792743800004,31.09314249800008],[27.79562407200007,31.09443236900006],[27.79800691000003,31.09324847300007],[27.79571233900003,31.09453346100003],[27.79793135200003,31.09316296700007],[27.77240479300008,31.10735833400003],[27.77571539400003,31.10549685600006],[27.77464392900004,31.10613977100007]],[[29.77686184700008,31.00667224600005],[29.77517009000007,31.00491840200004],[29.77638046500005,31.00598721600005],[29.77787352000007,31.00716820800005],[29.77628741200004,31.00607753000003],[29.77345102100003,31.00373383000004],[29.77143851800002,31.00211686700004],[29.76955974700007,31.00068044700004],[29.77329674200007,31.00388356300004],[29.77555393500006,31.00526308000008],[29.77334191300002,31.00383972300006],[29.77671954300007,31.00650016500003],[29.77514055500006,31.00494706800004],[29.77179523500007,31.00248785900004],[29.77499774300002,31.00508567500003],[29.77186334000004,31.00242176100005],[29.77492963800006,31.00515177400007],[29.77156798500005,31.00270840900004],[29.76886687800004,31.00009944800007],[29.77334191300002,31.00383972300006],[29.76878825600005,31.00016895800007],[29.77162288600005,31.00265512700003],[29.77170987500006,31.00314835000006],[29.77407757500004,31.00491189300004],[29.77334702700006,31.00577902800006],[29.77075642700004,31.00403066400003],[29.77491116700003,31.00514595500005],[29.77154951200004,31.00270257100004],[29.77497232500007,31.00508660200006],[29.77166974200003,31.00258589000003],[29.77162943400003,31.00262500900004],[29.77493201600004,31.00512572100007],[29.77184486900006,31.00241592300006],[29.77178371500003,31.00247527700003],[29.77508629800008,31.00497598600003],[29.77178371300005,31.00247527600004],[29.77512660500003,31.00493686600004],[29.77182402300008,31.00243615800002],[29.77520652300007,31.00485929900003],[29.77238918100005,31.00286633200005],[29.77385446900007,31.00381844600003],[29.77296974400008,31.00323974000003],[29.77285619800006,31.00438206200005],[29.77274222400007,31.00449267600004],[29.77237420500006,31.00421132200006],[29.77248817900005,31.00410070900006],[29.77224231200006,31.00391274100008],[29.77243134200006,31.00372928500008],[29.77276366500007,31.00395561600004],[29.77329109700003,31.00438657200004],[29.77310206700002,31.00457002900004],[29.77233317700006,31.00292178200004],[29.77382798800005,31.00432706100003],[29.77222529200003,31.00302859800007]],[[29.08891158900008,30.78235712000003],[29.15794569700006,30.78936628200006],[29.16107827200005,30.78954822800006],[29.15794595500006,30.78936403900008],[29.16072957700004,30.78953780300003],[29.16421776700003,30.78957625100004],[29.16107827200005,30.78954822800006],[29.16609663500003,30.78952203300003],[29.17648223700007,30.78917060900005],[29.17955439000008,30.78911430200003],[29.18414128100005,30.78914850200005],[29.22678842300007,30.78993468500005]],[[27.95948223900007,31.05580201300006],[27.9173739548008,31.0675003611041],[27.896852463217,31.0731953818733],[27.88694483300003,31.07576761200005],[27.87743548400005,31.07789532100003],[27.86783972000006,31.07971354400008],[27.85331386700005,31.08185507800005],[27.8170494094277,31.0862616482767]],[[29.635232237516,30.94274466271681],[29.6293826079203,30.9393226652018],[29.6240058475903,30.9363406627298],[29.6058355189502,30.9266748219722],[29.601824514514,30.924587589051],[29.57245134500005,30.90958402600006],[29.56990096800007,30.90769183800006],[29.56351671500005,30.90325249700004],[29.56518518800004,30.90448156500003],[29.56700581600006,30.90555936600003],[29.56533598600004,30.90432935200005],[29.56347124800004,30.90329609500003],[29.56050833900002,30.90091648000003],[29.55792305900007,30.89903849200005],[29.56356823100003,30.90319734400003],[29.56529183400005,30.90437391900008],[29.56696166300003,30.90560393300007],[29.57020240200006,30.90799094400005],[29.57306527400004,30.90985082100008],[29.57666402900003,30.91170177500004],[29.57488457600004,30.91079179400003],[29.57426690700004,30.91052310000003],[29.57664002000007,30.91173667800007],[29.57407597600007,30.91032585500005],[29.57661559300004,30.91177660900007]],[[27.6227526368254,31.157892594194],[27.4968822422567,31.1836142067007]],[[28.94382635200003,30.82814211900006],[28.97958254000002,30.81712853500005],[28.98279538300005,30.81613602800007],[28.98793500200003,30.81456565400003],[28.98536358800004,30.81534691100006],[28.98279626000004,30.81613815100008],[28.98536532900005,30.81535116100002],[28.98936631400005,30.81413801600007],[28.99619914100003,30.81207002000008],[28.99876103000003,30.81129223500005],[29.00274958100005,30.81007552400007],[29.02746277900007,30.80247069100005],[29.03086110800007,30.80141616200007],[29.03567832200002,30.79990445700003],[29.05013665800004,30.79532314600004]],[[28.23845484100008,31.04293554100008],[28.30263227000006,31.03607689700004],[28.30960210100005,31.03532749000004],[28.35934891700003,31.02995561700004]],[[29.8834848174627,30.8263339439324],[29.7798492907977,30.8773515975323]],[[29.85545377600005,31.06827932400006],[29.85711327600006,31.06993275100007],[29.86024137800007,31.07320437700002],[29.85539631800003,31.06831173900002],[29.85672918600005,31.06983354900007],[29.85538916400003,31.06832737300005],[29.85422993700007,31.06668676500004],[29.85556991800007,31.06819295300005],[29.85379102300003,31.06644324600006],[29.85550530600005,31.06824100200004],[29.85068053800006,31.06334378400004],[29.85207467700008,31.06473301600005],[29.85192008700005,31.06484797700006],[29.84920395900008,31.06191028000006],[29.85133932300005,31.06410372100004],[29.85415620800006,31.06674159300007],[29.85540224500005,31.06831764500004],[29.85379433200006,31.06662587500006],[29.85048829100003,31.06348674500003],[29.84909297100006,31.06199281300007],[29.85130511600005,31.06413171200006],[29.85540817200007,31.06832355100005],[29.85385257400003,31.06696739200004],[29.85538916400003,31.06832737300005],[29.85409040800005,31.06679052700002],[29.85554177400007,31.06821388300006],[29.85415501900007,31.06674247800004],[29.85568962800005,31.06810392900007],[29.85370506800007,31.06660038900003],[29.85536577700003,31.06834476500006],[29.85391441100006,31.06692140700005],[29.85526945400005,31.06841639700008],[29.85696702200005,31.06965667900005],[29.85895486100003,31.07048165400005],[29.85820237900003,31.06916686700004],[29.85543038900005,31.06829671600008],[29.85698010300007,31.06964695100004],[29.85568962800005,31.06810392900007],[29.85679102400007,31.06978756300003]],[[27.55189599300007,31.17233024600007],[27.54968916600006,31.17291273000006],[27.55100265700003,31.17268388700006],[27.54838074500003,31.17324026900008],[27.54535667000005,31.17389723800004],[27.54839604900008,31.17299227000007],[27.55095183200007,31.17246096600007],[27.54838808300008,31.17292446300007],[27.54537579400005,31.17396647000004],[27.54323541500003,31.17440356100008],[27.54019368700006,31.17485188000006],[27.53791789600007,31.17518483000003],[27.54098343700002,31.17443661500005],[27.53193624400006,31.17639556200004],[27.52954607600003,31.17688337900006],[27.53198031100004,31.17651617300004],[27.54107589800003,31.17477138300006],[27.54256165300006,31.17451012300006],[27.54264685500004,31.17481860100003],[27.54299135900004,31.17474825600004],[27.54303250800007,31.17489723700004],[27.54363386000006,31.17477444400004],[27.54359271000004,31.17462546300004],[27.54393721300005,31.17455511600008],[27.54385200700005,31.17424663800006],[27.54534722000005,31.17394130400004],[27.54522134200005,31.17348560000005],[27.54094056700006,31.17435971600003],[27.54106642500005,31.17481542300004],[27.53192976100007,31.17633347100008],[27.53469855100008,31.17576831700006],[27.53214876700002,31.17644244600007],[27.52955877800002,31.17692938800008],[27.53341959100004,31.17618305700006],[27.54106561100008,31.17473413800008],[27.54320999800007,31.17431154400003],[27.54535037500006,31.17387445300005],[27.54831126000005,31.17298875800003],[27.54529263900002,31.17366544300006],[27.54924074400003,31.17300443600003]],[[29.5218841090047,30.8914060597457],[29.4775744881302,30.8699554379333],[29.4732816460344,30.8680079812434],[29.469525272751,30.8665836104864],[29.4308200307518,30.8536603138104]],[[29.92581850500005,31.15485169600004],[29.92690652200002,31.15593100400002],[29.93018741000003,31.15621766700008],[29.93400637100007,31.15618827600002],[29.93210558000004,31.15359773200004],[29.92896029400003,31.14966557500003],[29.92645699300004,31.14814713600003],[29.92819450600007,31.14935560500004],[29.92809674100005,31.14942933000003],[29.92664503400005,31.14800533800008],[29.92820310200005,31.14994881900003],[29.92438598000007,31.14550818200007],[29.92663202500006,31.14801514800007],[29.92801947400005,31.14948759500004],[29.92792170900003,31.14956131900004],[29.92647000200003,31.14813732600004],[29.92784444200004,31.14961958500004],[29.92776165600003,31.14968201200003],[29.92630995100006,31.14825801700005],[29.92598758600008,31.14850110400005],[29.92267930300005,31.14444128800005],[29.92042424800007,31.14193891200006],[29.91723561300006,31.13896089000008],[29.92213770500007,31.14340448400003],[29.92177995400004,31.14367424800002],[29.92358024900005,31.14469141200004],[29.92505210000007,31.14664315400006],[29.92482560700006,31.14688034900007],[29.92552572200003,31.14635240300004],[29.92680151100006,31.14749133100003],[29.92536840000002,31.14644934500006],[29.92545118400005,31.14638691900007],[29.92690284900004,31.14781092300007],[29.92721485100003,31.14800930900003],[29.92843034100002,31.14919991600004],[29.92773170100003,31.14973098800004],[29.92651472900008,31.14853726700005],[29.92652343600002,31.14873492400005],[29.92595628600003,31.14883583300008],[29.92554546200006,31.14841916000006],[29.92579217000008,31.14801550800007],[29.92556467600008,31.14842336600003],[29.92597550200003,31.14884003500003],[29.92654264900006,31.14873912200005],[29.92645195000006,31.14858425600005],[29.92521256700007,31.14658554700003],[29.92531033100005,31.14651182400007],[29.92676200300008,31.14793581500004]],[[30.50390777500007,30.33223878400003],[30.50573747900006,30.33103480300008],[30.50480758000003,30.32908356300004],[30.50550221300006,30.33110703500006],[30.50539286800006,30.33173231400009],[30.50540689900004,30.33176144500004],[30.50469489000005,30.32913004400007],[30.50565660600006,30.33105963300005],[30.50482636200007,30.32907581600006],[30.50024743900008,30.32326267600007],[30.50014201100004,30.32179078200005],[30.49972701500008,30.32116569400007],[30.49997793500006,30.32105821600004],[30.50045858100003,30.32159624500002],[30.49967184400003,30.31945592500006],[30.49795020700003,30.32044690100003],[30.49947539400006,30.31945726400005],[30.50132598100004,30.32267198100004],[30.49962587200002,30.32117961800003],[30.50162196700006,30.31997288000002],[30.50187761900003,30.32071265000008],[30.50269040100005,30.32171557600003],[30.50270163500005,30.32146954800004],[30.50229860600007,30.32077832700003],[30.50193171000006,30.32077889600004],[30.49958880500003,30.32221865900004],[30.49895174000005,30.32379665900004],[30.49860117300005,30.32371468500003],[30.49831605500003,30.32325689800007],[30.49833240600003,30.32302452400006],[30.49932943100004,30.32237804500005],[30.49782327400004,30.32042096100002],[30.49866121600007,30.32004944600004],[30.49807121100002,30.32042118000004],[30.49833681700006,30.32081898700005],[30.49845723300007,30.32077373200008],[30.50006247200002,30.32183037100003],[30.49962329000005,30.32126093400007],[30.49902731300006,30.32160485700008],[30.49941873000006,30.32214409600005],[30.50346054800008,30.32732500900005],[30.50215685300003,30.32423374600006],[30.49964074700006,30.32238792300006],[30.49950215900003,30.32245284800007],[30.49999892100004,30.32306957500003],[30.49935618300003,30.32348410300006],[30.49885008900003,30.32380441100003],[30.49856610900002,30.32365803600004],[30.49830773400004,30.32312940700007],[30.49843698600006,30.32293749900003],[30.50193772000006,30.32078625700007],[30.50227740500003,30.32077671000008],[30.50269210100004,30.32147314900004],[30.50268614600003,30.32170261500005],[30.50123444100007,30.32254290300006],[30.50205467000006,30.32081742000003],[30.50230459300008,30.32089836000006],[30.50263163700004,30.32157214100005],[30.50232357800007,30.32185891400007]],[[27.7614758559368,31.1115516291845],[27.7236563066808,31.1201986166017],[27.71670172600005,31.12197447200003],[27.6777056551333,31.1334107904617]],[[29.37279101100006,30.83008922200003],[29.3760316156588,30.8298887656749],[29.3731531326346,30.830119111257],[29.37478145900008,30.82996844000007],[29.37479086600007,30.83005598100004],[29.37280354900003,30.83020594400006],[29.36844045800007,30.83031814800006],[29.36596507200005,30.83013518700005],[29.36231725900006,30.82948455500008],[29.35996068100008,30.82880567700005],[29.3352324198535,30.8201649858206],[29.33079177900004,30.81862094600007],[29.32630707300007,30.81692702000004],[29.32334803900005,30.81561113800007],[29.32047420200007,30.81416147200002],[29.30520859600006,30.80576424300006]],[[31.14422390500005,29.85746380200004],[31.13661218700003,29.88518477900004],[31.12632290500005,29.88405199400006],[31.13136802100007,29.86960722400005],[31.13540561300005,29.86740895600008],[31.13908552900006,29.85690908800007],[31.14422390500005,29.85746380200004]],[[27.4326416162931,31.1890269347005],[27.4201695122326,31.1913448549974],[27.41290358000003,31.19246520100006],[27.385083234708,31.1954637499845],[27.37862060700007,31.19624567100004],[27.3551482775938,31.1994779848063]],[[29.56185516100004,30.90210556900007],[29.55994758600008,30.90050336300004],[29.56344068000004,30.90332694800003],[29.56107174200002,30.90113466000003],[29.56352660900006,30.90324021600003],[29.56541851800006,30.90424604700007],[29.56672833300007,30.90583945300006],[29.56528062600006,30.90438523200004],[29.56374873200008,30.90301601400006],[29.56505850300005,30.90460943600004],[29.56347124600006,30.90329609700007],[29.56970601800003,30.90788862400007],[29.56685372200008,30.90571062600003],[29.56514103500007,30.90452613100007],[29.56347124800004,30.90329609500003],[29.56103918600007,30.90116404800006],[29.55790773000007,30.89905388500006],[29.55997834500005,30.90047265100003],[29.55787906000006,30.89908613500006],[29.5694917596586,30.9075606772867],[29.56704052100002,30.90552562900007],[29.56534719400003,30.90431803900003]],[[29.35825973000004,30.82811098400003],[29.35589097900004,30.82714188800003],[29.35327811900004,30.82632676000003],[29.34910023500004,30.82480936200005],[29.35529133900008,30.82702301400008],[29.35371836400003,30.82654318400006],[29.34902402100005,30.82497243000006],[29.35608441700003,30.82744271700005],[29.35824221700005,30.82814620100004],[29.35476197700007,30.82701092300005],[29.35104231100007,30.82571628200003],[29.35436983400007,30.82653956100006],[29.35435412200007,30.82659729100004],[29.35118457200008,30.82541188600004],[29.34910668400005,30.82479556400006],[29.35118261700006,30.82541606800004],[29.34897653400003,30.82507403300008],[29.35105247200005,30.82569454000003],[29.34694166300005,30.82436569000004],[29.34390864700003,30.82288838300008],[29.34010771600003,30.82170840700007],[29.33601646800003,30.82036508800007],[29.33823996700005,30.82123414000006],[29.33828002700005,30.82113520000007]],[[31.75556775900003,29.89345750700005],[31.72820991500004,29.88070372000004],[31.72583390100004,29.88579597700004],[31.75338576700005,29.89853608400006],[31.75556775900003,29.89345750700005]],[[27.79173075800003,31.09669876300006],[27.78869849800003,31.09846774400006],[27.78677613600007,31.09922732500007],[27.78932837100007,31.09788001200008],[27.78604249900008,31.09987263600004],[27.79084519300005,31.09701525300005],[27.78860904100003,31.09818715200004],[27.78591268000002,31.09968416800007],[27.78881707000005,31.09848121300007],[27.79097943600004,31.09721090000005],[27.79175669800003,31.09671806700004],[27.78974146800005,31.09768450600006],[27.78696501400003,31.09946391800003],[27.78680211300008,31.09924665500006],[27.78935432900005,31.09789932900003],[27.78606848400005,31.09989196900005],[27.78418564200007,31.10088579000006],[27.78199556200008,31.10211924800006],[27.78410589800006,31.10077942700008],[27.78233811200005,31.10191140500007],[27.78405964000007,31.10071772900005],[27.78215251800003,31.10166385400004],[27.78423190000007,31.10094748800003],[27.78239373400004,31.10198559500003],[27.78430086100008,31.10103946700008],[27.78367278500008,31.10020173900006],[27.78584753300004,31.09961259800007],[27.78424126500005,31.10095997900004]],[[28.49691995100005,30.99401492700002],[28.49253100300007,30.99422218100005],[28.49690182700004,30.99381544200003],[28.49251843900004,30.99408380000006],[28.49690101600004,30.99380645600007],[28.49251288800008,30.99402269600006],[28.49689382600008,30.99372738100004],[28.49251370600007,30.99403168200007],[28.49463742200004,30.99388854300003],[28.49253182100006,30.99423116700007],[28.49691440500004,30.99395382300003],[28.49253181900008,30.99423116700007],[28.49691914000005,30.99400594100007],[28.49253655400003,30.99428328500005],[28.49451512400003,30.99451789100004],[28.49452850900008,30.99466525900004],[28.49501876200003,30.99463221100007],[28.49500537500006,30.99448484400006],[28.49533290500005,30.99446276500004],[28.49531070300003,30.99421835100003],[28.49416539500004,30.99429555500006],[28.49418759400004,30.99453996900007],[28.49524609000002,30.99373811800007],[28.49414912200007,30.99388529400005]],[[29.32047282500002,30.81416338800005],[29.32531059700005,30.81650550800003],[29.33079275600005,30.81861885500007],[29.35105247200005,30.82569454000003],[29.34698270300004,30.82427788500006],[29.35160110400005,30.82580626000004],[29.34591598100008,30.82389049700004],[29.35134163700008,30.82599013300006],[29.34691997100003,30.82441210100006]],[[28.63848634700003,30.98042135000003],[28.66795410700007,30.97645220300006],[28.63846411000003,30.98040754300007]],[[29.34077231600003,30.82215537900004],[29.34377667000007,30.82319483000003],[29.34698270300004,30.82427788500006],[29.34897653400003,30.82507403300008],[29.34711285800006,30.82399941700004],[29.34910668400005,30.82479556400006],[29.34711872100007,30.82398687400007],[29.34387933100004,30.82295110100006],[29.34232901600006,30.82241135400005],[29.34273797700007,30.82268577100007],[29.34902402100005,30.82497243000006],[29.34438065200004,30.82329280000005],[29.34286217100004,30.82269651900003],[29.34910023500004,30.82480936200005],[29.34487167500004,30.82340054400004],[29.34077622500007,30.82214701700008],[29.33596173700005,30.82048215600003]],[[30.49275421700003,30.31524381700007],[30.49883245600006,30.31335057900003],[30.50758978000005,30.33079922200005],[30.50381170700007,30.33205289400007],[30.49275421700003,30.31524381700007]],[[30.96008649100003,29.99535380900005],[30.96421609200007,29.99192870600007],[30.96633455000006,29.99054177900007],[30.96250665700006,29.99303742800004],[30.95978476100004,29.99505620400004],[30.95652109000002,29.99756317300006],[30.96012763600004,29.99539439200004],[30.95664783500007,29.99768839600006],[30.96000065900006,29.99526935000006],[30.95671641000007,29.99775603500007],[30.96006249000004,29.99533013600006],[30.95658611800008,29.99762752000004],[30.95912478300005,29.99617076700002]],[[28.37903885700007,31.02472572400006],[28.42125720600006,31.00609150900004]],[[28.03834228500006,31.04233003900003],[28.03571732500006,31.04259228900003],[28.03831558100006,31.04209301100008],[28.03572538400005,31.04263223900006],[28.04471284400006,31.04137701300004],[28.04156516500007,31.04177511600005],[28.04380701000002,31.04130962000005],[28.03554488200007,31.04279186000008],[28.03552321300003,31.04268443900003],[28.03310021700003,31.04304677000005],[28.03327405400006,31.04380381000004],[28.03324932200007,31.04378601700006],[28.03549814100006,31.04256015100003],[28.03547647200003,31.04245273000004],[28.04465291200006,31.04108005500007]],[[29.06713992600004,30.78614442000003],[29.06571133100005,30.78694180200007],[29.06861504500006,30.78541291600004],[29.06861504500006,30.78541291600004],[29.07168845300004,30.78415542700003],[29.07168845300004,30.78415542700003],[29.07489765000003,30.78318320500006],[29.07489765000003,30.78318320500006],[29.07820723500004,30.78250697600004],[29.07820723500004,30.78250697600004],[29.08158070400003,30.78213419900004],[29.08158070400003,30.78213419900004],[29.08498085000008,30.78206898800005],[29.08498085000008,30.78206898800005],[29.08667963900007,30.78214758500008],[29.08422489400004,30.78205455500006],[29.08176906700004,30.78212023700007],[29.07932607700008,30.78234649700005],[29.07690998300006,30.78273203300006],[29.07453469300003,30.78327462600004],[29.07221387900006,30.78397115100006],[29.06996089900002,30.78481760000005],[29.06778872300004,30.78580909900006],[29.06570985700006,30.78693994200006]],[[29.7010928617448,30.9502273154343],[29.6860008759623,30.9469863306111],[29.6798132212285,30.9458948452624],[29.6751959525083,30.9454705910095],[29.67055388108241,30.9453744012393],[29.6682333273479,30.9454496194985],[29.6636127487951,30.9458460472584],[29.6563189673299,30.9468216480676]],[[31.32768815300005,29.81140222900007],[31.32582477900007,29.81225834700007],[31.32960281200008,29.81038332100007],[31.32575895700006,29.81214940500007],[31.32960594800005,29.81038850700003],[31.32576209600006,29.81215459100002],[31.32762546800006,29.81129847400007],[31.32579343800006,29.81220647000004],[31.32964693500003,29.81045634700007],[31.32582477600005,29.81225834800006],[31.32969997600003,29.81054413900006],[31.32585611900004,29.81231022600008],[31.32771949400006,29.81145410700003]],[[31.45504335700008,29.89918601000005],[31.45696592400003,29.89993943500008],[31.45300636300004,29.89837310400003],[31.45695443000005,29.89996114100006],[31.45303738800004,29.89831454200004],[31.45699413200003,29.89988619700006],[31.45507156400004,29.89913277300008],[31.45702233800006,29.89983296000003],[31.45307427600005,29.89824492500003],[31.45701366000003,29.89984934100005],[31.45309380400005,29.89820806900008],[31.45705054400003,29.89977972200006],[31.45512797800006,29.89902629800002]],[[27.48628223704459,31.1850210902041],[27.4427843865696,31.1877707267742]],[[27.55913416800007,31.17084109500007],[27.55646902000007,31.17138567100005],[27.55916807700004,31.17096378200006],[27.55643581500004,31.17148272300005],[27.55914688400003,31.17088710200005],[27.52956422100004,31.17694910700004]],[[27.6681891582558,31.1370981920102],[27.6325082302969,31.1545824090496]],[[29.73228046800006,30.94797972700007],[29.72969649700008,30.95217611500004],[29.73176349100004,30.94862828500004],[29.72984301000002,30.95224114600006],[29.73171930600006,30.94860867400007],[29.7290157029263,30.9535184175073],[29.7279906986813,30.9560035681558],[29.7276880207842,30.9572977761389],[29.7275159926237,30.9599310881387],[29.7279247650434,30.9625449386463],[29.7288996405271,30.9650450486689]],[[30.50104336800007,30.31931871200004],[30.49755204400003,30.32159684700002],[30.50098013900003,30.31924150100008],[30.49739572800007,30.32140550200006],[30.49424216200003,30.32378541100007],[30.49767218200003,30.32174410100004],[30.50123568800007,30.31955425400002],[30.49735966900005,30.32136133700005],[30.50117859300008,30.31948432700005],[30.50435289000006,30.31713000800005]],[[29.71742272000006,30.95702568100006],[29.71089238000008,30.95361020200005],[29.71075802100006,30.95379836800004],[29.71726369300006,30.95724841700007],[29.71740254000002,30.95708584800008],[29.71089686700003,30.95363586400003],[29.71730794700005,30.95721833800008],[29.71082694700004,30.95373378800008]],[[27.30228567100005,31.25035897800007],[27.30356925000007,31.24882262200003],[27.30365866300008,31.24887775900004],[27.30237508500005,31.25041411600006],[27.30517866800005,31.24694403900003],[27.31061258900007,31.24017709300006],[27.30597836600003,31.24524234000006],[27.30589852800006,31.24519310800002],[27.31067902100006,31.24017092400004],[27.31113290300004,31.23938423700002]],[[31.12132508000008,29.87143815800005],[31.11769437000004,29.86817556500006],[31.11334799900004,29.87238757400007],[31.11562454600005,29.87442605900003],[31.11229464300004,29.87726547400007],[31.11409674200007,29.87887912000008],[31.12207656100003,29.87211398800002],[31.12132508000008,29.87143815800005]],[[29.86186694500003,31.07452721000003],[29.86041182900004,31.07307761500005],[29.86175595400005,31.07460975400005],[29.85965579300006,31.07238994700003],[29.85903924900003,31.07167225500007],[29.85888465500005,31.07178722400005],[29.85554192200004,31.06818782000005],[29.85710655200007,31.06955291400004],[29.85556991800007,31.06819295300005],[29.85732271600006,31.06996209200003],[29.85550530600005,31.06824100200004],[29.85717711100006,31.07008601400003],[29.86047128800003,31.07303339600004],[29.86179361200004,31.07458174800007]],[[30.0789194378366,30.6508539657717],[30.0577760658545,30.670979861427]],[[29.73189106800004,30.97066958800008],[29.72985306400005,30.96710939600007],[29.73252647300006,30.97126990100003],[29.72993988000007,30.96707249500002],[29.73243965400007,30.97130680400005],[29.73004312100005,30.96702861200004],[29.73191737400003,30.97064438800004]],[[27.78940404223987,31.11050943815527],[27.7877147654452,31.10878779803357],[27.78693441582928,31.10769975000099],[27.7864007183582,31.10643494028967],[27.78639799756297,31.10582278684129],[27.7869832619999,31.10751459673012],[27.78806433238915,31.10897417151982],[27.79299596461303,31.11368165864184],[27.79472025705757,31.11572845038735],[27.79302523723137,31.11366122464531],[27.78825810168318,31.10883229564592]],[[31.27393529000005,29.82905740200005],[31.27373348400005,29.82933060500005],[31.27303421300007,29.82751431300005],[31.27198264300006,29.82585172900008],[31.27096180400002,29.82473098300005],[31.26979244700004,29.82378442700008],[31.26842859900006,29.82299283100008],[31.26711691200006,29.82247494700005],[31.26525022300007,29.82207805300004],[31.26347315600003,29.82203452300007],[31.26346780300003,29.82180904100005],[31.26510626100003,29.82183752900005],[31.26682306700008,29.82215391200003],[31.26836124100004,29.82271007400004],[31.26988733200005,29.82356748600006],[31.27126014700008,29.82468537400007],[31.27242819000003,29.82603258700004],[31.27332287200005,29.82751474700007],[31.27393529000005,29.82905740200005]],[[27.78610635200005,31.09995780100007],[27.79798386000004,31.09323298700008],[27.78588953400003,31.09966861800007]],[[28.15869363000007,31.03483907000003],[28.16160167500004,31.03438134000004],[28.16748809900002,31.03393052500007],[28.17339434000007,31.03410392100005],[28.17923150200005,31.03489892600004],[28.18491172200005,31.03630358000004]],[[28.49512441000007,30.99670535600006],[28.49496814300005,30.99507756900005],[28.49466575300005,30.99509911100006],[28.49434867800005,30.99510420000007],[28.49519047000007,30.99506403900006],[28.49583071300003,30.99458939800007],[28.49438584400008,30.99502828700003],[28.49518273200005,30.99498307400006],[28.49582370200005,30.99450850300008],[28.49327158800003,30.99634747700003],[28.49240151900005,30.99364065400005],[28.49689106500006,30.99335248600005],[28.49714710100005,30.99630604500004],[28.49266166300004,30.99659455900007]],[[29.71522311400003,30.95595397800003],[29.71320046200003,30.95499253900005],[29.71694459200006,30.95686683900004],[29.71077622100006,30.95380483000002],[29.71400808400006,30.95525935400008],[29.71744092500006,30.95703208400005],[29.71408884300007,30.95530482800007],[29.71318226000005,30.95498609800006]],[[27.99379754200003,31.04561817700005],[28.00068892900003,31.04518885800007],[28.00754966700003,31.04488756900002],[28.01909870300005,31.04451825600006]],[[27.78219451800004,31.10171987400003],[27.77436407000005,31.10606621000005],[27.77443274100006,31.10615781500007],[27.77244451800004,31.10741132900006],[27.77451219400007,31.10626380500003],[27.77458086500008,31.10635541100004],[27.78160838600007,31.10233404300004],[27.77966542800004,31.10339700200007]],[[27.54315626000005,31.17411699400003],[27.54104588400003,31.17466271500007],[27.54315226600005,31.17410253400003],[27.54099215100007,31.17446816400007],[27.54310712200004,31.17393909400005],[27.54064218200006,31.17476041900005],[27.54320600400007,31.17429708400005],[27.54534638100006,31.17385999300006],[27.54319027000003,31.17424012100003],[27.54524749100005,31.17350200400006],[27.54313253800007,31.17403111100003],[27.54529263900002,31.17366544300006]],[[30.38594005500005,30.38383027300006],[30.38225520300006,30.38586652100003],[30.38601275300005,30.38392915500003],[30.38231112400007,30.38594258600006],[30.38497580400009,30.38470007900003],[30.38237848800003,30.38603371900007],[30.38588972500003,30.38376181700005]],[[30.76892531500005,30.13207886600003],[30.77111190600004,30.13077067400008],[30.76716140400003,30.13312406500006],[30.76434052000008,30.13504146100007],[30.76095398200005,30.13742679200004],[30.76466722700007,30.13539188000004],[30.76740970300006,30.13339037800005]],[[30.39079051400006,30.38119775600006],[30.39313940000005,30.38011344600005],[30.38889700400006,30.38206241500006],[30.38583672800007,30.38368948600004],[30.38215188400005,30.38572572900006],[30.38611633700003,30.38406980000008],[30.38910951300005,30.38235144900005]],[[31.09920047500003,29.88689268200005],[31.11526038700003,29.87332506100006]],[[28.10262110100007,31.03533099600003],[28.12377099900004,31.03824156200005]],[[30.76446128400005,30.13517119900007],[30.76107473900004,30.13755653600003],[30.76454622700004,30.13526230800005],[30.76232891700005,30.13703890900007],[30.76460515200006,30.13532530000003],[30.76101593300007,30.13749345900004]],[[29.5561554238048,30.8977642738235],[29.5542490897812,30.8966633283198],[29.5521843172692,30.8958006996276],[29.5500009107244,30.8951930153461],[29.5450275041698,30.8947801675225],[29.5376474401621,30.8948638513934]],[[27.33744939700006,31.20794218300006],[27.34020437900006,31.20538574800003],[27.34338361800008,31.20322355200005],[27.34691158300006,31.20150695400002],[27.34878042100007,31.20082893600005],[27.35267230800002,31.19985359900005]],[[29.28606969300006,30.79986813800008],[29.29484927200008,30.80185438200004],[29.28607101800003,30.79986377700004]],[[28.12625435900003,31.03856482500004],[28.13204042100006,31.03894193000008],[28.13590920700005,31.03887259400005],[28.13976030400005,31.03854692200002],[28.14357082900005,31.03796684900004]],[[29.6538324016556,30.94712170171089],[29.6500118734844,30.9472348666616],[29.6462127844915,30.9468686627904],[29.6425156893288,30.9460308566164],[29.6407300160547,30.9454402727739],[29.6373317526107,30.9439314011438]],[[28.20795286700007,31.04186140000007],[28.22497213400004,31.04314423000005]],[[29.7776860825907,30.878448229844],[29.7747013038213,30.8802719513358],[29.7733063859815,30.8812932302597],[29.7707352032892,30.8835372725735],[29.7684842750278,30.8860241709282],[29.7665842191873,30.8887201248037]],[[28.36183846300003,31.02966882100003],[28.36527109800005,31.02912367500005],[28.37032180200003,31.02793955500005],[28.37360156100004,31.02691100300007],[28.37679432500005,31.02569636100003]],[[29.29864354000006,30.80284210600007],[29.29701407000005,30.80236967400003],[29.30023806100007,30.80339633800003],[29.30023806100007,30.80339633800003],[29.30330037300007,30.80474227600007],[29.29988804200008,30.80326412200003],[29.29701482900003,30.80236751700005]],[[28.90429394300003,30.84203235700005],[28.90706646400002,30.84033738200003],[28.90996554500003,30.83880821900004],[28.91297788800006,30.83745188000006],[28.91767842400003,30.83575479800004]],[[28.71528996600006,30.97004388900007],[28.72021095100007,30.96906012200003],[28.72342039700004,30.96817874700002],[28.72655728900003,30.96712111000005],[28.72960860200004,30.96589160100007]],[[28.92005147400005,30.83505611700008],[28.93424052000006,30.83099099600003]],[[30.95240470600004,30.00100156000008],[30.95056012700007,30.00265883000003],[30.95414182000007,29.99992002600004],[30.95682281800003,29.99786078600005],[30.95388123800006,29.99966299200003]],[[30.75666926200006,30.14071150700005],[30.75474361700003,30.14229980900006],[30.75845955500006,30.13969448700004],[30.76124147900003,30.13773516800006],[30.75821126400007,30.13942815700005]],[[30.37745487400008,30.38856702900006],[30.37532928400003,30.38995531900002],[30.37937097600008,30.38773296600004],[30.38239793200006,30.38606041200006],[30.37915848500006,30.38744391700004]],[[28.08606190900002,31.03509120100006],[28.08917862700002,31.03477789300007],[28.09231197700007,31.03463269600007],[28.09701646500002,31.03473116700007],[28.10013794200006,31.03500728700004]],[[28.86650881900005,30.86670683700004],[28.86984761800005,30.86458217100005],[28.86681707100007,30.86613987900006],[28.86917543700002,30.86460102900003],[28.86772485300003,30.86581279800004]],[[27.97863676000003,31.04861816200003],[27.98125195300003,31.04772712100004],[27.98529013900003,31.04667877800006],[27.98804148900007,31.04617662600003],[27.99082577600007,31.04583461300007]],[[29.25404958900003,30.79437263800003],[29.25965160500004,30.79622646600006],[29.25405145800005,30.79436842900003]],[[29.5353994127891,30.8948625390782],[29.5327407291871,30.8946848969454],[29.5301150358756,30.894283443187],[29.5275476104891,30.8936620432552],[29.523859577056,30.8923311967814]],[[29.28389243800007,30.79939341600004],[29.28097835800003,30.79889928000006],[29.27803100100004,30.79858502500008],[29.28130449100007,30.79894311500004],[29.28389303200004,30.79939122100006]],[[29.26989794400004,30.79814222800007],[29.27579081400006,30.79845050600005],[29.26989826000005,30.79813772700004]],[[27.80359355800005,31.09010864400005],[27.80708008600004,31.08856341100005],[27.80951227200006,31.08773602300005],[27.81201296600005,31.08707706500007],[27.81456645000003,31.08659068000003]],[[29.73006945200007,30.96700338600004],[29.73250819200007,30.97126365800005],[29.73231578000008,30.97134544100004],[29.73187279100006,30.97066333800007],[29.72983481100005,30.96710311800007],[29.73006945200007,30.96700338600004]],[[27.29756106800005,31.25070446800004],[27.30688597400007,31.25645463500007]],[[29.25194579700008,30.79369496500004],[29.24931773900005,30.79297760400004],[29.24664064200005,30.79241135900003],[29.25194666500005,30.79369284000006]],[[28.19475880800007,31.03953080000008],[28.20057455000006,31.04096037700003],[28.20534859100007,31.04164441900008]],[[29.23157094400005,30.79015419000007],[29.22887630500003,30.78998617400003],[29.23157147000006,30.79014970500003],[29.23424996600005,30.79045555100004],[29.23157147000006,30.79014970500003]],[[28.73957542000005,30.96126991100004],[28.74357185400004,30.95909664300007],[28.74822046100007,30.95595753500004]],[[28.14601616300007,31.03747338100004],[28.15614610600005,31.03535176500003]],[[29.3883490931093,30.8309652823595],[29.3862263007016,30.8304115455004],[29.3840569097302,30.8300145068633],[29.3818564201474,30.8297770027762],[29.3785317999247,30.82972327015131]],[[29.3706529337867,30.8302845022258],[29.3684387739503,30.830289067165],[29.3662320653326,30.8301324146344],[29.36404854625,30.8298156622733],[29.3608507401011,30.8290455974838]],[[28.22747612500007,31.04331540900006],[28.23219273400002,31.04338897100007],[28.23595960100005,31.04318410100007]],[[28.42392664000005,31.00494682800007],[28.42738107200006,31.00371155700003],[28.43185633600007,31.00254877900005]],[[29.23630750100006,30.79076615600007],[29.24443536300004,30.79204643200006]],[[29.56677532800006,30.90578927100006],[29.56980350600003,30.90801972600008],[29.5730756492545,30.9098793683284]],[[27.96920427300006,31.05246715500004],[27.97593099200003,31.04969827300005]],[[29.02746365700006,30.80247281400005],[29.03425554600005,30.80035239400007]],[[29.4284956741212,30.8528471479596],[29.4257164594979,30.851608600805],[29.4225150065797,30.8496738263197]],[[27.76389505900005,31.11096721100006],[27.76751766800004,31.10977529000007],[27.77026999900005,31.10854146900004]],[[30.28950626500006,30.44818863700004],[30.29140396100007,30.44610454400004],[30.29415014500006,30.44379325300002]],[[30.0918893609797,30.6412682281547],[30.0867394936385,30.6446559463957]],[[30.0519088393464,30.6779575496681],[30.0487265946432,30.682766024914]],[[28.73182888300005,30.96488180100005],[28.73737433100007,30.96231033400005]],[[29.05883947700005,30.79128361000005],[29.06388841600005,30.78807319700007]],[[27.96147049900003,31.05523870100006],[27.96731086900007,31.05323533400008]],[[29.408720443943,30.8399785239385],[29.4035048299238,30.8370952259039]],[[30.0983419510499,30.6363054026475],[30.0959317917303,30.6383954659939],[30.0938663202309,30.6399404156575]],[[29.17648215000003,30.78916835600006],[29.18262726200004,30.78912071300005]],[[29.26176018100006,30.79689313600005],[29.26500265600004,30.79764613100008],[29.26765875100006,30.79799599400008]],[[29.8904538287057,30.8221831988636],[29.8878552148035,30.8239647844634],[29.8856481527743,30.825239009027]],[[28.93622286300007,30.83042109700006],[28.94185777700005,30.82874642000007]],[[27.48868382900002,31.18485291600007],[27.49453348100008,31.18407652300004]],[[27.43479485700004,31.18863893600007],[27.44059132100006,31.18792102800006]],[[30.0847614303255,30.6459826459266],[30.0824009310947,30.6477503631473],[30.0806197727577,30.6492652372209]],[[29.7086424370419,30.952639522103],[29.7064224311053,30.9516992923039],[29.7035193826816,30.9507837630523]],[[27.62518896400007,31.15736042900005],[27.62808069800008,31.15650166600005],[27.63030578000007,31.15562423500006]],[[30.047456039273,30.6846312292094],[30.045751634258,30.6867743488165],[30.04423160153,30.6883878885639]],[[29.05223260800005,30.79462798700007],[29.05441988700005,30.79374431100007],[29.05701191300005,30.79240960500005]],[[28.99620000400006,30.81207214700004],[29.00132179700006,30.81051173300006]],[[27.67038505100004,31.13604649800004],[27.67533493500002,31.13412854300003]],[[29.22887641800003,30.78998392200003],[29.23425037800007,30.79045332500004]],[[29.4150843267314,30.84396795050541],[29.4108204335428,30.8411616826804]],[[28.18736105600004,31.03709540700004],[28.19230934000007,31.03873910700003]],[[29.4013797742103,30.8359460446553],[29.39669198695031,30.8338570525359]],[[28.86641728700005,30.86967589700004],[28.86574352300005,30.86887467700006],[28.86560766600007,30.86887982000007],[28.86626576900005,30.86977208100006],[28.86574783200007,30.86885163400007],[28.86559565700002,30.86886729800005],[28.86557535500003,30.86898023200007],[28.86624977700006,30.86978223500006]],[[30.0561149742158,30.6725995240641],[30.0544109822157,30.6744943799152],[30.0531784066426,30.6760918735931]],[[29.4206253026744,30.8482510338903],[29.4169620086415,30.8454026882945]],[[31.12013706800008,29.86980618100006],[31.11872977200005,29.87100006000003],[31.11833624000008,29.87064780100008],[31.11974734700004,29.86945698800002]],[[31.32971275100005,29.81056529000006],[31.32586889300006,29.81233137800007]],[[31.45310530700004,29.89818636600006],[31.45705336900005,29.89977440100006]],[[29.3943759265189,30.8330271619495],[29.3906890670911,30.8317431219923]],[[28.05800366900007,31.03923581300006],[28.05536216600007,31.03952064600003]],[[29.91785327200006,31.13962848600005],[29.91634345300002,31.13799658000005]],[[27.30515461800007,31.24692920900003],[27.30636476100005,31.24548060800004]],[[31.12479060100003,29.86543314500005],[31.12611146000006,29.86431241500003],[31.12621253500004,29.86440291100007]],[[28.64443071800002,30.97949957200007],[28.64618795800004,30.97926300700004]]]}}]}