{"type":"FeatureCollection","features":[{"type":"Feature","properties":{"اسم_الخط":"خط الروبيكي - بلبيس"},"geometry":{"type":"LineString","coordinates":[[31.81731300508993,30.16819057616253],[31.81579070140159,30.16838548024868],[31.78336241753465,30.17044272049167],[31.7777305756255,30.17125441666983],[31.77432379792891,30.17144110396713],[31.77161923251997,30.1713777077574],[31.76894713133421,30.17100922793067],[31.76135256735707,30.16885338450594],[31.75923142187225,30.16847101544656],[31.75761167811749,30.16835428684386],[31.75490933623151,30.16848700909473],[31.75279201298034,30.1688850629592],[31.75075873193193,30.16953455838064],[31.74884883290924,30.17042292981742],[31.74669097899548,30.17184271534412],[31.74484861303325,30.17356569153045],[31.73741705582831,30.18364152653571],[31.73608914515837,30.18515497720681],[31.73490773607569,30.18620119896312],[31.72777570745912,30.19175052481232],[31.71998044158508,30.20036123101059],[31.7132571673106,30.2061085306434],[31.71199361468076,30.20733821816852],[31.70009863433454,30.22056957393343],[31.69687840872817,30.22505814268539],[31.66585100658345,30.25927962379571],[31.6646402234166,30.26091631075407],[31.66279418865423,30.26398645443615],[31.66165123140395,30.26544323910193],[31.65083389489197,30.2774318014627],[31.63870430920843,30.29042888457561],[31.63660518810157,30.29233128418569],[31.63371536163713,30.29422505918819],[31.63115776066888,30.29540831032654],[31.62773510794548,30.29643494159446],[31.62488135377725,30.29687483526127],[31.62178241618772,30.29695931324152],[31.59637668549691,30.2958610688879],[31.59380432717132,30.2959962038701],[31.59178685946307,30.29636819243593],[31.58937340121262,30.29715236221101],[31.58741549274986,30.29810531645369],[31.57283011785338,30.30618920470632],[31.57071505111403,30.30759287338901],[31.56928217243971,30.30880078407013],[31.56722930747613,30.31107262835614],[31.56564496253977,30.31361117720619],[31.55443715260676,30.33694989806243],[31.55342866189118,30.33984830203773],[31.55308982963353,30.34209948907839],[31.55307536047322,30.34380276779798],[31.55337593106223,30.34605803891608],[31.55383805351194,30.34771353498187],[31.55476016355327,30.34983829678033],[31.55567135024165,30.35134720540874],[31.55986938846949,30.35653076134282],[31.56085356088202,30.35812357289344],[31.56136714014621,30.35941636275392],[31.56167090331587,30.36075810662237],[31.56175907332556,30.36212332487574],[31.56168254987866,30.36314705018506],[31.56116715026879,30.36514671682433],[31.56038266119118,30.36671387569429],[31.55517094986347,30.37366251433058],[31.55416728898383,30.37526363007408],[31.5525357877456,30.37888144955376],[31.5512591755295,30.38264138350806],[31.5504118842807,30.38426418519709],[31.54932601028018,30.38577641212541],[31.54632644745162,30.38924767565039],[31.54484694098632,30.39155647383994],[31.54418687356668,30.39303559281097],[31.54370654865698,30.39456590109818],[31.54268300992438,30.40120060042032],[31.54203693654255,30.40350969012608],[31.5413188585735,30.40503794054893],[31.53600465389551,30.41450672234713],[31.53579635086446,30.41558680898657],[31.53586176818881,30.41652434391267],[31.53614982511468,30.41742980425601],[31.53664803384451,30.41826391817511],[31.53788296848086,30.41939936629108],[31.54096284258837,30.42102293355271]]}}]}