{"type":"FeatureCollection","features":[{"type":"Feature","properties":{"اسم_الخط":"مونوريل العاصمة"},"geometry":{"type":"MultiLineString","coordinates":[[[31.6460046421605,30.0162928413278],[31.6724507194989,30.01924549222881],[31.6647143928555,30.0184027092353],[31.6616339531316,30.01805633746561],[31.6460046421695,30.0162928413368],[31.6413997449621,30.0160002815703],[31.638321210944,30.0160415797455],[31.6352536960584,30.0162718460178],[31.6303680061423,30.0170460485595],[31.6322219849158,30.0167324358943],[31.6267072476278,30.0177717773655],[31.6238529944755,30.0185912244488],[31.6192095871567,30.0202755856721],[31.6171434265172,30.0211753242014],[31.6131561390494,30.0232057343621],[31.6093873803397,30.0255309315756],[31.6058658602441,30.0281332132115],[31.603529813208,30.0291994969728],[31.6026273953987,30.0289488274728]],[[31.5306776067171,30.02701109325],[31.5585313676179,30.0268958068156],[31.5620826252411,30.0268882509758],[31.5810523421567,30.0267982816057],[31.5306949661307,30.0269677236094]],[[31.7468734868085,30.0018320652935],[31.747422231325,29.9996017312338],[31.7478560236589,29.9985245274744],[31.749698455811,29.9956624858575],[31.7512897847627,29.9941001013753],[31.7682134391546,30.004661648114],[31.77101722983,30.0066018749306],[31.7796761005402,30.0125535200105],[31.7527360090484,29.9939468291473]],[[31.6915051379035,30.01640329270611],[31.6964332590635,30.0149084561197],[31.6989558446992,30.0143247041771],[31.7046924648696,30.0133850734474],[31.7067166452983,30.0126502251396],[31.7131224126905,30.008968091611],[31.7145423698063,30.0082886158479],[31.7159043722668,30.0080622728801],[31.7456079127159,30.0079332202011],[31.7469214333698,30.0048509502491]],[[31.355022686048,30.03507526227949],[31.3539405303387,30.0259066792694],[31.3540192866501,30.0248142205466],[31.3544377216848,30.0242703398938],[31.3550563101544,30.0238980073926],[31.3561659720654,30.0237663747819],[31.3590522547267,30.0244999066372],[31.3606119658843,30.0246860572024],[31.3619197290329,30.024565239235],[31.3940077102213,30.0164941775548]],[[31.688427089659,30.0175245639313],[31.6901062020347,30.0169545566668],[31.6900881206212,30.0169142188865],[31.6849939990875,30.018503499698],[31.6832360822228,30.0188676967926],[31.6796643495882,30.019339987372],[31.6760545302044,30.0194664342422],[31.6724507195069,30.0192454922368],[31.6760552790776,30.0194231408077],[31.6796596045958,30.0192968864033],[31.6832259013851,30.0188253146323],[31.6849811429019,30.0184616718227],[31.688409008812,30.0174842259147]],[[31.321930827796,30.048318201206],[31.3263060218138,30.0438234142116],[31.3534223293205,30.0462658431963]],[[31.512358381341,30.0183622919958],[31.5148179450116,30.0168080249082],[31.5190224963126,30.0137102814971],[31.5214556674751,30.0117286240824],[31.5247198540273,30.0138191297064],[31.5260607969206,30.0157934150357],[31.5267944287947,30.0171843787843],[31.5279292267217,30.0200798210377],[31.5285584343882,30.0224837812084],[31.5288560250537,30.0242440445288],[31.5289978429268,30.0257123042397]],[[31.4549801051919,30.0241960160331],[31.4566023180122,30.0250969783083],[31.4588836600159,30.0254543773488],[31.4841248439214,30.0253639308528]],[[31.4318144724931,30.0162807153286],[31.4344709812757,30.0162836929904],[31.4447053296935,30.0162870966994],[31.4317494046267,30.0162297753503]],[[31.3158677599983,30.0740141104035],[31.3184194964353,30.0705678117512],[31.3200823964051,30.0666939239278],[31.3232647999246,30.0610734233248],[31.3205907589037,30.0654846496533]],[[31.5820883768774,30.02673537112659],[31.584202411466,30.0264412639989],[31.5875821167086,30.0251159733278],[31.5939160423735,30.0215780018625],[31.5957050417729,30.0210911763183],[31.5965016646651,30.0213529572275],[31.5969373011776,30.0216726726983]],[[31.5036898186558,30.0230164427451],[31.5002298233643,30.0245377272304],[31.50461861111,30.0225892829205],[31.5067948322545,30.0216384501681],[31.509875563364,30.0199675738728],[31.5100109927668,30.0197453078639]],[[31.396525853206,30.0161928031863],[31.4067350064817,30.0162806079094],[31.4115966366517,30.0162532698173]],[[31.3239554835772,30.05916226668869],[31.3248955025402,30.0530325358622],[31.3214633583112,30.0511942177105]],[[31.4186706408361,30.0162576268361],[31.42891959435419,30.016269842758]],[[31.3560614992202,30.0438514870635],[31.3557758396352,30.0413029393321],[31.3554663099451,30.0386056791246],[31.3557113465168,30.0411762400473]],[[31.4879560093374,30.0253497794366],[31.4965157489537,30.0253177587637]],[[31.7801066229135,30.0128181214602],[31.7806597034605,30.0136859464427],[31.7804786076814,30.014909371121],[31.77986531447131,30.0164924574577],[31.7799192865299,30.0164886686137]],[[31.517959385647,30.0144785322891],[31.5147873210074,30.0167738990755]],[[31.4503589749206,30.0202810212497],[31.4519416201727,30.0216680454128]],[[31.5984917267887,30.0240545693143],[31.599233699772,30.025453265039],[31.5992788738064,30.0254351114055]]]}}]}