{"type":"FeatureCollection","features":[{"type":"Feature","properties":{"اسم_الخط":"مترو الخط الثالث"},"geometry":{"type":"MultiLineString","coordinates":[[[31.42716086140814,30.14641571746546],[31.42676648317513,30.14688315985478],[31.42608033362927,30.14710677682865],[31.41820591126993,30.14678575143593],[31.4171690114269,30.14663843295027],[31.41444721847963,30.14593974334094],[31.41187541000455,30.14580158153946],[31.41056374729093,30.14555581098114],[31.40171340021722,30.14294798629868],[31.39901796884082,30.14165762901183],[31.39175478411314,30.13963543131828],[31.39016492160106,30.13879911593987],[31.38669706941105,30.13598265461789],[31.38551804330726,30.13529182335931],[31.36811690083066,30.12922861827699],[31.36595378895277,30.12876947120748],[31.36251566926768,30.12847176066094],[31.35361025600483,30.12680701475813],[31.35151360760364,30.12653032125348],[31.35045707566968,30.12628556862876],[31.34960987217636,30.12592515845984],[31.34609710500001,30.12389279200016],[31.34290841275026,30.12161248502406],[31.34050668946298,30.11957375147745],[31.34008650594211,30.11865983407347],[31.33970719319893,30.11726081259951],[31.33801195600012,30.10656227500004],[31.33769881200016,30.10567009800019],[31.33716644000015,30.10501275400014],[31.33255788316907,30.10092443464969],[31.32639134100009,30.09472233000014],[31.32587623400019,30.09398659200019],[31.32567140165983,30.09311266350618],[31.32587595926427,30.09222992631459],[31.32917511920255,30.08803783432313],[31.32962184913433,30.08714021222004],[31.32977519850771,30.08622754793685],[31.32969559575448,30.0853621693744],[31.32943355692303,30.08473417674193],[31.32704766100867,30.0807024909778],[31.32669273788574,30.07918718488768],[31.32637932272396,30.07839391515401],[31.32534434031139,30.07720938455079],[31.31557805350504,30.07195134544487],[31.31443990557332,30.0716111804676],[31.31339346419123,30.07149957184598],[31.31152874912062,30.07176536816496],[31.3065111063938,30.07353983254999],[31.30457860575009,30.07404785670979],[31.30309224662879,30.07393207641728],[31.29938140167853,30.07275664772996],[31.29851893977206,30.07269938254411],[31.29763829020021,30.0728143675324],[31.29615710412094,30.07347642445648],[31.29322054195393,30.07599668166825],[31.29214846273581,30.076697681139],[31.29145640609472,30.07696749313313],[31.29034859350194,30.07718097404104],[31.28951969100771,30.07719118210863],[31.2883610409907,30.0769758077328],[31.28720242458441,30.07646319742798],[31.28637924385944,30.07584435886334],[31.28497094885719,30.07373744862472],[31.28289582100019,30.07146132400004],[31.27672369390791,30.06541261311639],[31.2682297183061,30.0624653049411],[31.26424032522618,30.06051775472878],[31.26319864200013,30.05984479500012],[31.25935669948063,30.05657776457122],[31.25602754400006,30.05430670400011],[31.24995520896971,30.05312947346624],[31.24866236253376,30.05307768916339],[31.24732049600016,30.05349713400011],[31.24646716200004,30.05358772500006],[31.24581992300006,30.05350818800014],[31.24302227900006,30.05268088300016],[31.2415663215761,30.05274291307529],[31.23756613700017,30.05398656200009],[31.22951113316003,30.05683314052516],[31.22881660100006,30.05741559900002],[31.22818461992887,30.05903475161807],[31.2277489497493,30.05974652005267],[31.22717457521117,30.06035192627985],[31.22648669391896,30.06082441134606],[31.22230903300004,30.06254310400004],[31.21495332900002,30.06606852500011],[31.20394806299998,30.07032538900006],[31.20317147100008,30.07077908500014],[31.20268811928582,30.07136606399462],[31.20250216498818,30.07199212605053],[31.20258672295967,30.07274778680051],[31.20297843885157,30.07339255168642],[31.20366408363826,30.07390084170962],[31.20821998689881,30.07625930573779],[31.20869383187731,30.07663825467941],[31.2089601943783,30.07706460477243],[31.21306202004768,30.09004378928054],[31.21314646374931,30.09087939279809],[31.21292895706383,30.09150478234871],[31.21252154308402,30.09197250811776],[31.21167567187394,30.09239837496809],[31.1943284282284,30.09809795004247],[31.19310047400018,30.09823006700003],[31.18606952300007,30.09800453899999],[31.18505647955823,30.0982162934767],[31.18435900106107,30.09880085328371],[31.1840035530501,30.09975809488185],[31.18447393800011,30.10516846400009]],[[31.20858932600009,30.06854091400015],[31.2077661190001,30.06877707000012],[31.20698976740177,30.06881869712448],[31.20622299723098,30.06869017425926],[31.20536725593529,30.06832060464387],[31.2046373489865,30.06774085408381],[31.20162289600012,30.06459605400005],[31.20119699000003,30.06400386899998],[31.20074710027088,30.06296210185898],[31.2005981572548,30.06183715940605],[31.20155824700015,30.05440495699997],[31.20140605480193,30.05331914221345],[31.20093070403021,30.05250581159569],[31.19704748500016,30.04822588700017],[31.19369301901022,30.04422318544896],[31.19333929738833,30.0436274106287],[31.19314884278093,30.04296123222558],[31.19315265657932,30.04213080897666],[31.19334922200011,30.04146640800013],[31.19466661000007,30.03914119500007],[31.19744572600013,30.03300637300015],[31.19901411800009,30.02999950300006],[31.20057351646667,30.02743102387937],[31.20237052400012,30.02181148100004]]]}}]}