{
"type": "FeatureCollection",
"name": "Water_Changes",
"crs": { "type": "name", "properties": { "name": "urn:ogc:def:crs:OGC:1.3:CRS84" } },
"xy_coordinate_resolution": 1e-06,
"features": [
{"type":"Feature","properties":{"اسم_المحور":"2","اسم_القطاع":"10","اسم_المسطح":"ابار مياه","مساحة_كم2":0.0040548682075599238,"GlobalID":"{29A9ACCB-FB48-4159-A988-349FD57A1227}","Shape_Length":257.43703621377847,"Shape_Area":4054.868207559924},"geometry":{"type":"Polygon","coordinates":[[[32.240424,30.443391],[32.240329,30.444065],[32.240456,30.444209],[32.240665,30.444224],[32.240811,30.444115],[32.240906,30.443442],[32.240424,30.443391]]]}},
{"type":"Feature","properties":{"اسم_المحور":"2","اسم_القطاع":"10","اسم_المسطح":"ابار مياه","مساحة_كم2":0.0036741504659200059,"GlobalID":"{4F967C75-E53A-4844-9985-5815EF18C78D}","Shape_Length":246.4786796443822,"Shape_Area":3674.1504659200059},"geometry":{"type":"Polygon","coordinates":[[[32.236691,30.410501],[32.236148,30.410598],[32.236423,30.411214],[32.23693,30.411092],[32.236691,30.410501]]]}},
{"type":"Feature","properties":{"اسم_المحور":"2","اسم_القطاع":"10","اسم_المسطح":"ابار مياه","مساحة_كم2":0.0055900595344617107,"GlobalID":"{FF2E3BE2-B4CF-4487-9EB1-7FB4FE143A67}","Shape_Length":315.20103526176081,"Shape_Area":5590.0595344617104},"geometry":{"type":"Polygon","coordinates":[[[32.191905,30.447798],[32.191837,30.448281],[32.192909,30.448393],[32.192977,30.44791],[32.191905,30.447798]]]}},
{"type":"Feature","properties":{"اسم_المحور":"2","اسم_القطاع":"10","اسم_المسطح":"ابار مياه","مساحة_كم2":0.012962616707445661,"GlobalID":"{E166DC95-F235-4378-B9DE-CD8D912DE089}","Shape_Length":466.52517122821382,"Shape_Area":12962.616707445661},"geometry":{"type":"Polygon","coordinates":[[[32.19499,30.426812],[32.194685,30.428067],[32.195608,30.428164],[32.195974,30.426947],[32.19499,30.426812]]]}},
{"type":"Feature","properties":{"اسم_المحور":"2","اسم_القطاع":"10","اسم_المسطح":"ابار مياه","مساحة_كم2":0.018726857703112311,"GlobalID":"{2F4E1D70-9FCF-40BA-823A-59FAD43F1FA5}","Shape_Length":592.5012804487144,"Shape_Area":18726.85770311231},"geometry":{"type":"Polygon","coordinates":[[[32.195344,30.407287],[32.195147,30.408066],[32.197375,30.408336],[32.19731,30.40745],[32.195344,30.407287]]]}},
{"type":"Feature","properties":{"اسم_المحور":"2","اسم_القطاع":"10","اسم_المسطح":"ابار مياه","مساحة_كم2":0.0062101500500070551,"GlobalID":"{10AB730B-3F7C-4703-B9EB-3AFF5367378C}","Shape_Length":317.47517240739637,"Shape_Area":6210.1500500070551},"geometry":{"type":"Polygon","coordinates":[[[32.167694,30.418068],[32.166642,30.418094],[32.16656,30.418436],[32.166658,30.418595],[32.167665,30.41857],[32.16777,30.418322],[32.167694,30.418068]]]}},
{"type":"Feature","properties":{"اسم_المحور":"2","اسم_القطاع":"10","اسم_المسطح":"ابار مياه","مساحة_كم2":0.00069527947464765455,"GlobalID":"{1303FC67-F80E-49CE-8E7A-80924B4544CE}","Shape_Length":111.20420165956151,"Shape_Area":695.27947464765452},"geometry":{"type":"Polygon","coordinates":[[[32.180964,30.663946],[32.180963,30.663775],[32.180581,30.663776],[32.180582,30.663947],[32.180964,30.663946]]]}},
{"type":"Feature","properties":{"اسم_المحور":"2","اسم_القطاع":"10","اسم_المسطح":"ابار مياه","مساحة_كم2":0.0010091607575710123,"GlobalID":"{E19FF4EE-BDC1-4E40-8C8D-BC85468F499B}","Shape_Length":130.99448878186996,"Shape_Area":1009.1607575710123},"geometry":{"type":"Polygon","coordinates":[[[32.166575,30.663596],[32.166152,30.66363],[32.166176,30.663852],[32.166599,30.663819],[32.166575,30.663596]]]}},
{"type":"Feature","properties":{"اسم_المحور":"2","اسم_القطاع":"10","اسم_المسطح":"ابار مياه","مساحة_كم2":0.00089638297531841429,"GlobalID":"{453AD854-5731-469A-B023-C5F3FC6666CC}","Shape_Length":121.32521556615424,"Shape_Area":896.38297531841431},"geometry":{"type":"Polygon","coordinates":[[[32.138128,30.657986],[32.138117,30.657668],[32.137851,30.657675],[32.137862,30.657991],[32.138128,30.657986]]]}},
{"type":"Feature","properties":{"اسم_المحور":"2","اسم_القطاع":"10","اسم_المسطح":"ابار مياه","مساحة_كم2":0.012910211189396732,"GlobalID":"{9EE90DDE-8C5D-4F59-835B-E82C480D701F}","Shape_Length":455.55236430796504,"Shape_Area":12910.211189396732},"geometry":{"type":"Polygon","coordinates":[[[32.124904,30.654325],[32.123695,30.654351],[32.1238,30.655353],[32.125062,30.655282],[32.124904,30.654325]]]}},
{"type":"Feature","properties":{"اسم_المحور":"2","اسم_القطاع":"10","اسم_المسطح":"ابار مياه","مساحة_كم2":0.001109580839272487,"GlobalID":"{35D64991-D787-4826-88A8-33728EE90C1B}","Shape_Length":146.86953529562786,"Shape_Area":1109.5808392724871},"geometry":{"type":"Polygon","coordinates":[[[32.131807,30.665112],[32.131407,30.665162],[32.13144,30.665355],[32.131625,30.665332],[32.131645,30.665449],[32.131859,30.665422],[32.131807,30.665112]]]}},
{"type":"Feature","properties":{"اسم_المحور":"2","اسم_القطاع":"10","اسم_المسطح":"ابار مياه","مساحة_كم2":0.00059661621942764316,"GlobalID":"{4B68F91C-61D6-4649-BC29-CA333CCA5600}","Shape_Length":106.71027087128542,"Shape_Area":596.61621942764316},"geometry":{"type":"Polygon","coordinates":[[[32.124957,30.663482],[32.124947,30.66382],[32.125113,30.663823],[32.125123,30.663486],[32.124957,30.663482]]]}},
{"type":"Feature","properties":{"اسم_المحور":"2","اسم_القطاع":"10","اسم_المسطح":"ابار مياه","مساحة_كم2":0.00089479864135200995,"GlobalID":"{E7B8AFF1-A2E4-4C52-8A89-D3F42E46F10C}","Shape_Length":120.00022091098394,"Shape_Area":894.79864135200989},"geometry":{"type":"Polygon","coordinates":[[[32.122782,30.665284],[32.122769,30.665575],[32.123058,30.665584],[32.123071,30.665293],[32.122782,30.665284]]]}},
{"type":"Feature","properties":{"اسم_المحور":"2","اسم_القطاع":"10","اسم_المسطح":"ابار مياه","مساحة_كم2":0.001586505041443872,"GlobalID":"{28E1C835-0C2C-4FBC-851E-25226AC51013}","Shape_Length":159.39278500248682,"Shape_Area":1586.505041443872},"geometry":{"type":"Polygon","coordinates":[[[32.116517,30.662145],[32.116415,30.662483],[32.11683,30.662575],[32.116931,30.662237],[32.116517,30.662145]]]}},
{"type":"Feature","properties":{"اسم_المحور":"2","اسم_القطاع":"10","اسم_المسطح":"ابار مياه","مساحة_كم2":0.0030382334527005901,"GlobalID":"{17F7BD47-1B0A-4DAE-AB4D-757311FB4F1C}","Shape_Length":221.76117083160159,"Shape_Area":3038.2334527005901},"geometry":{"type":"Polygon","coordinates":[[[32.112439,30.651997],[32.112392,30.652569],[32.112941,30.652564],[32.112935,30.652044],[32.112439,30.651997]]]}},
{"type":"Feature","properties":{"اسم_المحور":"2","اسم_القطاع":"10","اسم_المسطح":"ابار مياه","مساحة_كم2":0.0010520358288936412,"GlobalID":"{4DF3D4B3-8748-41BD-A045-E4390302424A}","Shape_Length":134.13968475588359,"Shape_Area":1052.0358288936411},"geometry":{"type":"Polygon","coordinates":[[[32.11841,30.656294],[32.118402,30.65652],[32.118841,30.656531],[32.118849,30.656306],[32.11841,30.656294]]]}},
{"type":"Feature","properties":{"اسم_المحور":"2","اسم_القطاع":"10","اسم_المسطح":"ابار مياه","مساحة_كم2":0.00056705978519708614,"GlobalID":"{4EA25736-88CE-4A30-9750-574DE335DFFB}","Shape_Length":97.770315637941863,"Shape_Area":567.05978519708617},"geometry":{"type":"Polygon","coordinates":[[[32.117273,30.657656],[32.117273,30.657827],[32.117585,30.657827],[32.117585,30.657656],[32.117273,30.657656]]]}},
{"type":"Feature","properties":{"اسم_المحور":"2","اسم_القطاع":"10","اسم_المسطح":"ترع ومصارف","مساحة_كم2":0.032671174758495333,"GlobalID":"{DE73327F-F5BF-491C-8483-B607B4E4E71D}","Shape_Length":2585.1105067079066,"Shape_Area":32671.17475849533},"geometry":{"type":"Polygon","coordinates":[[[32.323646,30.480579],[32.320788,30.482871],[32.315834,30.486272],[32.315651,30.486546],[32.315585,30.486857],[32.315781,30.488817],[32.316052,30.488851],[32.315854,30.486897],[32.316042,30.48642],[32.321786,30.482431],[32.323889,30.480697],[32.323646,30.480579]]]}},
{"type":"Feature","properties":{"اسم_المحور":"2","اسم_القطاع":"10","اسم_المسطح":"ابار مياه","مساحة_كم2":0.034088257775232805,"GlobalID":"{5EFB000F-7E8A-4E82-A950-EDE4D56B7C5F}","Shape_Length":739.77608357509325,"Shape_Area":34088.257775232807},"geometry":{"type":"Polygon","coordinates":[[[31.953156,30.375418],[31.95265,30.377061],[31.954382,30.377621],[31.95499,30.376045],[31.953156,30.375418]]]}},
{"type":"Feature","properties":{"اسم_المحور":"2","اسم_القطاع":"10","اسم_المسطح":"ابار مياه","مساحة_كم2":0.066080884025365008,"GlobalID":"{A38C898A-1DF6-4618-AB2C-564F30FEA5E4}","Shape_Length":1053.996161569195,"Shape_Area":66080.884025365012},"geometry":{"type":"Polygon","coordinates":[[[31.956275,30.349892],[31.954528,30.350963],[31.956471,30.353323],[31.958218,30.352252],[31.956275,30.349892]]]}},
{"type":"Feature","properties":{"اسم_المحور":"2","اسم_القطاع":"10","اسم_المسطح":"ابار مياه","مساحة_كم2":0.013172967742584221,"GlobalID":"{2BF76389-EA3B-4FD5-AB1B-F1CCF2E0B726}","Shape_Length":460.87853372505816,"Shape_Area":13172.96774258422},"geometry":{"type":"Polygon","coordinates":[[[31.878115,30.430989],[31.877465,30.431992],[31.878453,30.432412],[31.879076,30.431451],[31.878115,30.430989]]]}},
{"type":"Feature","properties":{"اسم_المحور":"2","اسم_القطاع":"10","اسم_المسطح":"ابار مياه","مساحة_كم2":0.0044811380154682152,"GlobalID":"{0A09C207-FDB0-42A7-B4EF-6C94BC94BB4B}","Shape_Length":283.64557439467143,"Shape_Area":4481.1380154682156},"geometry":{"type":"Polygon","coordinates":[[[31.891148,30.436843],[31.891572,30.436063],[31.891136,30.435886],[31.890712,30.436666],[31.891148,30.436843]]]}},
{"type":"Feature","properties":{"اسم_المحور":"2","اسم_القطاع":"10","اسم_المسطح":"ابار مياه","مساحة_كم2":0.010008492678210613,"GlobalID":"{241CCFE6-11BF-4EB6-9BAE-05E6BAC2510B}","Shape_Length":505.78999658102134,"Shape_Area":10008.492678210614},"geometry":{"type":"Polygon","coordinates":[[[31.920171,30.405668],[31.918044,30.405717],[31.91807,30.40616],[31.920184,30.406111],[31.920171,30.405668]]]}},
{"type":"Feature","properties":{"اسم_المحور":"2","اسم_القطاع":"10","اسم_المسطح":"ابار مياه","مساحة_كم2":0.011432587872251581,"GlobalID":"{2A517B97-1C25-4732-83CB-F54E94F23C06}","Shape_Length":517.71476030461167,"Shape_Area":11432.587872251581},"geometry":{"type":"Polygon","coordinates":[[[31.91171,30.404883],[31.909606,30.404968],[31.909634,30.405478],[31.911738,30.405392],[31.91171,30.404883]]]}},
{"type":"Feature","properties":{"اسم_المحور":"2","اسم_القطاع":"10","اسم_المسطح":"ابار مياه","مساحة_كم2":0.0095122429668596502,"GlobalID":"{6C5F056A-EBB3-451A-A8B7-A97818F51190}","Shape_Length":494.35996301523414,"Shape_Area":9512.2429668596506},"geometry":{"type":"Polygon","coordinates":[[[31.906413,30.40681],[31.906387,30.40638],[31.904314,30.406462],[31.904337,30.406892],[31.906413,30.40681]]]}},
{"type":"Feature","properties":{"اسم_المحور":"2","اسم_القطاع":"10","اسم_المسطح":"ابار مياه","مساحة_كم2":0.0095968283251317149,"GlobalID":"{347EFFF7-00C3-4640-BA4E-EDAB62BD7838}","Shape_Length":406.20093330761642,"Shape_Area":9596.8283251317152},"geometry":{"type":"Polygon","coordinates":[[[31.877867,30.448164],[31.876611,30.447786],[31.876372,30.448375],[31.877587,30.448855],[31.877867,30.448164]]]}},
{"type":"Feature","properties":{"اسم_المحور":"2","اسم_القطاع":"10","اسم_المسطح":"ابار مياه","مساحة_كم2":0.010161457901446657,"GlobalID":"{E1FE3524-442B-4B5B-9E2D-F70A74828EE8}","Shape_Length":403.72683063622969,"Shape_Area":10161.457901446658},"geometry":{"type":"Polygon","coordinates":[[[31.915917,30.375493],[31.915215,30.376216],[31.916031,30.376805],[31.916663,30.376154],[31.915917,30.375493]]]}},
{"type":"Feature","properties":{"اسم_المحور":"2","اسم_القطاع":"10","اسم_المسطح":"ابار مياه","مساحة_كم2":0.009672111421910809,"GlobalID":"{438BE431-0141-4280-B841-5DAD6D828225}","Shape_Length":393.39134322757286,"Shape_Area":9672.1114219108094},"geometry":{"type":"Polygon","coordinates":[[[31.881535,30.330675],[31.880972,30.331414],[31.881831,30.331901],[31.882393,30.331162],[31.881535,30.330675]]]}},
{"type":"Feature","properties":{"اسم_المحور":"2","اسم_القطاع":"10","اسم_المسطح":"ابار مياه","مساحة_كم2":0.0019205215625123472,"GlobalID":"{EAF8B302-7194-4188-83B4-6EB768198742}","Shape_Length":175.50048866544864,"Shape_Area":1920.5215625123471},"geometry":{"type":"Polygon","coordinates":[[[31.877263,30.341886],[31.877014,30.342239],[31.877385,30.342435],[31.877635,30.342081],[31.877263,30.341886]]]}},
{"type":"Feature","properties":{"اسم_المحور":"2","اسم_القطاع":"10","اسم_المسطح":"ابار مياه","مساحة_كم2":0.095638122726875704,"GlobalID":"{7E611B9D-668F-44B4-A91E-068A7D37F35E}","Shape_Length":1907.0599264470411,"Shape_Area":95638.122726875707},"geometry":{"type":"Polygon","coordinates":[[[31.76109,30.402549],[31.758127,30.402751],[31.758137,30.403372],[31.757468,30.40338],[31.75746,30.402922],[31.75394,30.402965],[31.753959,30.404156],[31.757391,30.404156],[31.757474,30.404083],[31.757476,30.403709],[31.757567,30.403652],[31.758146,30.403734],[31.75815,30.404164],[31.761057,30.404207],[31.76109,30.402549]]]}},
{"type":"Feature","properties":{"اسم_المحور":"2","اسم_القطاع":"10","اسم_المسطح":"ابار مياه","مساحة_كم2":0.026464650362306223,"GlobalID":"{34BC814B-EF65-43C1-939B-46D0413E88F3}","Shape_Length":927.55021125242126,"Shape_Area":26464.650362306224},"geometry":{"type":"Polygon","coordinates":[[[31.766283,30.411777],[31.766269,30.412857],[31.767428,30.412868],[31.767435,30.41228],[31.767678,30.412283],[31.76767,30.41287],[31.768825,30.412881],[31.768839,30.411834],[31.767684,30.411823],[31.76767,30.41214],[31.767442,30.412132],[31.767456,30.411815],[31.766283,30.411777]]]}},
{"type":"Feature","properties":{"اسم_المحور":"2","اسم_القطاع":"10","اسم_المسطح":"ابار مياه","مساحة_كم2":0.025584426029893304,"GlobalID":"{AD061241-5010-431E-A650-0FD0A020ED56}","Shape_Length":908.96068144725791,"Shape_Area":25584.426029893304},"geometry":{"type":"Polygon","coordinates":[[[31.761673,30.414991],[31.761673,30.416005],[31.762808,30.416005],[31.762808,30.415616],[31.76306,30.415616],[31.76306,30.416005],[31.764254,30.416005],[31.764254,30.414991],[31.76306,30.414991],[31.76306,30.415452],[31.762808,30.415452],[31.762808,30.414991],[31.761673,30.414991]]]}},
{"type":"Feature","properties":{"اسم_المحور":"2","اسم_القطاع":"10","اسم_المسطح":"بركة","مساحة_كم2":0.082237269912673175,"GlobalID":"{8B638048-803A-4CEE-A4AC-22E7DAC49341}","Shape_Length":1185.2530699574049,"Shape_Area":82237.269912673175},"geometry":{"type":"Polygon","coordinates":[[[31.836854,30.325501],[31.83534,30.328659],[31.837916,30.329524],[31.838643,30.326639],[31.836854,30.325501]]]}},
{"type":"Feature","properties":{"اسم_المحور":"2","اسم_القطاع":"10","اسم_المسطح":"بركة","مساحة_كم2":0.18932763616787615,"GlobalID":"{131C35EE-0346-41A5-AE91-38E6DD88C0FB}","Shape_Length":2346.1920338522245,"Shape_Area":189327.63616787616},"geometry":{"type":"Polygon","coordinates":[[[31.839662,30.328312],[31.83899,30.329359],[31.839759,30.329727],[31.839079,30.330785],[31.838526,30.33052],[31.83825,30.33095],[31.836618,30.330169],[31.835969,30.3319],[31.837385,30.332681],[31.837031,30.333717],[31.838337,30.334705],[31.838883,30.333874],[31.839568,30.334209],[31.841731,30.330916],[31.840703,30.330179],[31.841376,30.329132],[31.839662,30.328312]]]}},
{"type":"Feature","properties":{"اسم_المحور":"2","اسم_القطاع":"10","اسم_المسطح":"ابار مياه","مساحة_كم2":0.00037475424868018965,"GlobalID":"{184FB1CE-63BA-4A97-AF43-EE4627FCB36C}","Shape_Length":77.942271785995999,"Shape_Area":374.75424868018968},"geometry":{"type":"Polygon","coordinates":[[[31.682463,30.327716],[31.682305,30.327835],[31.682425,30.327955],[31.682602,30.327823],[31.682463,30.327716]]]}},
{"type":"Feature","properties":{"اسم_المحور":"2","اسم_القطاع":"10","اسم_المسطح":"ابار مياه","مساحة_كم2":0.0002932137082764438,"GlobalID":"{215F58EA-34F9-41C8-BF05-3F4046E12E1F}","Shape_Length":74.439004648665232,"Shape_Area":293.21370827644381},"geometry":{"type":"Polygon","coordinates":[[[31.683282,30.327702],[31.683197,30.327631],[31.683009,30.327798],[31.683093,30.327869],[31.683282,30.327702]]]}},
{"type":"Feature","properties":{"اسم_المحور":"2","اسم_القطاع":"10","اسم_المسطح":"ابار مياه","مساحة_كم2":0.00057391900848983339,"GlobalID":"{18A8D4E7-0B41-4C27-8D6B-4FF346F99B7F}","Shape_Length":96.210688151975404,"Shape_Area":573.91900848983335},"geometry":{"type":"Polygon","coordinates":[[[31.682312,30.326792],[31.682236,30.326978],[31.682493,30.327057],[31.682569,30.326871],[31.682312,30.326792]]]}},
{"type":"Feature","properties":{"اسم_المحور":"2","اسم_القطاع":"10","اسم_المسطح":"ابار مياه","مساحة_كم2":0.00072769859789848272,"GlobalID":"{8CA2DC43-1CAA-4DFD-9363-C9ECEA2F75EF}","Shape_Length":109.20873984852378,"Shape_Area":727.69859789848272},"geometry":{"type":"Polygon","coordinates":[[[31.674422,30.325176],[31.674221,30.325367],[31.674403,30.325511],[31.674633,30.325292],[31.674422,30.325176]]]}},
{"type":"Feature","properties":{"اسم_المحور":"2","اسم_القطاع":"10","اسم_المسطح":"ابار مياه","مساحة_كم2":0.00035948397001229994,"GlobalID":"{0F3F1628-9A6D-48E2-A7D0-E7B8D1512144}","Shape_Length":76.5308513196387,"Shape_Area":359.48397001229995},"geometry":{"type":"Polygon","coordinates":[[[31.680891,30.321276],[31.680851,30.321419],[31.681072,30.321466],[31.68111,30.321318],[31.680891,30.321276]]]}},
{"type":"Feature","properties":{"اسم_المحور":"2","اسم_القطاع":"10","اسم_المسطح":"ابار مياه","مساحة_كم2":0.0010355093662466513,"GlobalID":"{7C56AD7E-9D3D-4EA5-BBE7-5D20612C31F8}","Shape_Length":128.93320270926642,"Shape_Area":1035.5093662466513},"geometry":{"type":"Polygon","coordinates":[[[31.680409,30.305658],[31.68011,30.305595],[31.680031,30.305899],[31.680359,30.30595],[31.680409,30.305658]]]}},
{"type":"Feature","properties":{"اسم_المحور":"2","اسم_القطاع":"10","اسم_المسطح":"ابار مياه","مساحة_كم2":0.0011431554876499776,"GlobalID":"{102EC1CF-1478-4BC5-B0A9-272FB62DDFB2}","Shape_Length":136.40041811693754,"Shape_Area":1143.1554876499777},"geometry":{"type":"Polygon","coordinates":[[[31.693719,30.295585],[31.693542,30.295804],[31.693872,30.296002],[31.694048,30.295782],[31.693719,30.295585]]]}},
{"type":"Feature","properties":{"اسم_المحور":"2","اسم_القطاع":"10","اسم_المسطح":"ابار مياه","مساحة_كم2":0.00036467179849029434,"GlobalID":"{AF493A1D-2DAE-4C08-83A7-E62063B48D4D}","Shape_Length":80.888837026997479,"Shape_Area":364.67179849029435},"geometry":{"type":"Polygon","coordinates":[[[31.694065,30.295055],[31.693902,30.295252],[31.694016,30.295323],[31.69418,30.295126],[31.694065,30.295055]]]}},
{"type":"Feature","properties":{"اسم_المحور":"2","اسم_القطاع":"10","اسم_المسطح":"ابار مياه","مساحة_كم2":0.0024276408482482117,"GlobalID":"{E25B3941-C505-4CAE-A99E-522C6CA38884}","Shape_Length":219.75058461627992,"Shape_Area":2427.6408482482116},"geometry":{"type":"Polygon","coordinates":[[[31.784002,30.413683],[31.783992,30.413407],[31.783171,30.413413],[31.783174,30.413689],[31.784002,30.413683]]]}},
{"type":"Feature","properties":{"اسم_المحور":"2","اسم_القطاع":"10","اسم_المسطح":"ابار مياه","مساحة_كم2":0.0047990744977683434,"GlobalID":"{7D493B02-43F3-46AD-8A0E-EB5283239EB2}","Shape_Length":281.83521803610756,"Shape_Area":4799.0744977683435},"geometry":{"type":"Polygon","coordinates":[[[31.798594,30.405596],[31.797727,30.405599],[31.797729,30.406118],[31.798597,30.406116],[31.798594,30.405596]]]}},
{"type":"Feature","properties":{"اسم_المحور":"2","اسم_القطاع":"10","اسم_المسطح":"ابار مياه","مساحة_كم2":0.00088154646899223771,"GlobalID":"{33BE1285-76A5-4C68-A03B-F552668D5520}","Shape_Length":133.54869829741151,"Shape_Area":881.54646899223769},"geometry":{"type":"Polygon","coordinates":[[[31.857428,30.441071],[31.857239,30.441078],[31.857261,30.441516],[31.857449,30.441509],[31.857428,30.441071]]]}},
{"type":"Feature","properties":{"اسم_المحور":"2","اسم_القطاع":"10","اسم_المسطح":"ابار مياه","مساحة_كم2":0.00061215828698732802,"GlobalID":"{70FAD3E8-33B9-4B48-9C1C-E253F12162FB}","Shape_Length":108.859153062205,"Shape_Area":612.15828698732798},"geometry":{"type":"Polygon","coordinates":[[[31.812194,30.42754],[31.812191,30.427396],[31.811789,30.427403],[31.811793,30.427547],[31.812194,30.42754]]]}},
{"type":"Feature","properties":{"اسم_المحور":"2","اسم_القطاع":"10","اسم_المسطح":"ابار مياه","مساحة_كم2":0.00070607588317729141,"GlobalID":"{E56FF5AB-9AAA-4F9E-8CB5-935D1BEF920B}","Shape_Length":106.39119110134619,"Shape_Area":706.07588317729142},"geometry":{"type":"Polygon","coordinates":[[[31.831802,30.436409],[31.831669,30.436608],[31.83192,30.436732],[31.832053,30.436534],[31.831802,30.436409]]]}},
{"type":"Feature","properties":{"اسم_المحور":"2","اسم_القطاع":"10","اسم_المسطح":"ابار مياه","مساحة_كم2":0.00040379970418182455,"GlobalID":"{0185C91F-F25B-4235-A6A1-71BFEA76E4BE}","Shape_Length":84.100328285574321,"Shape_Area":403.79970418182455},"geometry":{"type":"Polygon","coordinates":[[[31.832897,30.431746],[31.832894,30.431992],[31.833048,30.431994],[31.833052,30.431748],[31.832897,30.431746]]]}},
{"type":"Feature","properties":{"اسم_المحور":"2","اسم_القطاع":"10","اسم_المسطح":"ابار مياه","مساحة_كم2":0.00075941117788728713,"GlobalID":"{3E7ED047-3E94-40E3-B33B-16801216F4C7}","Shape_Length":119.24581802689903,"Shape_Area":759.41117788728718},"geometry":{"type":"Polygon","coordinates":[[[31.83516,30.428049],[31.83516,30.428215],[31.835589,30.428215],[31.835589,30.428049],[31.83516,30.428049]]]}},
{"type":"Feature","properties":{"اسم_المحور":"2","اسم_القطاع":"10","اسم_المسطح":"ابار مياه","مساحة_كم2":0.00059591020370036404,"GlobalID":"{8AAC1115-BEC5-4A9D-9749-AE13F16F34AE}","Shape_Length":113.55677381240449,"Shape_Area":595.91020370036404},"geometry":{"type":"Polygon","coordinates":[[[31.859376,30.430725],[31.85938,30.430338],[31.859235,30.430337],[31.859231,30.430724],[31.859376,30.430725]]]}},
{"type":"Feature","properties":{"اسم_المحور":"2","اسم_القطاع":"10","اسم_المسطح":"ابار مياه","مساحة_كم2":0.001106236068223909,"GlobalID":"{1B4AA374-FFF6-4552-91EC-3FC944C4E7FB}","Shape_Length":133.90394135632607,"Shape_Area":1106.2360682239089},"geometry":{"type":"Polygon","coordinates":[[[31.849977,30.424573],[31.849867,30.424824],[31.85023,30.424942],[31.85034,30.424692],[31.849977,30.424573]]]}},
{"type":"Feature","properties":{"اسم_المحور":"2","اسم_القطاع":"10","اسم_المسطح":"ابار مياه","مساحة_كم2":0.00046336551916503028,"GlobalID":"{52240679-D5EC-4D41-AA4C-2F75A231D64C}","Shape_Length":89.869946859334419,"Shape_Area":463.36551916503026},"geometry":{"type":"Polygon","coordinates":[[[31.847414,30.424071],[31.847359,30.424207],[31.847644,30.424292],[31.847698,30.424155],[31.847414,30.424071]]]}},
{"type":"Feature","properties":{"اسم_المحور":"2","اسم_القطاع":"10","اسم_المسطح":"ابار مياه","مساحة_كم2":0.00067024289447522624,"GlobalID":"{56F28A78-2022-4E63-AEF9-C73A24DE7244}","Shape_Length":118.69601919402311,"Shape_Area":670.24289447522619},"geometry":{"type":"Polygon","coordinates":[[[31.850054,30.427879],[31.850024,30.428277],[31.850182,30.428285],[31.850211,30.427888],[31.850054,30.427879]]]}},
{"type":"Feature","properties":{"اسم_المحور":"2","اسم_القطاع":"10","اسم_المسطح":"ابار مياه","مساحة_كم2":0.00050556965957639023,"GlobalID":"{58895259-9688-4636-9B3A-D7C31A6C83E6}","Shape_Length":89.967813248052778,"Shape_Area":505.56965957639022},"geometry":{"type":"Polygon","coordinates":[[[31.858034,30.419544],[31.857887,30.419709],[31.858069,30.419829],[31.858215,30.419664],[31.858034,30.419544]]]}},
{"type":"Feature","properties":{"اسم_المحور":"2","اسم_القطاع":"10","اسم_المسطح":"ابار مياه","مساحة_كم2":0.0015616201733719996,"GlobalID":"{7782FEB7-21FE-4BC6-A08F-8F138F9FC6BE}","Shape_Length":165.97980991500174,"Shape_Area":1561.6201733719995},"geometry":{"type":"Polygon","coordinates":[[[31.806117,30.407265],[31.805925,30.407464],[31.80636,30.407775],[31.806552,30.407575],[31.806117,30.407265]]]}},
{"type":"Feature","properties":{"اسم_المحور":"2","اسم_القطاع":"10","اسم_المسطح":"ابار مياه","مساحة_كم2":0.001925401730975805,"GlobalID":"{06101B41-3775-4A88-90DA-090EC4D74689}","Shape_Length":176.60110102709763,"Shape_Area":1925.4017309758051},"geometry":{"type":"Polygon","coordinates":[[[31.853149,30.346248],[31.852694,30.34645],[31.852882,30.346765],[31.853336,30.346563],[31.853149,30.346248]]]}},
{"type":"Feature","properties":{"اسم_المحور":"2","اسم_القطاع":"10","اسم_المسطح":"ابار مياه","مساحة_كم2":0.0010581574865133744,"GlobalID":"{4776DDF7-2BCC-4A34-85C1-B10B00766536}","Shape_Length":144.89621677108761,"Shape_Area":1058.1574865133744},"geometry":{"type":"Polygon","coordinates":[[[31.849153,30.349489],[31.848651,30.349728],[31.848836,30.349855],[31.849258,30.349654],[31.849153,30.349489]]]}},
{"type":"Feature","properties":{"اسم_المحور":"2","اسم_القطاع":"10","اسم_المسطح":"ابار مياه","مساحة_كم2":0.0020522414071837409,"GlobalID":"{F264B1A9-8057-44E6-85C1-EA273CF71253}","Shape_Length":185.86551809666406,"Shape_Area":2052.2414071837411},"geometry":{"type":"Polygon","coordinates":[[[31.882375,30.366661],[31.882015,30.366753],[31.882184,30.367244],[31.882545,30.367152],[31.882375,30.366661]]]}},
{"type":"Feature","properties":{"اسم_المحور":"2","اسم_القطاع":"10","اسم_المسطح":"ابار مياه","مساحة_كم2":0.0012743972792060429,"GlobalID":"{C1AF9577-C48F-4903-BC50-414A7C6D80AE}","Shape_Length":143.86991060755625,"Shape_Area":1274.3972792060429},"geometry":{"type":"Polygon","coordinates":[[[31.861374,30.357983],[31.861053,30.35776],[31.860836,30.35798],[31.861174,30.358206],[31.861374,30.357983]]]}},
{"type":"Feature","properties":{"اسم_المحور":"2","اسم_القطاع":"10","اسم_المسطح":"ابار مياه","مساحة_كم2":0.018044398735275205,"GlobalID":"{B8819794-532C-4DDA-98B6-6FFF1297D60C}","Shape_Length":736.67220984289474,"Shape_Area":18044.398735275205},"geometry":{"type":"Polygon","coordinates":[[[32.294011,30.316291],[32.293343,30.315615],[32.292206,30.316454],[32.292392,30.316615],[32.293154,30.317813],[32.293466,30.317998],[32.293715,30.317872],[32.292935,30.317084],[32.294011,30.316291]]]}},
{"type":"Feature","properties":{"اسم_المحور":"2","اسم_القطاع":"10","اسم_المسطح":"ابار مياه","مساحة_كم2":0.017668735426103824,"GlobalID":"{16D697BF-403C-4207-B1B0-FF5F117F52A6}","Shape_Length":544.06445653063395,"Shape_Area":17668.735426103824},"geometry":{"type":"Polygon","coordinates":[[[32.223027,30.323773],[32.224775,30.323735],[32.224667,30.32272],[32.223,30.322852],[32.223027,30.323773]]]}},
{"type":"Feature","properties":{"اسم_المحور":"2","اسم_القطاع":"10","اسم_المسطح":"ابار مياه","مساحة_كم2":0.0056142541238061623,"GlobalID":"{22536A67-9504-4169-A01F-ED88E2DB2313}","Shape_Length":277.81889418467671,"Shape_Area":5614.2541238061622},"geometry":{"type":"Polygon","coordinates":[[[32.246197,30.373523],[32.245608,30.373598],[32.245626,30.374116],[32.246376,30.374167],[32.246407,30.373661],[32.246197,30.373523]]]}},
{"type":"Feature","properties":{"اسم_المحور":"2","اسم_القطاع":"10","اسم_المسطح":"ابار مياه","مساحة_كم2":0.02407318426799554,"GlobalID":"{731650D2-881C-4AA8-9F55-3CC95BF05563}","Shape_Length":694.73257918918875,"Shape_Area":24073.184267995541},"geometry":{"type":"Polygon","coordinates":[[[32.262082,30.396896],[32.262048,30.397115],[32.261697,30.397074],[32.261517,30.39821],[32.263711,30.398467],[32.263789,30.397722],[32.26295,30.39753],[32.262706,30.397305],[32.262667,30.396965],[32.262082,30.396896]]]}},
{"type":"Feature","properties":{"اسم_المحور":"2","اسم_القطاع":"10","اسم_المسطح":"ابار مياه","مساحة_كم2":0.0072129932778159335,"GlobalID":"{78E34660-D2BD-4E83-A43C-88C43C07DF4A}","Shape_Length":340.1492808204253,"Shape_Area":7212.9932778159337},"geometry":{"type":"Polygon","coordinates":[[[32.228456,30.372529],[32.227616,30.372519],[32.2276,30.373324],[32.22844,30.373336],[32.228456,30.372529]]]}},
{"type":"Feature","properties":{"اسم_المحور":"2","اسم_القطاع":"10","اسم_المسطح":"ابار مياه","مساحة_كم2":0.035167073358378154,"GlobalID":"{055C5B5C-7DE8-478D-BDBB-D70E369C1352}","Shape_Length":1094.078978516698,"Shape_Area":35167.073358378155},"geometry":{"type":"Polygon","coordinates":[[[32.166611,30.369233],[32.166588,30.370214],[32.168792,30.370251],[32.1688,30.369867],[32.169063,30.369871],[32.169055,30.370256],[32.170178,30.370274],[32.1702,30.369293],[32.169077,30.369274],[32.169066,30.369731],[32.168803,30.369727],[32.168814,30.36927],[32.166611,30.369233]]]}},
{"type":"Feature","properties":{"اسم_المحور":"2","اسم_القطاع":"10","اسم_المسطح":"ابار مياه","مساحة_كم2":0.03921991855451977,"GlobalID":"{5D251BA1-7260-4A10-90B5-0885756E72C3}","Shape_Length":925.88071481491352,"Shape_Area":39219.918554519769},"geometry":{"type":"Polygon","coordinates":[[[32.2301,30.360089],[32.23009,30.35898],[32.229046,30.358973],[32.229056,30.357767],[32.228007,30.357752],[32.227946,30.360108],[32.2301,30.360089]]]}},
{"type":"Feature","properties":{"اسم_المحور":"2","اسم_القطاع":"10","اسم_المسطح":"ابار مياه","مساحة_كم2":0.010753297953208207,"GlobalID":"{C6C49AE6-2345-4E48-B607-7E0AC61E149B}","Shape_Length":415.2904790043757,"Shape_Area":10753.297953208206},"geometry":{"type":"Polygon","coordinates":[[[32.187958,30.355789],[32.186913,30.355814],[32.186943,30.356779],[32.187957,30.356784],[32.187958,30.355789]]]}},
{"type":"Feature","properties":{"اسم_المحور":"2","اسم_القطاع":"10","اسم_المسطح":"ابار مياه","مساحة_كم2":0.0090590825169133103,"GlobalID":"{8AC578D8-9311-4512-92A4-6212C59D07BC}","Shape_Length":381.20030966624608,"Shape_Area":9059.0825169133095},"geometry":{"type":"Polygon","coordinates":[[[32.172915,30.383575],[32.171873,30.383588],[32.171887,30.384405],[32.172929,30.384391],[32.172915,30.383575]]]}},
{"type":"Feature","properties":{"اسم_المحور":"2","اسم_القطاع":"10","اسم_المسطح":"ابار مياه","مساحة_كم2":0.0089169224262275297,"GlobalID":"{E768AAC8-E26A-4D35-AE1C-8CA154EC6B3A}","Shape_Length":377.77420471030013,"Shape_Area":8916.9224262275293},"geometry":{"type":"Polygon","coordinates":[[[32.208215,30.394049],[32.208256,30.393248],[32.207257,30.393209],[32.207214,30.394046],[32.208215,30.394049]]]}},
{"type":"Feature","properties":{"اسم_المحور":"2","اسم_القطاع":"10","اسم_المسطح":"ابار مياه","مساحة_كم2":0.0056224448494844315,"GlobalID":"{CE81D072-5825-4644-98F3-6963242344C4}","Shape_Length":299.93501032096867,"Shape_Area":5622.4448494844319},"geometry":{"type":"Polygon","coordinates":[[[32.226782,30.399139],[32.226005,30.399148],[32.226016,30.399828],[32.226793,30.399819],[32.226782,30.399139]]]}},
{"type":"Feature","properties":{"اسم_المحور":"2","اسم_القطاع":"10","اسم_المسطح":"ابار مياه","مساحة_كم2":0.062863120865517291,"GlobalID":"{93B8B403-2FD9-43C9-A98A-7FE1CD75638F}","Shape_Length":1054.8929374883276,"Shape_Area":62863.120865517296},"geometry":{"type":"Polygon","coordinates":[[[32.214265,30.3569],[32.212363,30.356897],[32.212363,30.36001],[32.214249,30.360022],[32.214265,30.3569]]]}},
{"type":"Feature","properties":{"اسم_المحور":"2","اسم_القطاع":"10","اسم_المسطح":"ابار مياه","مساحة_كم2":0.0049458073658521359,"GlobalID":"{886FF30E-1422-41AA-A0C4-9D97C8CD738C}","Shape_Length":281.31284731969487,"Shape_Area":4945.8073658521362},"geometry":{"type":"Polygon","coordinates":[[[32.153783,30.390615],[32.153783,30.391245],[32.15452,30.391245],[32.15452,30.390615],[32.153783,30.390615]]]}},
{"type":"Feature","properties":{"اسم_المحور":"2","اسم_القطاع":"10","اسم_المسطح":"ابار مياه","مساحة_كم2":0.035626638406155757,"GlobalID":"{04A2F8C3-A7A1-4EBC-B4AD-B74921C717F9}","Shape_Length":758.35215246283849,"Shape_Area":35626.638406155755},"geometry":{"type":"Polygon","coordinates":[[[32.137537,30.407475],[32.136198,30.408943],[32.137606,30.409899],[32.138945,30.408431],[32.137537,30.407475]]]}},
{"type":"Feature","properties":{"اسم_المحور":"2","اسم_القطاع":"10","اسم_المسطح":"ابار مياه","مساحة_كم2":0.0062097863611727021,"GlobalID":"{D385301E-43F2-4677-AE1C-1D349BF7C0C1}","Shape_Length":315.45256975032117,"Shape_Area":6209.7863611727025},"geometry":{"type":"Polygon","coordinates":[[[32.124016,30.411587],[32.123204,30.411812],[32.123446,30.412463],[32.124259,30.412237],[32.124016,30.411587]]]}},
{"type":"Feature","properties":{"اسم_المحور":"2","اسم_القطاع":"10","اسم_المسطح":"ابار مياه","مساحة_كم2":0.02839357419449556,"GlobalID":"{9C704D2D-2E74-41E0-AA73-092E8F9FD9BE}","Shape_Length":674.02658248841863,"Shape_Area":28393.574194495559},"geometry":{"type":"Polygon","coordinates":[[[32.084072,30.416756],[32.082381,30.41719],[32.082882,30.418639],[32.084573,30.418205],[32.084072,30.416756]]]}},
{"type":"Feature","properties":{"اسم_المحور":"2","اسم_القطاع":"10","اسم_المسطح":"ابار مياه","مساحة_كم2":0.01193935430965681,"GlobalID":"{BD84064D-42BA-49C5-A612-B1BD3B44FD76}","Shape_Length":444.36508972069225,"Shape_Area":11939.35430965681},"geometry":{"type":"Polygon","coordinates":[[[32.109305,30.41729],[32.108953,30.416157],[32.108031,30.416351],[32.108389,30.417502],[32.109305,30.41729]]]}},
{"type":"Feature","properties":{"اسم_المحور":"2","اسم_القطاع":"10","اسم_المسطح":"ابار مياه","مساحة_كم2":0.0014138011181447233,"GlobalID":"{8C54C19D-2E05-49B3-8A1E-6362C96ED2C3}","Shape_Length":152.6768550683027,"Shape_Area":1413.8011181447232},"geometry":{"type":"Polygon","coordinates":[[[32.116165,30.393525],[32.115983,30.393762],[32.116371,30.393984],[32.116554,30.393747],[32.116165,30.393525]]]}},
{"type":"Feature","properties":{"اسم_المحور":"2","اسم_القطاع":"10","اسم_المسطح":"ابار مياه","مساحة_كم2":0.016524903254321328,"GlobalID":"{A66DE759-2F6D-493A-9841-8FD06B34718E}","Shape_Length":509.06716669286408,"Shape_Area":16524.903254321329},"geometry":{"type":"Polygon","coordinates":[[[32.106682,30.404841],[32.105697,30.405075],[32.105586,30.405178],[32.105938,30.40636],[32.107082,30.406063],[32.106682,30.404841]]]}},
{"type":"Feature","properties":{"اسم_المحور":"2","اسم_القطاع":"10","اسم_المسطح":"ابار مياه","مساحة_كم2":0.0040417452226379925,"GlobalID":"{2B852FA8-9F54-4C7D-B932-0C4460616E29}","Shape_Length":249.4641787927963,"Shape_Area":4041.7452226379924},"geometry":{"type":"Polygon","coordinates":[[[32.116033,30.438164],[32.115884,30.437727],[32.115371,30.437588],[32.115182,30.438109],[32.115765,30.438267],[32.116033,30.438164]]]}},
{"type":"Feature","properties":{"اسم_المحور":"2","اسم_القطاع":"10","اسم_المسطح":"ابار مياه","مساحة_كم2":0.016656688609450784,"GlobalID":"{84D07B01-D7D1-4298-943E-4EF7C8338364}","Shape_Length":517.39064883041874,"Shape_Area":16656.688609450783},"geometry":{"type":"Polygon","coordinates":[[[32.141432,30.42994],[32.140207,30.430184],[32.140532,30.431397],[32.141757,30.431152],[32.141432,30.42994]]]}},
{"type":"Feature","properties":{"اسم_المحور":"2","اسم_القطاع":"10","اسم_المسطح":"بركة","مساحة_كم2":0.054023494964521919,"GlobalID":"{B5B26036-2DC5-4EAE-9C1A-BB2D28E02D0A}","Shape_Length":1126.7224388805696,"Shape_Area":54023.494964521917},"geometry":{"type":"Polygon","coordinates":[[[32.074871,30.494058],[32.073219,30.492857],[32.072936,30.493151],[32.073415,30.493503],[32.071234,30.495709],[32.072421,30.496453],[32.074871,30.494058]]]}},
{"type":"Feature","properties":{"اسم_المحور":"2","اسم_القطاع":"10","اسم_المسطح":"ابار مياه","مساحة_كم2":0.011528487192618496,"GlobalID":"{A358EC51-C56E-450B-9F53-7B4ED51F04BE}","Shape_Length":471.93653581350839,"Shape_Area":11528.487192618497},"geometry":{"type":"Polygon","coordinates":[[[32.078434,30.502635],[32.078248,30.503254],[32.079949,30.503584],[32.080118,30.502994],[32.078434,30.502635]]]}},
{"type":"Feature","properties":{"اسم_المحور":"2","اسم_القطاع":"10","اسم_المسطح":"ابار مياه","مساحة_كم2":0.0034724174759370261,"GlobalID":"{F5473B4E-14F9-463D-B647-89B20886901C}","Shape_Length":236.02142684816607,"Shape_Area":3472.4174759370262},"geometry":{"type":"Polygon","coordinates":[[[32.11033,30.505492],[32.110231,30.50599],[32.110868,30.506084],[32.110967,30.505587],[32.11033,30.505492]]]}},
{"type":"Feature","properties":{"اسم_المحور":"2","اسم_القطاع":"10","اسم_المسطح":"ابار مياه","مساحة_كم2":0.0073583205919425399,"GlobalID":"{12B46E59-4830-4B32-A28F-1E442D106870}","Shape_Length":351.24707824819109,"Shape_Area":7358.32059194254},"geometry":{"type":"Polygon","coordinates":[[[32.117059,30.508244],[32.117319,30.507326],[32.116638,30.507171],[32.116326,30.508094],[32.117059,30.508244]]]}},
{"type":"Feature","properties":{"اسم_المحور":"2","اسم_القطاع":"10","اسم_المسطح":"احواض مياه","مساحة_كم2":0.017683407205807047,"GlobalID":"{57404C3C-3D9D-4336-8BCD-60A0845819A3}","Shape_Length":536.24488029524878,"Shape_Area":17683.407205807045},"geometry":{"type":"Polygon","coordinates":[[[32.065346,30.520708],[32.063828,30.520458],[32.063545,30.521491],[32.065116,30.521746],[32.065346,30.520708]]]}},
{"type":"Feature","properties":{"اسم_المحور":"2","اسم_القطاع":"10","اسم_المسطح":"بركة","مساحة_كم2":0.0026301962388395692,"GlobalID":"{9E0B4078-EBA2-4AA7-B5E3-E4D943CF91A9}","Shape_Length":240.06642695067401,"Shape_Area":2630.1962388395691},"geometry":{"type":"Polygon","coordinates":[[[31.551319,30.272716],[31.550981,30.272899],[31.551028,30.273055],[31.551166,30.273073],[31.551073,30.273245],[31.551475,30.273343],[31.551574,30.273191],[31.551483,30.27277],[31.551319,30.272716]]]}},
{"type":"Feature","properties":{"اسم_المحور":"2","اسم_القطاع":"10","اسم_المسطح":"ترع ومصارف","مساحة_كم2":0.016994519574692415,"GlobalID":"{F39C4782-959C-4040-9655-618C89A6BF17}","Shape_Length":1373.1974118514074,"Shape_Area":16994.519574692415},"geometry":{"type":"Polygon","coordinates":[[[32.346993,30.456329],[32.346502,30.456509],[32.34578,30.457464],[32.345165,30.457748],[32.343461,30.457679],[32.34103,30.456919],[32.341014,30.457155],[32.343413,30.457909],[32.345209,30.457978],[32.345628,30.457855],[32.345978,30.457622],[32.346679,30.45669],[32.346954,30.456587],[32.346993,30.456329]]]}},
{"type":"Feature","properties":{"اسم_المحور":"2","اسم_القطاع":"10","اسم_المسطح":"ترع ومصارف","مساحة_كم2":0.057213245633261786,"GlobalID":"{DE15AF7E-2516-4EF2-9395-64A0B06045D4}","Shape_Length":4482.421174001488,"Shape_Area":57213.245633261788},"geometry":{"type":"Polygon","coordinates":[[[32.335371,30.458197],[32.336393,30.458331],[32.337337,30.458236],[32.338176,30.457992],[32.338712,30.45772],[32.339198,30.457297],[32.339533,30.456779],[32.341014,30.457155],[32.34103,30.456919],[32.339407,30.456518],[32.338857,30.457289],[32.338114,30.457761],[32.336765,30.458088],[32.335035,30.458006],[32.333271,30.458948],[32.33303,30.459409],[32.332621,30.462365],[32.331684,30.465432],[32.33106,30.466318],[32.328821,30.468176],[32.328515,30.468857],[32.32835,30.470209],[32.328627,30.470156],[32.328784,30.468882],[32.329097,30.468235],[32.33125,30.466483],[32.331913,30.465565],[32.332905,30.462331],[32.333377,30.459232],[32.333649,30.458959],[32.334907,30.458299],[32.335371,30.458197]]]}},
{"type":"Feature","properties":{"اسم_المحور":"2","اسم_القطاع":"10","اسم_المسطح":"ترع ومصارف","مساحة_كم2":0.020513671693453046,"GlobalID":"{ADE907CA-054B-4195-B848-127E67CBB77A}","Shape_Length":1639.9891796857578,"Shape_Area":20513.671693453045},"geometry":{"type":"Polygon","coordinates":[[[32.328627,30.470156],[32.32835,30.470209],[32.328019,30.473359],[32.327839,30.474136],[32.327341,30.475324],[32.326305,30.47696],[32.326558,30.477047],[32.327595,30.475404],[32.328099,30.474195],[32.328287,30.473382],[32.328627,30.470156]]]}},
{"type":"Feature","properties":{"اسم_المحور":"2","اسم_القطاع":"10","اسم_المسطح":"ترع ومصارف","مساحة_كم2":0.012396187509121765,"GlobalID":"{D8670322-D73E-4CF8-B5DD-ECE4770968BC}","Shape_Length":1012.6220832837603,"Shape_Area":12396.187509121764},"geometry":{"type":"Polygon","coordinates":[[[32.326305,30.47696],[32.32474,30.479478],[32.323646,30.480579],[32.323889,30.480697],[32.324967,30.479602],[32.326558,30.477047],[32.326305,30.47696]]]}},
{"type":"Feature","properties":{"اسم_المحور":"2","اسم_القطاع":"10","اسم_المسطح":"ترع ومصارف","مساحة_كم2":0.012219059064641758,"GlobalID":"{85BD5D96-F875-4F12-BE56-DE5B658850E4}","Shape_Length":997.13517077971801,"Shape_Area":12219.059064641759},"geometry":{"type":"Polygon","coordinates":[[[32.315781,30.488817],[32.315889,30.493083],[32.316159,30.493106],[32.316052,30.488851],[32.315781,30.488817]]]}}
]
}
