{"type":"FeatureCollection","features":[{"type":"Feature","properties":{"source_layer":"Axis_Road","source_feature_count":1,"اسم_المحور":"1","طول_المحور_كم":281820.5001364709,"اسم_القطاع":"7","اس_المحافظة":"10","Shape_Length":281820.5001453425},"geometry":{"type":"MultiLineString","coordinates":[[[31.623118,22.337817,0],[31.619911,22.339527,0],[31.615779,22.341024,0],[31.615066,22.342306,0],[31.614995,22.343874,0],[31.615473,22.345486,0],[31.615796,22.345916,0],[31.615231,22.346402,0],[31.608012,22.355773,0],[31.604022,22.362613,0],[31.605091,22.374726,0],[31.588418,22.396956,0],[31.57545,22.414555,0],[31.561841,22.432582,0],[31.557922,22.438638,0],[31.541606,22.472839,0],[31.529849,22.495925,0],[31.528709,22.498775,0],[31.52593,22.516303,0],[31.524078,22.523428,0],[31.515528,22.558341,0],[31.502489,22.609571,0],[31.500351,22.618763,0],[31.487455,22.657096,0],[31.485816,22.662939,0],[31.470942,22.719217,0],[31.470319,22.720268,0],[31.469103,22.723429,0],[31.446203,22.752892,0],[31.445593,22.754154,0],[31.438459,22.776286,0],[31.435946,22.78342,0],[31.436027,22.785447,0],[31.437648,22.787474,0],[31.443684,22.792955,0],[31.464948,22.814219,0],[31.473632,22.821122,0],[31.478642,22.835261,0],[31.480423,22.838044,0],[31.539094,22.882242,0],[31.548112,22.888699,0],[31.602553,22.90629,0],[31.609232,22.907848,0],[31.615801,22.909184,0],[31.70127,22.926155,0],[31.724234,22.934801,0],[31.726569,22.935809,0],[31.727764,22.936669,0],[31.729531,22.93856,0],[31.744853,22.965875,0],[31.753836,22.983523,0],[31.774497,23.022812,0],[31.774983,23.023391,0],[31.779858,23.032488,0],[31.782641,23.038147,0],[31.784471,23.04037,0],[31.785816,23.04136,0],[31.78742,23.042233,0],[31.814474,23.05344,0],[31.817013,23.054753,0],[31.820165,23.057993,0],[31.845906,23.085747,0],[31.912566,23.149357,0],[31.972812,23.199352,0],[31.979698,23.205235,0],[32.004011,23.223026,0],[32.046493,23.253413,0],[32.069794,23.270929,0],[32.11511,23.306626,0],[32.135061,23.322515,0],[32.157569,23.362447,0],[32.208555,23.436401,0],[32.210831,23.439436,0],[32.278854,23.495873,0],[32.280432,23.496829,0],[32.282042,23.497514,0],[32.284027,23.497952,0],[32.320872,23.499629,0],[32.32231,23.499928,0],[32.323711,23.50047,0],[32.335074,23.506739,0],[32.33615,23.50754,0],[32.337417,23.508986,0],[32.338252,23.510297,0],[32.354128,23.552527,0],[32.384169,23.614074,0],[32.385305,23.615676,0],[32.387361,23.617254,0],[32.413926,23.6292,0],[32.415562,23.630187,0],[32.417576,23.632435,0],[32.432518,23.662962,0],[32.442995,23.685609,0],[32.474398,23.766947,0],[32.495601,23.840033,0],[32.496228,23.841886,0],[32.523212,23.913996,0],[32.52422,23.915902,0],[32.525608,23.917552,0],[32.527313,23.918811,0],[32.550521,23.92998,0],[32.59746,23.948007,0],[32.601074,23.949367,0],[32.603412,23.949963,0],[32.65928,23.956978,0],[32.719338,23.965221,0],[32.779175,23.974364,0],[32.792236,23.975507,0],[32.821614,23.985161,0],[32.82333,23.985395,0],[32.824099,23.985373,0],[32.830385,23.984359,0],[32.832325,23.984247,0],[32.833815,23.984487,0],[32.838223,23.986088,0]],[[32.838223,23.986088,0],[32.849065,23.989935,0],[32.851029,23.990159,0],[32.852989,23.989796,0],[32.853376,23.990004,0],[32.853713,23.991321,0],[32.853764,23.996503,0],[32.8521,24.012781,0],[32.852319,24.013459,0],[32.852758,24.01404,0],[32.857571,24.017689,0],[32.858056,24.018183,0],[32.858393,24.018771,0],[32.858502,24.019345,0],[32.858443,24.020021,0],[32.857459,24.02238,0],[32.857369,24.023169,0],[32.858859,24.028909,0],[32.858613,24.029258,0],[32.856207,24.030001,0],[32.854689,24.030718,0],[32.85218,24.03248,0],[32.850663,24.033705,0],[32.837739,24.046597,0],[32.836978,24.047542,0],[32.83625,24.048849,0],[32.83586,24.049968,0],[32.833737,24.058971,0],[32.828489,24.084365,0],[32.820535,24.116502,0]]]}},{"type":"Feature","properties":{"source_layer":"Axis_Road","source_feature_count":1,"اسم_المحور":"1","طول_المحور_كم":112681.50627491131,"اسم_القطاع":"1","اس_المحافظة":"6","Shape_Length":112681.50627491131},"geometry":{"type":"LineString","coordinates":[[31.138182,26.825344,0],[31.127189,26.832235,0],[31.125934,26.833454,0],[31.125016,26.834742,0],[31.124231,26.836497,0],[31.123993,26.83734,0],[31.12388,26.838414,0],[31.123286,26.906694,0],[31.123381,26.907843,0],[31.124046,26.909889,0],[31.130033,26.919382,0],[31.130838,26.921116,0],[31.132537,26.929519,0],[31.132673,26.93059,0],[31.13268,26.932284,0],[31.132341,26.952488,0],[31.132142,26.954469,0],[31.131805,26.955612,0],[31.131139,26.956853,0],[31.12546,26.965378,0],[31.123986,26.967111,0],[31.123551,26.967436,0],[31.121692,26.968649,0],[31.100134,26.97886,0],[31.084324,26.990336,0],[31.076003,26.996553,0],[31.073858,26.998442,0],[31.072288,27.000843,0],[31.063416,27.016474,0],[31.051243,27.039404,0],[31.041269,27.050211,0],[31.028815,27.063246,0],[31.025728,27.066862,0],[31.021297,27.071057,0],[31.019177,27.075307,0],[31.017253,27.083117,0],[31.015742,27.094592,0],[31.015142,27.101598,0],[31.013875,27.105412,0],[31.011603,27.106391,0],[31.006933,27.107669,0],[30.947876,27.120988,0],[30.937002,27.120839,0],[30.933197,27.120891,0],[30.925074,27.124171,0],[30.917689,27.126348,0],[30.915927,27.127671,0],[30.906372,27.138729,0],[30.892942,27.150059,0],[30.88822,27.153148,0],[30.886573,27.155217,0],[30.87517,27.179637,0],[30.87104,27.18582,0],[30.868104,27.188995,0],[30.867832,27.189145,0],[30.866953,27.19024,0],[30.864672,27.196454,0],[30.858216,27.205764,0],[30.855403,27.207941,0],[30.840922,27.214118,0],[30.836645,27.218142,0],[30.816532,27.240158,0],[30.792715,27.264575,0],[30.786134,27.270968,0],[30.779485,27.277142,0],[30.770562,27.286632,0],[30.767697,27.290885,0],[30.764988,27.292795,0],[30.745048,27.305133,0],[30.74188,27.307231,0],[30.739902,27.308049,0],[30.735065,27.308308,0],[30.730852,27.308912,0],[30.724239,27.310632,0],[30.719668,27.312189,0],[30.715761,27.31462,0],[30.703671,27.325174,0],[30.695177,27.332977,0],[30.690231,27.337347,0],[30.686384,27.339505,0],[30.674952,27.344042,0],[30.671161,27.346058,0],[30.669059,27.347752,0],[30.667132,27.352499,0],[30.666406,27.356309,0],[30.665748,27.362071,0],[30.664986,27.366808,0],[30.664358,27.3695,0],[30.650451,27.401019,0],[30.650995,27.403987,0],[30.658621,27.425557,0],[30.659672,27.430922,0],[30.658998,27.435578,0],[30.657787,27.439021,0],[30.654775,27.448723,0],[30.64968,27.468477,0],[30.648434,27.488035,0],[30.648573,27.49479,0],[30.649378,27.496897,0],[30.650136,27.497957,0],[30.668033,27.517601,0],[30.670022,27.51962,0],[30.670904,27.521174,0],[30.672317,27.525522,0],[30.674176,27.530575,0],[30.674523,27.532975,0],[30.674302,27.534163,0],[30.673221,27.53702,0],[30.672126,27.540453,0],[30.659999,27.575411,0],[30.656865,27.585145,0],[30.64527,27.606153,0]]}},{"type":"Feature","properties":{"source_layer":"Axis_Road","source_feature_count":1,"اسم_المحور":"1","طول_المحور_كم":37671.80365277823,"اسم_القطاع":"9","اس_المحافظة":"4","Shape_Length":37671.80365277823},"geometry":{"type":"LineString","coordinates":[[30.677836,28.768595,0],[30.695813,28.788423,0],[30.699907,28.792577,0],[30.701088,28.7939,0],[30.701893,28.795462,0],[30.734525,28.875225,0],[30.738089,28.883856,0],[30.738249,28.883677,0],[30.752838,28.919258,0],[30.755459,28.925747,0],[30.755529,28.926727,0],[30.772267,28.967389,0],[30.819329,29.082604,0]]}},{"type":"Feature","properties":{"source_layer":"Axis_Road","source_feature_count":1,"اسم_المحور":"1","طول_المحور_كم":26482.74264578877,"اسم_القطاع":"3","اس_المحافظة":"1","Shape_Length":26439.16430085544},"geometry":{"type":"LineString","coordinates":[[31.024383,29.722455,0],[31.02547,29.747678,0],[31.025716,29.749783,0],[31.026246,29.751847,0],[31.027053,29.753842,0],[31.054068,29.811081,0],[31.055151,29.813536,0],[31.055657,29.815124,0],[31.055815,29.816359,0],[31.055802,29.817603,0],[31.05546,29.819443,0],[31.051452,29.828828,0],[31.050901,29.83042,0],[31.050702,29.832011,0],[31.051,29.833806,0],[31.052057,29.835912,0],[31.054202,29.838894,0],[31.062275,29.852002,0],[31.067757,29.860452,0],[31.07162,29.866859,0],[31.07358,29.870457,0],[31.077246,29.879917,0],[31.095108,29.923564,0],[31.09584,29.92583,0],[31.096627,29.929121,0],[31.097048,29.932195,0],[31.097531,29.938511,0],[31.09778,29.939566,0],[31.098582,29.941385,0],[31.100749,29.944319,0],[31.101596,29.945786,0]]}},{"type":"Feature","properties":{"source_layer":"Axis_Road","source_feature_count":1,"اسم_المحور":"1","طول_المحور_كم":138483.14728322977,"اسم_القطاع":"4","اس_المحافظة":"5","Shape_Length":138483.14728322977},"geometry":{"type":"LineString","coordinates":[[30.64527,27.606153,0],[30.636989,27.621339,0],[30.631299,27.628596,0],[30.628709,27.632578,0],[30.624951,27.641843,0],[30.612833,27.658333,0],[30.609791,27.663413,0],[30.606326,27.678835,0],[30.592125,27.734981,0],[30.581987,27.758225,0],[30.567004,27.79181,0],[30.565252,27.797289,0],[30.55379,27.86547,0],[30.555308,27.877542,0],[30.557521,27.903777,0],[30.55813,27.905427,0],[30.559218,27.907661,0],[30.563448,27.912899,0],[30.564741,27.916286,0],[30.565293,27.922399,0],[30.569953,27.962034,0],[30.573135,27.986633,0],[30.574891,28.001308,0],[30.574723,28.003086,0],[30.574275,28.005017,0],[30.566876,28.015006,0],[30.563269,28.019322,0],[30.559342,28.023239,0],[30.542017,28.037559,0],[30.539357,28.03981,0],[30.537892,28.041247,0],[30.536188,28.043392,0],[30.520951,28.067791,0],[30.520211,28.069488,0],[30.519779,28.071281,0],[30.519687,28.072487,0],[30.519862,28.074037,0],[30.527121,28.0983,0],[30.529597,28.107198,0],[30.529141,28.110681,0],[30.528779,28.111979,0],[30.519549,28.141267,0],[30.519044,28.143528,0],[30.514952,28.17832,0],[30.514924,28.181323,0],[30.51517,28.182266,0],[30.525529,28.201392,0],[30.532532,28.226199,0],[30.533379,28.228449,0],[30.533616,28.229552,0],[30.535474,28.231504,0],[30.561212,28.254769,0],[30.561966,28.255718,0],[30.5631,28.257812,0],[30.563181,28.260721,0],[30.557645,28.299731,0],[30.558105,28.304015,0],[30.561413,28.318744,0],[30.561522,28.320311,0],[30.557679,28.346343,0],[30.557683,28.349034,0],[30.559457,28.374711,0],[30.55973,28.380032,0],[30.559682,28.381721,0],[30.559561,28.383069,0],[30.559165,28.384289,0],[30.55528,28.401104,0],[30.551545,28.415342,0],[30.550748,28.418786,0],[30.550828,28.420566,0],[30.549919,28.468368,0],[30.550708,28.470843,0],[30.551441,28.472016,0],[30.588342,28.5139,0],[30.594666,28.520811,0],[30.613211,28.542549,0],[30.613714,28.54378,0],[30.614818,28.550961,0],[30.621124,28.625774,0],[30.624408,28.669536,0],[30.625936,28.691771,0],[30.627954,28.712452,0],[30.628311,28.713602,0],[30.62888,28.714712,0],[30.630113,28.71621,0],[30.665781,28.75522,0],[30.677824,28.768582,0]]}},{"type":"Feature","properties":{"source_layer":"Axis_Road","source_feature_count":1,"اسم_المحور":"1","طول_المحور_كم":133289.3358714465,"اسم_القطاع":"11","اس_المحافظة":"8","Shape_Length":133289.3358714465},"geometry":{"type":"LineString","coordinates":[[32.654106,25.782323,0],[32.662459,25.788264,0],[32.663516,25.789311,0],[32.693213,25.828048,0],[32.693752,25.828897,0],[32.694287,25.830086,0],[32.694517,25.831215,0],[32.694522,25.832275,0],[32.694269,25.83384,0],[32.694003,25.834579,0],[32.680576,25.86721,0],[32.680263,25.868675,0],[32.680401,25.87039,0],[32.68068,25.871557,0],[32.694102,25.908191,0],[32.697488,25.918868,0],[32.705374,25.94063,0],[32.70701,25.944432,0],[32.709196,25.950028,0],[32.711004,25.955179,0],[32.712954,25.96132,0],[32.720049,25.974469,0],[32.720793,25.976062,0],[32.722707,25.979288,0],[32.723381,25.980775,0],[32.726223,25.985606,0],[32.726847,25.986301,0],[32.728172,25.987302,0],[32.735395,25.991099,0],[32.737309,25.992334,0],[32.738761,25.993562,0],[32.741119,25.996065,0],[32.742465,25.997843,0],[32.743303,26.000009,0],[32.743673,26.00238,0],[32.744295,26.003011,0],[32.745823,26.012829,0],[32.746468,26.018324,0],[32.749735,26.039229,0],[32.748335,26.048513,0],[32.749216,26.054702,0],[32.749087,26.055739,0],[32.743138,26.071994,0],[32.740075,26.079417,0],[32.738826,26.083058,0],[32.737624,26.085081,0],[32.736827,26.086831,0],[32.73263,26.098018,0],[32.728826,26.104698,0],[32.725127,26.112987,0],[32.723952,26.114596,0],[32.723073,26.115496,0],[32.718719,26.119192,0],[32.717425,26.120012,0],[32.691818,26.127329,0],[32.687206,26.128311,0],[32.68606,26.128322,0],[32.685186,26.128098,0],[32.682832,26.126958,0],[32.611423,26.082425,0],[32.522395,26.047165,0],[32.474223,26.013083,0],[32.402503,25.961917,0],[32.399511,25.960445,0],[32.397195,25.959987,0],[32.312069,25.954068,0],[32.31074,25.954515,0],[32.310369,25.954901,0],[32.30999,25.956165,0],[32.309637,25.958384,0],[32.309422,25.958938,0],[32.308448,25.9593,0],[32.273009,25.961111,0],[32.209793,25.963778,0],[32.208236,25.964149,0],[32.206885,25.964584,0],[32.205344,25.965297,0],[32.129077,26.002773,0],[32.11557,26.00927,0],[32.114336,26.009553,0],[32.112366,26.009673,0],[32.093975,26.0104,0],[32.085005,26.010387,0],[32.082252,26.010563,0],[32.081094,26.01076,0],[32.079326,26.011315,0],[32.054534,26.021289,0],[32.044133,26.025804,0],[32.042536,26.026918,0],[32.041887,26.027645,0],[32.036536,26.034984,0],[32.035494,26.036133,0],[32.03464,26.036844,0],[32.033489,26.037336,0],[32.021815,26.040875,0],[32.020373,26.041039,0],[32.011582,26.041023,0],[32.010254,26.041203,0],[32.009649,26.041406,0],[32.008362,26.042143,0],[31.969472,26.070055,0],[31.968354,26.070721,0],[31.966639,26.071498,0],[31.964617,26.071796,0],[31.92901,26.067037,0],[31.926115,26.067147,0],[31.924966,26.067384,0],[31.9236,26.067832,0],[31.901412,26.078069,0]]}},{"type":"Feature","properties":{"source_layer":"Axis_Road","source_feature_count":1,"اسم_المحور":"1","طول_المحور_كم":129983.00068004953,"اسم_القطاع":"8","اس_المحافظة":"7","Shape_Length":129983.00068004953},"geometry":{"type":"LineString","coordinates":[[31.901413,26.078068,0],[31.896669,26.080169,0],[31.895872,26.080373,0],[31.89442,26.080514,0],[31.893384,26.080405,0],[31.891618,26.079875,0],[31.881307,26.074835,0],[31.879758,26.074335,0],[31.878322,26.074273,0],[31.87215,26.075303,0],[31.820153,26.078925,0],[31.814272,26.080548,0],[31.809427,26.082045,0],[31.807956,26.082626,0],[31.806122,26.08399,0],[31.803322,26.086912,0],[31.802119,26.08794,0],[31.800874,26.088639,0],[31.798217,26.089578,0],[31.797294,26.090193,0],[31.791681,26.095367,0],[31.79072,26.097122,0],[31.790479,26.097808,0],[31.789425,26.099044,0],[31.788598,26.099594,0],[31.787834,26.099919,0],[31.785857,26.10037,0],[31.785434,26.100563,0],[31.782441,26.102745,0],[31.781248,26.103443,0],[31.779875,26.103901,0],[31.777578,26.104428,0],[31.775519,26.104471,0],[31.774248,26.104128,0],[31.772298,26.103034,0],[31.770286,26.102336,0],[31.761518,26.101485,0],[31.760506,26.10144,0],[31.75967,26.101583,0],[31.757966,26.102499,0],[31.75706,26.103341,0],[31.753897,26.107175,0],[31.752186,26.108341,0],[31.750619,26.108758,0],[31.749465,26.108777,0],[31.748017,26.108535,0],[31.746476,26.107671,0],[31.744649,26.106113,0],[31.744005,26.105728,0],[31.743201,26.105386,0],[31.74137,26.105022,0],[31.739853,26.105085,0],[31.737969,26.105463,0],[31.73556,26.105527,0],[31.661318,26.098649,0],[31.660167,26.09857,0],[31.659123,26.098696,0],[31.656646,26.099287,0],[31.655056,26.099973,0],[31.654081,26.100613,0],[31.652667,26.101874,0],[31.651906,26.102793,0],[31.607925,26.168788,0],[31.607052,26.170308,0],[31.605986,26.172704,0],[31.605224,26.17507,0],[31.604582,26.177842,0],[31.599314,26.224525,0],[31.598449,26.230425,0],[31.597373,26.233761,0],[31.578307,26.270594,0],[31.57713,26.272441,0],[31.576189,26.273353,0],[31.574748,26.274304,0],[31.541058,26.287746,0],[31.538684,26.288156,0],[31.531718,26.288129,0],[31.525812,26.288815,0],[31.523805,26.289693,0],[31.522389,26.290458,0],[31.521411,26.291261,0],[31.520624,26.292095,0],[31.514119,26.301317,0],[31.499333,26.322996,0],[31.498178,26.324921,0],[31.495783,26.330237,0],[31.490494,26.340906,0],[31.488667,26.349817,0],[31.48748,26.351812,0],[31.486843,26.35251,0],[31.475882,26.362147,0],[31.471493,26.364766,0],[31.470634,26.365536,0],[31.469961,26.366296,0],[31.465208,26.373795,0],[31.464491,26.375227,0],[31.464199,26.376337,0],[31.462505,26.384234,0],[31.462345,26.385342,0],[31.462514,26.387917,0],[31.463142,26.395195,0],[31.463594,26.39664,0],[31.46834,26.404299,0],[31.468723,26.405753,0],[31.468544,26.413108,0],[31.468288,26.417423,0],[31.46788,26.418744,0],[31.467467,26.419507,0],[31.464652,26.426287,0],[31.461634,26.434276,0],[31.460931,26.436537,0],[31.442961,26.439979,0],[31.437541,26.442177,0],[31.428112,26.445009,0],[31.426916,26.445502,0],[31.425752,26.446467,0],[31.422625,26.450503,0],[31.420798,26.454403,0],[31.420389,26.463897,0],[31.417241,26.473539,0],[31.416374,26.474581,0],[31.414978,26.47518,0],[31.392767,26.483317,0],[31.350183,26.505579,0],[31.34961,26.506063,0],[31.34895,26.506911,0],[31.334248,26.530842,0],[31.332966,26.533372,0],[31.321405,26.574793,0],[31.321145,26.576817,0],[31.320744,26.588648,0],[31.320548,26.589819,0],[31.320271,26.590607,0],[31.319739,26.591573,0],[31.316275,26.596432,0],[31.309692,26.605196,0],[31.288547,26.632787,0],[31.287656,26.633721,0],[31.282017,26.638165,0],[31.280715,26.63987,0],[31.28009,26.641022,0],[31.275611,26.657524,0],[31.275393,26.658653,0],[31.275307,26.65927,0],[31.275503,26.669618,0],[31.275469,26.67681,0],[31.275302,26.678245,0],[31.275033,26.679184,0],[31.27396,26.681311,0],[31.273106,26.682325,0],[31.271942,26.683358,0],[31.269744,26.684754,0],[31.268959,26.68505,0],[31.229163,26.69628,0],[31.227446,26.697162,0],[31.226541,26.697807,0],[31.225655,26.698726,0],[31.224935,26.69952,0],[31.224322,26.700561,0],[31.223663,26.702104,0],[31.219775,26.715131,0],[31.219096,26.716562,0],[31.218217,26.717826,0],[31.209651,26.728563,0],[31.205113,26.734448,0],[31.19788,26.746421,0],[31.195071,26.751808,0],[31.187213,26.767486,0],[31.186365,26.769426,0],[31.180844,26.789199,0],[31.180306,26.790354,0],[31.179362,26.791836,0],[31.172187,26.802758,0],[31.170844,26.804347,0],[31.169585,26.805345,0],[31.13818,26.825345,0]]}},{"type":"Feature","properties":{"source_layer":"Axis_Road","source_feature_count":1,"اسم_المحور":"1","طول_المحور_كم":106510.7009495588,"اسم_القطاع":"2","اس_المحافظة":"10","Shape_Length":106510.70094955883},"geometry":{"type":"LineString","coordinates":[[32.820535,24.116502,0],[32.81673,24.13282,0],[32.814061,24.144993,0],[32.812206,24.155434,0],[32.809909,24.166632,0],[32.801783,24.209749,0],[32.791028,24.247631,0],[32.7894,24.254002,0],[32.784545,24.276186,0],[32.760439,24.392513,0],[32.757229,24.407167,0],[32.748964,24.446738,0],[32.721513,24.579177,0],[32.720394,24.585402,0],[32.713633,24.617826,0],[32.712553,24.622279,0],[32.700291,24.680936,0],[32.696477,24.697191,0],[32.692743,24.715937,0],[32.679145,24.78,0],[32.676796,24.792009,0],[32.672641,24.810836,0],[32.671486,24.816906,0],[32.66769,24.833876,0],[32.644291,24.917548,0],[32.643636,24.919554,0],[32.642648,24.920879,0],[32.640799,24.922209,0],[32.612171,24.94087,0],[32.611268,24.941732,0],[32.610643,24.94278,0],[32.597508,24.992597,0],[32.594669,25.002668,0],[32.58376,25.044101,0]]}},{"type":"Feature","properties":{"source_layer":"Axis_Road","source_feature_count":1,"اسم_المحور":"1","طول_المحور_كم":118508.0787089132,"اسم_القطاع":"12","اس_المحافظة":"9","Shape_Length":118508.07870891315},"geometry":{"type":"LineString","coordinates":[[32.58376,25.044101,0],[32.57579,25.075039,0],[32.538674,25.216383,0],[32.537596,25.217921,0],[32.536034,25.219063,0],[32.508126,25.232278,0],[32.506721,25.233127,0],[32.505579,25.234224,0],[32.504814,25.235291,0],[32.452315,25.319318,0],[32.43713,25.341948,0],[32.426804,25.356956,0],[32.426028,25.358386,0],[32.42553,25.359915,0],[32.424235,25.366291,0],[32.402084,25.479269,0],[32.401418,25.482486,0],[32.400902,25.483641,0],[32.399642,25.485245,0],[32.397934,25.486501,0],[32.378305,25.499375,0],[32.375404,25.500966,0],[32.373599,25.501683,0],[32.3229,25.519318,0],[32.321555,25.519952,0],[32.320616,25.520533,0],[32.290689,25.544433,0],[32.290284,25.544801,0],[32.289847,25.545454,0],[32.289646,25.545998,0],[32.289586,25.546734,0],[32.28982,25.547631,0],[32.290404,25.548422,0],[32.291078,25.548908,0],[32.292498,25.549372,0],[32.347337,25.565485,0],[32.349367,25.565795,0],[32.351127,25.565923,0],[32.383211,25.567537,0],[32.385631,25.567785,0],[32.38747,25.568154,0],[32.389571,25.568787,0],[32.4058,25.576042,0],[32.407499,25.576704,0],[32.409691,25.577331,0],[32.419816,25.579484,0],[32.421804,25.579766,0],[32.423815,25.579761,0],[32.431383,25.578698,0],[32.43262,25.578677,0],[32.452008,25.581187,0],[32.454261,25.581607,0],[32.454483,25.581837,0],[32.454581,25.582182,0],[32.452083,25.588245,0],[32.451724,25.589921,0],[32.45185,25.591098,0],[32.45219,25.592024,0],[32.454445,25.596479,0],[32.466753,25.605961,0],[32.471067,25.609127,0],[32.472594,25.610078,0],[32.473445,25.610324,0],[32.480852,25.610658,0],[32.481778,25.610798,0],[32.482428,25.611041,0],[32.483684,25.612164,0],[32.506788,25.635818,0],[32.507365,25.636126,0],[32.508031,25.636284,0],[32.509429,25.636344,0],[32.519654,25.63333,0],[32.520717,25.633331,0],[32.52142,25.633547,0],[32.523074,25.634579,0],[32.545083,25.651571,0],[32.571806,25.67305,0],[32.573777,25.674983,0],[32.582418,25.681755,0],[32.5838,25.683045,0],[32.58485,25.683699,0],[32.586294,25.684222,0],[32.612982,25.688259,0],[32.613971,25.688634,0],[32.614361,25.688903,0],[32.614949,25.689904,0],[32.618247,25.697115,0],[32.633988,25.732753,0],[32.634446,25.733516,0],[32.634923,25.734023,0],[32.63881,25.737262,0],[32.642478,25.74193,0],[32.649164,25.749107,0],[32.64094,25.755217,0],[32.638841,25.757206,0],[32.638227,25.758154,0],[32.637846,25.759241,0],[32.637654,25.760529,0],[32.637751,25.761322,0],[32.641069,25.771314,0],[32.641788,25.772617,0],[32.642467,25.773506,0],[32.644014,25.775034,0],[32.654106,25.782323,0]]}},{"type":"Feature","properties":{"source_layer":"Axis_Road","source_feature_count":1,"اسم_المحور":"1","طول_المحور_كم":89570.12713251484,"اسم_القطاع":"6","اس_المحافظة":"3","Shape_Length":89570.12713251484},"geometry":{"type":"LineString","coordinates":[[30.819322,29.082587,0],[30.826425,29.100021,0],[30.836834,29.116723,0],[30.838998,29.119672,0],[30.855411,29.131842,0],[30.856979,29.133225,0],[30.8586,29.136363,0],[30.863895,29.150287,0],[30.8651,29.152054,0],[30.893852,29.173318,0],[30.898511,29.176563,0],[30.901209,29.178604,0],[30.902914,29.180513,0],[30.903787,29.182432,0],[30.904346,29.185522,0],[30.907391,29.23259,0],[30.907765,29.233637,0],[30.907991,29.23477,0],[30.910256,29.238952,0],[30.918563,29.25301,0],[30.919768,29.254644,0],[30.920573,29.255509,0],[30.921737,29.256456,0],[30.923187,29.257413,0],[30.925,29.258342,0],[30.928909,29.260079,0],[30.95086,29.269231,0],[30.961318,29.273473,0],[30.962772,29.274203,0],[30.963743,29.274772,0],[30.964957,29.275888,0],[30.967637,29.279718,0],[30.969543,29.282028,0],[30.971064,29.283392,0],[30.973751,29.284814,0],[30.975702,29.285267,0],[31.008259,29.291253,0],[31.045845,29.29838,0],[31.04866,29.299057,0],[31.05093,29.300324,0],[31.05225,29.301595,0],[31.076532,29.33668,0],[31.077607,29.339298,0],[31.077888,29.341678,0],[31.079526,29.367735,0],[31.080003,29.369163,0],[31.081105,29.37079,0],[31.083057,29.372418,0],[31.118399,29.405011,0],[31.124504,29.410774,0],[31.125946,29.411961,0],[31.127298,29.413946,0],[31.127959,29.415389,0],[31.132961,29.429316,0],[31.133017,29.43206,0],[31.132172,29.434817,0],[31.129912,29.437538,0],[31.126018,29.441216,0],[31.098676,29.464747,0],[31.096529,29.467325,0],[31.095166,29.469811,0],[31.04935,29.581987,0],[31.033846,29.609214,0],[31.018381,29.636681,0],[31.006646,29.656653,0],[31.005746,29.658376,0],[31.005353,29.660103,0],[31.005354,29.661981,0],[31.005583,29.664012,0],[31.007746,29.668086,0],[31.021601,29.691713,0],[31.02211,29.693187,0],[31.022677,29.695206,0],[31.022905,29.696836,0],[31.02291,29.700851,0],[31.023698,29.718403,0],[31.024383,29.722455,0]]}}]}