{
  "type": "FeatureCollection",
  "name": "Agricultural_Changes",
  "crs": {
    "type": "name",
    "properties": {
      "name": "urn:ogc:def:crs:OGC:1.3:CRS84"
    }
  },
  "xy_coordinate_resolution": 8.98315e-10,
  "z_coordinate_resolution": 0.0001,
  "features": [
    {
      "type": "Feature",
      "properties": {
        "سعر_الايجار_زراعية_2024": null,
        "نوع_ملكية_الأرض": null,
        "أنواع_المحاصيل_المزروعة": null,
        "اسم_المحور": "5",
        "المساحة_كم2": 0.0004376688174781059,
        "نسبة_المساحة": null,
        "المساحة_فدان": null,
        "فرق_السعر": null,
        "اسم_القطاع": "17",
        "وصف_الاستخدام": "ارض زراعية",
        "GlobalID": "{8AC4D50B-9F0D-499D-A132-17FFA65BB4B1}",
        "Shape_Length": 90.45033108526597,
        "Shape_Area": 437.6688174781059,
        "landuse_code": "",
        "landuse_label": "ارض زراعية",
        "change_status_key": "changed"
      },
      "geometry": {
        "type": "MultiPolygon",
        "coordinates": [
          [
            [
              [
                31.1849089688,
                30.1084223256
              ],
              [
                31.1850522533,
                30.1084397654
              ],
              [
                31.1850966584,
                30.1081667584
              ],
              [
                31.1849528375,
                30.1081386091
              ],
              [
                31.1849089688,
                30.1084223256
              ]
            ]
          ]
        ]
      }
    },
    {
      "type": "Feature",
      "properties": {
        "سعر_الايجار_زراعية_2024": null,
        "نوع_ملكية_الأرض": null,
        "أنواع_المحاصيل_المزروعة": null,
        "اسم_المحور": "5",
        "المساحة_كم2": 0.0018097687620176686,
        "نسبة_المساحة": null,
        "المساحة_فدان": null,
        "فرق_السعر": null,
        "اسم_القطاع": "17",
        "وصف_الاستخدام": "ارض زراعية",
        "GlobalID": "{5FA6CD11-4F94-4129-8531-C4FA21F59C00}",
        "Shape_Length": 277.21037138707993,
        "Shape_Area": 1809.7687620176687,
        "landuse_code": "",
        "landuse_label": "ارض زراعية",
        "change_status_key": "changed"
      },
      "geometry": {
        "type": "MultiPolygon",
        "coordinates": [
          [
            [
              [
                31.1849937383,
                30.1079961536
              ],
              [
                31.185134093,
                30.1080236253
              ],
              [
                31.1854196,
                30.1069320031
              ],
              [
                31.185264107,
                30.1069032165
              ],
              [
                31.1849937383,
                30.1079961536
              ]
            ]
          ]
        ]
      }
    },
    {
      "type": "Feature",
      "properties": {
        "سعر_الايجار_زراعية_2024": null,
        "نوع_ملكية_الأرض": null,
        "أنواع_المحاصيل_المزروعة": null,
        "اسم_المحور": "5",
        "المساحة_كم2": 0.0014521884618251299,
        "نسبة_المساحة": null,
        "المساحة_فدان": null,
        "فرق_السعر": null,
        "اسم_القطاع": "17",
        "وصف_الاستخدام": "ارض زراعية",
        "GlobalID": "{2CD3857A-7F45-4FEE-88DB-C80B3E53A10B}",
        "Shape_Length": 250.14106522008527,
        "Shape_Area": 1452.18846182513,
        "landuse_code": "",
        "landuse_label": "ارض زراعية",
        "change_status_key": "changed"
      },
      "geometry": {
        "type": "MultiPolygon",
        "coordinates": [
          [
            [
              [
                31.1843387264,
                30.1038523847
              ],
              [
                31.184334026,
                30.1038015888
              ],
              [
                31.1843064066,
                30.103503182
              ],
              [
                31.1842962542,
                30.1033934986
              ],
              [
                31.1842426924,
                30.102814805
              ],
              [
                31.1841007596,
                30.1028247366
              ],
              [
                31.1841153962,
                30.1029851011
              ],
              [
                31.1841167568,
                30.1030000066
              ],
              [
                31.184146854,
                30.1033297592
              ],
              [
                31.1841686139,
                30.1035681577
              ],
              [
                31.1841726949,
                30.1035984473
              ],
              [
                31.1841793485,
                30.1036283904
              ],
              [
                31.184188538,
                30.1036578218
              ],
              [
                31.1842002128,
                30.1036865796
              ],
              [
                31.1842143087,
                30.1037145052
              ],
              [
                31.1842307479,
                30.1037414449
              ],
              [
                31.1842494398,
                30.1037672502
              ],
              [
                31.1842538695,
                30.1037727923
              ],
              [
                31.1842584032,
                30.1037782705
              ],
              [
                31.1842630398,
                30.1037836831
              ],
              [
                31.1842677781,
                30.1037890288
              ],
              [
                31.1842726167,
                30.1037943061
              ],
              [
                31.1842775543,
                30.1037995136
              ],
              [
                31.1842825896,
                30.1038046499
              ],
              [
                31.1843396067,
                30.1038618937
              ],
              [
                31.1843387264,
                30.1038523847
              ]
            ]
          ]
        ]
      }
    }
  ]
}
