{
  "type": "FeatureCollection",
  "name": "Axis_Road_Sector",
  "crs": {
    "type": "name",
    "properties": {
      "name": "urn:ogc:def:crs:OGC:1.3:CRS84"
    }
  },
  "xy_coordinate_resolution": 8.98315e-10,
  "z_coordinate_resolution": 0.0001,
  "features": [
    {
      "type": "Feature",
      "properties": {
        "اسم_المحور": "1",
        "طول_المحور_كم": 46865.33957154729,
        "اسم_القطاع": "5",
        "GlobalID": "{4CA2BBE3-741F-4BE5-9F17-7C183F5F8A4F}",
        "Shape_Length": 46865.33957154729,
        "landuse_code": "",
        "landuse_label": "",
        "change_status_key": "unchanged"
      },
      "geometry": {
        "type": "MultiLineString",
        "coordinates": [
          [
            [
              30.023199766,
              31.170428375,
              0
            ],
            [
              30.0242470032,
              31.1707292167,
              0
            ],
            [
              30.0269046283,
              31.1715057958,
              0
            ],
            [
              30.0300868751,
              31.1724653021,
              0
            ],
            [
              30.0317211357,
              31.1729372987,
              0
            ],
            [
              30.0348222789,
              31.1738251776,
              0
            ],
            [
              30.0391504121,
              31.1751263789,
              0
            ],
            [
              30.0413282841,
              31.1757545456,
              0
            ],
            [
              30.042481072,
              31.1761100448,
              0
            ],
            [
              30.0429140982,
              31.1762325745,
              0
            ],
            [
              30.0433452712,
              31.1763614807,
              0
            ],
            [
              30.0437744946,
              31.1764967348,
              0
            ],
            [
              30.0442016759,
              31.1766383077,
              0
            ],
            [
              30.0446267219,
              31.1767861659,
              0
            ],
            [
              30.0450495402,
              31.1769402791,
              0
            ],
            [
              30.0454700386,
              31.1771006147,
              0
            ],
            [
              30.0457591398,
              31.1772165067,
              0
            ],
            [
              30.0460461907,
              31.1773373846,
              0
            ],
            [
              30.0463311073,
              31.1774632138,
              0
            ],
            [
              30.0466138029,
              31.1775939546,
              0
            ],
            [
              30.0468941936,
              31.177729568,
              0
            ],
            [
              30.047172197,
              31.1778700153,
              0
            ],
            [
              30.0474477251,
              31.178015252,
              0
            ],
            [
              30.0485556446,
              31.1786399662,
              0
            ],
            [
              30.0499211953,
              31.1795425585,
              0
            ],
            [
              30.051389293,
              31.1805279154,
              0
            ],
            [
              30.0533911422,
              31.1819568204,
              0
            ],
            [
              30.0554551157,
              31.1833891775,
              0
            ],
            [
              30.0581645119,
              31.1852702237,
              0
            ],
            [
              30.0604217665,
              31.1868440899,
              0
            ],
            [
              30.0634486983,
              31.18897019,
              0
            ],
            [
              30.0650881422,
              31.1900297884,
              0
            ],
            [
              30.0665860773,
              31.1909478771,
              0
            ],
            [
              30.0685568613,
              31.1921731458,
              0
            ],
            [
              30.0711097112,
              31.1937235533,
              0
            ],
            [
              30.0729747315,
              31.1948721876,
              0
            ],
            [
              30.0751284428,
              31.196149229,
              0
            ],
            [
              30.0778136801,
              31.1976747749,
              0
            ],
            [
              30.08019864,
              31.1989311072,
              0
            ],
            [
              30.08215907,
              31.1999561913,
              0
            ],
            [
              30.0837778049,
              31.2007707354,
              0
            ],
            [
              30.0861144439,
              31.2019580375,
              0
            ],
            [
              30.0881231954,
              31.203000379,
              0
            ],
            [
              30.0906945333,
              31.2043326432,
              0
            ],
            [
              30.0918818364,
              31.2049711641,
              0
            ],
            [
              30.0938077499,
              31.2060204077,
              0
            ],
            [
              30.0954057776,
              31.2069177887,
              0
            ],
            [
              30.0977010006,
              31.2082431484,
              0
            ],
            [
              30.1000376388,
              31.2096306363,
              0
            ],
            [
              30.1015217673,
              31.210517662,
              0
            ],
            [
              30.1032267893,
              31.2115634543,
              0
            ],
            [
              30.1046142759,
              31.2124366735,
              0
            ],
            [
              30.1065091284,
              31.2136239769,
              0
            ],
            [
              30.1076791743,
              31.2144005565,
              0
            ],
            [
              30.1098846932,
              31.2158739291,
              0
            ],
            [
              30.1115413588,
              31.217016763,
              0
            ],
            [
              30.1124628986,
              31.2176552843,
              0
            ],
            [
              30.1144785518,
              31.2190600279,
              0
            ],
            [
              30.1158349769,
              31.2200264369,
              0
            ],
            [
              30.1168033904,
              31.2207077911,
              0
            ],
            [
              30.117774407,
              31.221385431,
              0
            ],
            [
              30.1187480112,
              31.2220593482,
              0
            ],
            [
              30.119082515,
              31.2222974591,
              0
            ],
            [
              30.1194211231,
              31.2225296987,
              0
            ],
            [
              30.1197637286,
              31.222755998,
              0
            ],
            [
              30.1201102305,
              31.2229762868,
              0
            ],
            [
              30.1204605219,
              31.2231904998,
              0
            ],
            [
              30.1208144955,
              31.2233985695,
              0
            ],
            [
              30.121172044,
              31.2236004341,
              0
            ],
            [
              30.1215330591,
              31.2237960323,
              0
            ],
            [
              30.1218974303,
              31.2239853022,
              0
            ],
            [
              30.1222650491,
              31.2241681909,
              0
            ],
            [
              30.1226275839,
              31.2243327446,
              0
            ],
            [
              30.1229927228,
              31.2244914375,
              0
            ],
            [
              30.1233603725,
              31.2246442266,
              0
            ],
            [
              30.1237304344,
              31.224791073,
              0
            ],
            [
              30.1241028141,
              31.2249319392,
              0
            ],
            [
              30.1244774142,
              31.2250667861,
              0
            ],
            [
              30.1248541401,
              31.2251955809,
              0
            ],
            [
              30.1252328909,
              31.2253182897,
              0
            ],
            [
              30.12561357,
              31.2254348807,
              0
            ],
            [
              30.1259960774,
              31.2255453244,
              0
            ],
            [
              30.1264044589,
              31.2256534059,
              0
            ],
            [
              30.1268146069,
              31.225754574,
              0
            ],
            [
              30.1272264058,
              31.2258487989,
              0
            ],
            [
              30.1276397377,
              31.2259360537,
              0
            ],
            [
              30.1280544857,
              31.2260163141,
              0
            ],
            [
              30.1284705287,
              31.2260895576,
              0
            ],
            [
              30.1288877488,
              31.2261557607,
              0
            ],
            [
              30.1293060298,
              31.2262149074,
              0
            ],
            [
              30.1304104967,
              31.2263288057,
              0
            ],
            [
              30.1337342534,
              31.226684306,
              0
            ],
            [
              30.1374135126,
              31.2270639676,
              0
            ],
            [
              30.1400469773,
              31.2272986661,
              0
            ],
            [
              30.1429323979,
              31.2276092981,
              0
            ],
            [
              30.145917911,
              31.2279371882,
              0
            ],
            [
              30.1462936769,
              31.2279969048,
              0
            ],
            [
              30.1466684725,
              31.2280624198,
              0
            ],
            [
              30.1470422111,
              31.2281337185,
              0
            ],
            [
              30.1474148053,
              31.2282107855,
              0
            ],
            [
              30.1477861632,
              31.228293599,
              0
            ],
            [
              30.1481561964,
              31.2283821406,
              0
            ],
            [
              30.1485248184,
              31.2284763907,
              0
            ],
            [
              30.1488919388,
              31.2285763235,
              0
            ],
            [
              30.1492574721,
              31.2286819185,
              0
            ],
            [
              30.149621329,
              31.2287931491,
              0
            ],
            [
              30.1499811947,
              31.2289123143,
              0
            ],
            [
              30.1503391027,
              31.2290372288,
              0
            ],
            [
              30.1506949657,
              31.2291678576,
              0
            ],
            [
              30.1510486916,
              31.2293041688,
              0
            ],
            [
              30.1514001879,
              31.229446128,
              0
            ],
            [
              30.1517493655,
              31.2295936979,
              0
            ],
            [
              30.1520961365,
              31.2297468416,
              0
            ],
            [
              30.1524404097,
              31.229905519,
              0
            ],
            [
              30.1527820961,
              31.2300696887,
              0
            ],
            [
              30.1531211121,
              31.2302393109,
              0
            ],
            [
              30.1534653179,
              31.2304194518,
              0
            ],
            [
              30.1538061922,
              31.2306058169,
              0
            ],
            [
              30.1541436234,
              31.2307983461,
              0
            ],
            [
              30.1544775023,
              31.2309969748,
              0
            ],
            [
              30.1548077155,
              31.2312016372,
              0
            ],
            [
              30.1551341548,
              31.2314122653,
              0
            ],
            [
              30.1554567131,
              31.2316287917,
              0
            ],
            [
              30.1557752847,
              31.231851143,
              0
            ],
            [
              30.1573974716,
              31.2331488929,
              0
            ],
            [
              30.1580946677,
              31.2337977678,
              0
            ],
            [
              30.1589023092,
              31.2346468269,
              0
            ],
            [
              30.1609684924,
              31.2369938204,
              0
            ],
            [
              30.1616311737,
              31.2377404403,
              0
            ],
            [
              30.162340241,
              31.2385422845,
              0
            ],
            [
              30.1634999326,
              31.2398831084,
              0
            ],
            [
              30.1645624291,
              31.2410803513,
              0
            ],
            [
              30.1654857628,
              31.2421494749,
              0
            ],
            [
              30.1669215716,
              31.2437664164,
              0
            ],
            [
              30.1685541861,
              31.2456356734,
              0
            ],
            [
              30.16991247,
              31.2471703852,
              0
            ],
            [
              30.1706414188,
              31.2479965266,
              0
            ],
            [
              30.1714697705,
              31.2489419516,
              0
            ],
            [
              30.1728497365,
              31.2504863505,
              0
            ],
            [
              30.1735815113,
              31.2512171545,
              0
            ],
            [
              30.1744054443,
              31.2520189978,
              0
            ],
            [
              30.1752337945,
              31.2527391097,
              0
            ],
            [
              30.1764465011,
              31.2536845341,
              0
            ],
            [
              30.1771069724,
              31.2541992165,
              0
            ],
            [
              30.1779971731,
              31.2548022569,
              0
            ],
            [
              30.1795787717,
              31.2557940686,
              0
            ],
            [
              30.1805308209,
              31.2563286295,
              0
            ],
            [
              30.1817346911,
              31.256947132,
              0
            ],
            [
              30.1847808127,
              31.2583343424,
              0
            ],
            [
              30.1868572123,
              31.2592709324,
              0
            ],
            [
              30.1888032836,
              31.2601368335,
              0
            ],
            [
              30.1903208224,
              31.2608216043,
              0
            ],
            [
              30.190737175,
              31.2610099679,
              0
            ],
            [
              30.191150979,
              31.26120387,
              0
            ],
            [
              30.1915621567,
              31.2614032746,
              0
            ],
            [
              30.1919706411,
              31.2616081471,
              0
            ],
            [
              30.1923763545,
              31.2618184522,
              0
            ],
            [
              30.1927792266,
              31.2620341498,
              0
            ],
            [
              30.1931791842,
              31.2622552032,
              0
            ],
            [
              30.1936283239,
              31.2625187797,
              0
            ],
            [
              30.1940745064,
              31.2627873337,
              0
            ],
            [
              30.1945176726,
              31.2630608343,
              0
            ],
            [
              30.1949577714,
              31.2633392452,
              0
            ],
            [
              30.1953947469,
              31.2636225345,
              0
            ],
            [
              30.1961785339,
              31.2641887943,
              0
            ],
            [
              30.1969581199,
              31.2647608259,
              0
            ],
            [
              30.1977623108,
              31.2654097016,
              0
            ],
            [
              30.1991981181,
              31.2667178042,
              0
            ],
            [
              30.2008208142,
              31.2682397519,
              0
            ],
            [
              30.2028635704,
              31.2701727169,
              0
            ],
            [
              30.2039162658,
              31.271073548,
              0
            ],
            [
              30.204903384,
              31.2718225147,
              0
            ],
            [
              30.2052022389,
              31.2720449689,
              0
            ],
            [
              30.2055050133,
              31.2722620564,
              0
            ],
            [
              30.2058116104,
              31.2724737102,
              0
            ],
            [
              30.2061219368,
              31.2726798606,
              0
            ],
            [
              30.206435887,
              31.2728804449,
              0
            ],
            [
              30.2067533676,
              31.273075396,
              0
            ],
            [
              30.2075575586,
              31.2735620518,
              0
            ],
            [
              30.2097457845,
              31.2746458107,
              0
            ],
            [
              30.2100284562,
              31.2747946918,
              0
            ],
            [
              30.2103137547,
              31.2749384749,
              0
            ],
            [
              30.210601589,
              31.2750771109,
              0
            ],
            [
              30.2108918659,
              31.2752105563,
              0
            ],
            [
              30.2111844932,
              31.2753387686,
              0
            ],
            [
              30.2114793733,
              31.2754617068,
              0
            ],
            [
              30.211776415,
              31.2755793311,
              0
            ],
            [
              30.2120755196,
              31.2756916033,
              0
            ],
            [
              30.2138668293,
              31.276312866,
              0
            ],
            [
              30.2174874108,
              31.2774104311,
              0
            ],
            [
              30.2214013681,
              31.2785977335,
              0
            ],
            [
              30.2250012419,
              31.27972291,
              0
            ],
            [
              30.2289704229,
              31.2810896887,
              0
            ],
            [
              30.2322286013,
              31.2822977003,
              0
            ],
            [
              30.2345238247,
              31.283174371,
              0
            ],
            [
              30.2384895534,
              31.2848172674,
              0
            ],
            [
              30.2421895195,
              31.286453259,
              0
            ],
            [
              30.2456651405,
              31.2880858016,
              0
            ],
            [
              30.2495445831,
              31.2899841044,
              0
            ],
            [
              30.2527337333,
              31.2916408051,
              0
            ],
            [
              30.2566358248,
              31.293864625,
              0
            ],
            [
              30.2599740362,
              31.2958653945,
              0
            ],
            [
              30.2622983796,
              31.2972945151,
              0
            ],
            [
              30.2647575439,
              31.2989069941,
              0
            ],
            [
              30.2660680228,
              31.2997590736,
              0
            ],
            [
              30.2671711947,
              31.3005352212,
              0
            ],
            [
              30.2683715385,
              31.3013990556,
              0
            ],
            [
              30.2687350206,
              31.3016854703,
              0
            ],
            [
              30.2691349775,
              31.302009148,
              0
            ],
            [
              30.2695306896,
              31.3023380027,
              0
            ],
            [
              30.2699220871,
              31.3026719778,
              0
            ],
            [
              30.2703091086,
              31.3030110179,
              0
            ],
            [
              30.2706916854,
              31.3033550648,
              0
            ],
            [
              30.2709385997,
              31.3035813141,
              0
            ],
            [
              30.2711817174,
              31.3038116377,
              0
            ],
            [
              30.2714209701,
              31.304045973,
              0
            ],
            [
              30.2716562943,
              31.3042842554,
              0
            ],
            [
              30.2718876196,
              31.3045264203,
              0
            ],
            [
              30.2721148881,
              31.3047723962,
              0
            ],
            [
              30.2723380312,
              31.3050221204,
              0
            ],
            [
              30.2726460005,
              31.3053559909,
              0
            ],
            [
              30.2729488123,
              31.3056945425,
              0
            ],
            [
              30.2732463995,
              31.3060376988,
              0
            ],
            [
              30.2735386878,
              31.3063853763,
              0
            ],
            [
              30.2738256122,
              31.306737497,
              0
            ],
            [
              30.2760138388,
              31.3094192818,
              0
            ],
            [
              30.276250045,
              31.3096922714,
              0
            ],
            [
              30.2764907324,
              31.3099613192,
              0
            ],
            [
              30.2767358306,
              31.3102263551,
              0
            ],
            [
              30.2769852743,
              31.3104873039,
              0
            ],
            [
              30.2772389954,
              31.3107440963,
              0
            ],
            [
              30.2774969254,
              31.3109966625,
              0
            ],
            [
              30.2777589929,
              31.3112449304,
              0
            ],
            [
              30.2780251262,
              31.3114888355,
              0
            ],
            [
              30.2782952548,
              31.3117283104,
              0
            ],
            [
              30.2800624027,
              31.3133435929,
              0
            ],
            [
              30.2814429873,
              31.3143617749,
              0
            ],
            [
              30.2827096725,
              31.3152004807,
              0
            ],
            [
              30.2866270824,
              31.3177580122,
              0
            ],
            [
              30.2899473871,
              31.3199013701,
              0
            ],
            [
              30.292208094,
              31.3213337259,
              0
            ],
            [
              30.2950486478,
              31.3230456521,
              0
            ],
            [
              30.2979375199,
              31.3246195174,
              0
            ],
            [
              30.3010610913,
              31.3262417044,
              0
            ],
            [
              30.3048024761,
              31.3279984988,
              0
            ],
            [
              30.3073933962,
              31.3291437334,
              0
            ],
            [
              30.3107079263,
              31.3304766466,
              0
            ],
            [
              30.3127511906,
              31.3312359679,
              0
            ],
            [
              30.31525005,
              31.3320884785,
              0
            ],
            [
              30.3159186817,
              31.3323181115,
              0
            ],
            [
              30.316589155,
              31.3325423156,
              0
            ],
            [
              30.317261422,
              31.3327610797,
              0
            ],
            [
              30.3179354398,
              31.3329743885,
              0
            ],
            [
              30.3186111645,
              31.3331822276,
              0
            ],
            [
              30.3192885515,
              31.3333845833,
              0
            ],
            [
              30.3199675566,
              31.3335814421,
              0
            ],
            [
              30.3206481362,
              31.3337727922,
              0
            ],
            [
              30.3226741417,
              31.3343043166,
              0
            ],
            [
              30.3258425834,
              31.3351119582,
              0
            ],
            [
              30.3264663082,
              31.3352654834,
              0
            ],
            [
              30.3270916789,
              31.3354121544,
              0
            ],
            [
              30.3277186235,
              31.3355519536,
              0
            ],
            [
              30.3283470624,
              31.335684863,
              0
            ],
            [
              30.3289769234,
              31.3358108686,
              0
            ],
            [
              30.3296081271,
              31.335929955,
              0
            ],
            [
              30.3326178012,
              31.3364959943,
              0
            ],
            [
              30.3334913092,
              31.3366479283,
              0
            ],
            [
              30.3343659165,
              31.3367934032,
              0
            ],
            [
              30.3352415739,
              31.3369324082,
              0
            ],
            [
              30.3361182342,
              31.3370649386,
              0
            ],
            [
              30.3369958522,
              31.3371909844,
              0
            ],
            [
              30.3378743775,
              31.33731054,
              0
            ],
            [
              30.3431309524,
              31.3378903853,
              0
            ],
            [
              30.3477973277,
              31.3383804936,
              0
            ],
            [
              30.3528640734,
              31.3389016634,
              0
            ],
            [
              30.3566581794,
              31.3393065192,
              0
            ],
            [
              30.361458212,
              31.3397955926,
              0
            ],
            [
              30.3670081614,
              31.3403581797,
              0
            ],
            [
              30.3709980501,
              31.340786161,
              0
            ],
            [
              30.375560882,
              31.3412348512,
              0
            ],
            [
              30.379944239,
              31.3417456672,
              0
            ],
            [
              30.383854744,
              31.3423876385,
              0
            ],
            [
              30.3882726126,
              31.3432401503,
              0
            ],
            [
              30.391586016,
              31.3439925682,
              0
            ],
            [
              30.3957553809,
              31.3450866813,
              0
            ],
            [
              30.3987132835,
              31.3459460954,
              0
            ],
            [
              30.404135529,
              31.347792627,
              0
            ],
            [
              30.408860579,
              31.3496529643,
              0
            ],
            [
              30.4121084042,
              31.351102579,
              0
            ],
            [
              30.4148350585,
              31.3523761689,
              0
            ],
            [
              30.4190907094,
              31.3545885544,
              0
            ],
            [
              30.4195304427,
              31.354818467,
              0
            ],
            [
              30.419967363,
              31.3550536785,
              0
            ],
            [
              30.420401407,
              31.3552941579,
              0
            ],
            [
              30.4208325108,
              31.3555398698,
              0
            ],
            [
              30.4212606123,
              31.3557907741,
              0
            ],
            [
              30.4216856472,
              31.3560468406,
              0
            ],
            [
              30.4221075548,
              31.3563080259,
              0
            ],
            [
              30.4225262731,
              31.3565742945,
              0
            ],
            [
              30.422941741,
              31.3568456099,
              0
            ],
            [
              30.4233538968,
              31.3571219267,
              0
            ],
            [
              30.4237626805,
              31.3574032087,
              0
            ],
            [
              30.4240333867,
              31.3576128105,
              0
            ],
            [
              30.4243011131,
              31.3578262046,
              0
            ],
            [
              30.4245658095,
              31.3580433467,
              0
            ],
            [
              30.4248274223,
              31.3582641961,
              0
            ],
            [
              30.4250858982,
              31.3584887057,
              0
            ],
            [
              30.4254294124,
              31.3588037188,
              0
            ],
            [
              30.4257768776,
              31.359114366,
              0
            ],
            [
              30.4261282405,
              31.3594206003,
              0
            ],
            [
              30.4263672993,
              31.3596553371,
              0
            ],
            [
              30.4266026219,
              31.3598938205,
              0
            ],
            [
              30.4268341467,
              31.3601359925,
              0
            ],
            [
              30.4270618177,
              31.3603817907,
              0
            ],
            [
              30.4272855797,
              31.3606311536,
              0
            ],
            [
              30.4275053735,
              31.3608840204,
              0
            ],
            [
              30.4278919354,
              31.3613775785,
              0
            ],
            [
              30.4284752327,
              31.3621748655,
              0
            ],
            [
              30.4293450025,
              31.3635036789,
              0
            ],
            [
              30.4298351093,
              31.364349287,
              0
            ],
            [
              30.4305204314,
              31.3658940227,
              0
            ],
            [
              30.4306157213,
              31.3661058649,
              0
            ],
            [
              30.4307054309,
              31.3663201303,
              0
            ],
            [
              30.4307894978,
              31.3665366724,
              0
            ],
            [
              30.4308678651,
              31.3667553414,
              0
            ],
            [
              30.4309404769,
              31.3669759882,
              0
            ],
            [
              30.431007288,
              31.3671984595,
              0
            ],
            [
              30.4310682477,
              31.3674226055,
              0
            ],
            [
              30.4313620357,
              31.3684652233,
              0
            ],
            [
              30.4315696742,
              31.3692692754,
              0
            ],
            [
              30.4316199567,
              31.3694510358,
              0
            ],
            [
              30.4316648533,
              31.3696341997,
              0
            ],
            [
              30.4317043261,
              31.3698186095,
              0
            ],
            [
              30.4317383397,
              31.3700041031,
              0
            ],
            [
              30.4317668636,
              31.3701905184,
              0
            ],
            [
              30.431789876,
              31.3703776971,
              0
            ],
            [
              30.431807355,
              31.3705654712,
              0
            ],
            [
              30.4318192851,
              31.3707536806,
              0
            ],
            [
              30.4318076774,
              31.3715996598,
              0
            ],
            [
              30.4318060306,
              31.3719619676,
              0
            ],
            [
              30.4318286786,
              31.3758305209,
              0
            ]
          ]
        ]
      }
    }
  ]
}
