{
  "type": "FeatureCollection",
  "name": "Study_Area_Sector",
  "crs": {
    "type": "name",
    "properties": {
      "name": "urn:ogc:def:crs:OGC:1.3:CRS84"
    }
  },
  "xy_coordinate_resolution": 8.98315e-10,
  "z_coordinate_resolution": 0.0001,
  "features": [
    {
      "type": "Feature",
      "properties": {
        "اسم_المحور": "5",
        "مساحة_المنطقة_كم2": 72.4059642006943,
        "اسم_القطاع": null,
        "نوع_المحور": null,
        "طول_المحور": null,
        "الحرم_المكاني_للمحور": null,
        "نوع_الرسم": null,
        "sector": null,
        "GlobalID": "{7703108F-7189-4B9B-9464-02CECF841455}",
        "Shape_Length": 93869.76823656488,
        "Shape_Area": 72405964.2006943,
        "landuse_code": "",
        "landuse_label": "",
        "change_status_key": "unchanged"
      },
      "geometry": {
        "type": "MultiPolygon",
        "coordinates": [
          [
            [
              [
                31.1977032977,
                30.0934241248
              ],
              [
                31.1902216807,
                30.0939846487
              ],
              [
                31.1832975474,
                30.0941250573
              ],
              [
                31.1834232754,
                30.1008630621
              ],
              [
                31.1839759296,
                30.1086143835
              ],
              [
                31.1841164007,
                30.1086493647
              ],
              [
                31.18425943,
                30.1086753547
              ],
              [
                31.184404257,
                30.1086922156
              ],
              [
                31.1845501121,
                30.1086998575
              ],
              [
                31.18469622,
                30.10869824
              ],
              [
                31.184841804,
                30.1086873717
              ],
              [
                31.1849860903,
                30.1086673102
              ],
              [
                31.1866912251,
                30.1083744318
              ],
              [
                31.1872574457,
                30.1081323192
              ],
              [
                31.1878267518,
                30.1078957416
              ],
              [
                31.1883990718,
                30.1076647288
              ],
              [
                31.1889743338,
                30.1074393098
              ],
              [
                31.1895524655,
                30.1072195129
              ],
              [
                31.1901333943,
                30.1070053657
              ],
              [
                31.190717047,
                30.1067968952
              ],
              [
                31.1908418993,
                30.1067209746
              ],
              [
                31.1909650511,
                30.1066429828
              ],
              [
                31.191086457,
                30.1065629484
              ],
              [
                31.1912060721,
                30.1064809011
              ],
              [
                31.1913238522,
                30.106396871
              ],
              [
                31.191439754,
                30.1063108893
              ],
              [
                31.1915537346,
                30.1062229877
              ],
              [
                31.1874305209,
                30.1010434013
              ],
              [
                31.1879575187,
                30.1009684417
              ],
              [
                31.1884889017,
                30.1009225084
              ],
              [
                31.1890225576,
                30.1009057842
              ],
              [
                31.1895563649,
                30.1009183354
              ],
              [
                31.1900882018,
                30.1009601124
              ],
              [
                31.190615954,
                30.1010309489
              ],
              [
                31.1911375237,
                30.1011305634
              ],
              [
                31.1916508375,
                30.10125856
              ],
              [
                31.1921538548,
                30.1014144298
              ],
              [
                31.1926445761,
                30.1015975533
              ],
              [
                31.1931210504,
                30.1018072025
              ],
              [
                31.1966799942,
                30.1004044193
              ],
              [
                31.2011313378,
                30.0989080132
              ],
              [
                31.2012735986,
                30.0992984964
              ],
              [
                31.2145495112,
                30.0956781695
              ],
              [
                31.2181608622,
                30.0955954099
              ],
              [
                31.2181565888,
                30.0954792857
              ],
              [
                31.2181508804,
                30.095363208
              ],
              [
                31.2181437376,
                30.0952471905
              ],
              [
                31.2181351614,
                30.0951312463
              ],
              [
                31.2181251526,
                30.0950153891
              ],
              [
                31.2181137124,
                30.094899632
              ],
              [
                31.2181008423,
                30.0947839886
              ],
              [
                31.2223719668,
                30.0915669985
              ],
              [
                31.2193929352,
                30.0912088607
              ],
              [
                31.2196796837,
                30.0871424743
              ],
              [
                31.2168990691,
                30.0876330789
              ],
              [
                31.2153058376,
                30.0817263965
              ],
              [
                31.2142177774,
                30.0788457795
              ],
              [
                31.214101199,
                30.0777697297
              ],
              [
                31.2232708892,
                30.0760644218
              ],
              [
                31.2275619488,
                30.0741988449
              ],
              [
                31.2275293839,
                30.0738208731
              ],
              [
                31.2274884034,
                30.0734435211
              ],
              [
                31.227439023,
                30.0730669307
              ],
              [
                31.2273812612,
                30.0726912433
              ],
              [
                31.2273151398,
                30.0723166
              ],
              [
                31.2272406837,
                30.0719431415
              ],
              [
                31.2271579211,
                30.0715710082
              ],
              [
                31.2270516628,
                30.0711806867
              ],
              [
                31.2269656778,
                30.0707866065
              ],
              [
                31.2269001396,
                30.0703895637
              ],
              [
                31.2268551804,
                30.0699903605
              ],
              [
                31.2268308908,
                30.0695898033
              ],
              [
                31.2268273195,
                30.0691887013
              ],
              [
                31.2268444736,
                30.068787865
              ],
              [
                31.2289713547,
                30.0677260371
              ],
              [
                31.2293338751,
                30.0675405794
              ],
              [
                31.2296917821,
                30.067348463
              ],
              [
                31.2300449142,
                30.0671497746
              ],
              [
                31.2303931118,
                30.0669446041
              ],
              [
                31.2307362177,
                30.0667330441
              ],
              [
                31.231074077,
                30.0665151901
              ],
              [
                31.2314065371,
                30.0662911405
              ],
              [
                31.2315618009,
                30.0661646072
              ],
              [
                31.2317263587,
                30.0660472967
              ],
              [
                31.2318994879,
                30.0659397242
              ],
              [
                31.232080428,
                30.0658423621
              ],
              [
                31.2322683844,
                30.065755638
              ],
              [
                31.2324625317,
                30.0656799327
              ],
              [
                31.2326620172,
                30.0656155788
              ],
              [
                31.2328659649,
                30.0655628588
              ],
              [
                31.2330734791,
                30.0655220042
              ],
              [
                31.2332836485,
                30.0654931946
              ],
              [
                31.2334955501,
                30.0654765563
              ],
              [
                31.2337082533,
                30.0654721626
              ],
              [
                31.233920824,
                30.0654800326
              ],
              [
                31.2341323288,
                30.0655001318
              ],
              [
                31.2343418387,
                30.0655323721
              ],
              [
                31.234336491,
                30.0652886727
              ],
              [
                31.2344525846,
                30.0648113175
              ],
              [
                31.2346029144,
                30.0643412465
              ],
              [
                31.2347868863,
                30.0638803156
              ],
              [
                31.2350037735,
                30.0634303445
              ],
              [
                31.2352527195,
                30.0629931096
              ],
              [
                31.2355327409,
                30.0625703372
              ],
              [
                31.235842732,
                30.0621636962
              ],
              [
                31.2359616216,
                30.0619616272
              ],
              [
                31.2360958403,
                30.0617669579
              ],
              [
                31.2362447823,
                30.061580567
              ],
              [
                31.2364077751,
                30.0614032956
              ],
              [
                31.2365840833,
                30.0612359438
              ],
              [
                31.2367729109,
                30.061079267
              ],
              [
                31.2369734057,
                30.0609339722
              ],
              [
                31.2385316056,
                30.0598792413
              ],
              [
                31.2387796835,
                30.0597374303
              ],
              [
                31.2390191011,
                30.0595847711
              ],
              [
                31.2392492321,
                30.059421663
              ],
              [
                31.2394694745,
                30.0592485328
              ],
              [
                31.2396792521,
                30.0590658334
              ],
              [
                31.2398780163,
                30.0588740426
              ],
              [
                31.240065247,
                30.0586736624
              ],
              [
                31.2415661401,
                30.0575391585
              ],
              [
                31.2423743165,
                30.0569282642
              ],
              [
                31.2465891316,
                30.0609166521
              ],
              [
                31.2655852294,
                30.0694178811
              ],
              [
                31.2658296502,
                30.0695066776
              ],
              [
                31.2660712794,
                30.0696010777
              ],
              [
                31.2663099473,
                30.0697010151
              ],
              [
                31.2665454862,
                30.0698064197
              ],
              [
                31.2667777306,
                30.0699172173
              ],
              [
                31.2670065172,
                30.0700333301
              ],
              [
                31.2672316855,
                30.0701546766
              ],
              [
                31.2673988917,
                30.0702495411
              ],
              [
                31.2675638809,
                30.0703472982
              ],
              [
                31.2677265871,
                30.0704479088
              ],
              [
                31.267886945,
                30.0705513325
              ],
              [
                31.2680448904,
                30.0706575279
              ],
              [
                31.2682003598,
                30.0707664524
              ],
              [
                31.2683532909,
                30.0708780624
              ],
              [
                31.2686366035,
                30.0711881052
              ],
              [
                31.2689237276,
                30.0714954846
              ],
              [
                31.2692146303,
                30.0718001652
              ],
              [
                31.269509278,
                30.0721021118
              ],
              [
                31.2698076368,
                30.0724012897
              ],
              [
                31.2701096723,
                30.0726976642
              ],
              [
                31.2704153498,
                30.0729912014
              ],
              [
                31.2711807317,
                30.0736563372
              ],
              [
                31.2719733579,
                30.074296886
              ],
              [
                31.2727921853,
                30.0749120042
              ],
              [
                31.2736361361,
                30.075500882
              ],
              [
                31.2745040996,
                30.0760627438
              ],
              [
                31.2753949332,
                30.0765968498
              ],
              [
                31.2763074643,
                30.0771024966
              ],
              [
                31.2765388185,
                30.0772444553
              ],
              [
                31.2767773168,
                30.0773771706
              ],
              [
                31.2770224715,
                30.077500371
              ],
              [
                31.2772737809,
                30.0776138045
              ],
              [
                31.2775307311,
                30.0777172391
              ],
              [
                31.2777927964,
                30.0778104631
              ],
              [
                31.2780594407,
                30.0778932858
              ],
              [
                31.2782176025,
                30.0779357131
              ],
              [
                31.2783786742,
                30.0779688408
              ],
              [
                31.2785419338,
                30.0779925203
              ],
              [
                31.2787066494,
                30.0780066454
              ],
              [
                31.2788720827,
                30.078011153
              ],
              [
                31.279037492,
                30.0780060227
              ],
              [
                31.2792021358,
                30.0779912776
              ],
              [
                31.279365276,
                30.0779669837
              ],
              [
                31.2795261814,
                30.0779332499
              ],
              [
                31.2798924587,
                30.0780758481
              ],
              [
                31.2802597269,
                30.0782165064
              ],
              [
                31.2806279724,
                30.0783552196
              ],
              [
                31.2809971816,
                30.0784919827
              ],
              [
                31.2813673408,
                30.0786267906
              ],
              [
                31.2817384363,
                30.0787596383
              ],
              [
                31.2821104544,
                30.0788905208
              ],
              [
                31.2823832129,
                30.0789938768
              ],
              [
                31.2826624263,
                30.0790832502
              ],
              [
                31.282947148,
                30.0791583381
              ],
              [
                31.2832364125,
                30.0792188858
              ],
              [
                31.283529239,
                30.079264688
              ],
              [
                31.2838246345,
                30.0792955893
              ],
              [
                31.2841215974,
                30.079311485
              ],
              [
                31.2844191208,
                30.0793123213
              ],
              [
                31.2847161957,
                30.0792980951
              ],
              [
                31.2850863173,
                30.0793209208
              ],
              [
                31.2854541341,
                30.0793634362
              ],
              [
                31.2858182627,
                30.0794254814
              ],
              [
                31.2861773335,
                30.079506823
              ],
              [
                31.2865299958,
                30.0796071552
              ],
              [
                31.2868749233,
                30.0797261005
              ],
              [
                31.2872108185,
                30.0798632116
              ],
              [
                31.287536418,
                30.0800179727
              ],
              [
                31.287850497,
                30.0801898018
              ],
              [
                31.2888686929,
                30.0808594197
              ],
              [
                31.2898934259,
                30.081521461
              ],
              [
                31.2909246214,
                30.0821758776
              ],
              [
                31.2919622044,
                30.0828226217
              ],
              [
                31.2930060997,
                30.0834616463
              ],
              [
                31.2940562313,
                30.0840929048
              ],
              [
                31.2951125228,
                30.0847163512
              ],
              [
                31.2963393903,
                30.0853977235
              ],
              [
                31.296367871,
                30.0853823242
              ],
              [
                31.3029955239,
                30.0890940221
              ],
              [
                31.3095179286,
                30.0945331041
              ],
              [
                31.3109106528,
                30.0956532257
              ],
              [
                31.3139042668,
                30.0980608383
              ],
              [
                31.32403905,
                30.1062113068
              ],
              [
                31.3212166907,
                30.1093723627
              ],
              [
                31.3208761462,
                30.1096978656
              ],
              [
                31.3205111977,
                30.1100027235
              ],
              [
                31.320123497,
                30.1102855565
              ],
              [
                31.3197147989,
                30.1105450843
              ],
              [
                31.3192869531,
                30.1107801321
              ],
              [
                31.3188418963,
                30.110989636
              ],
              [
                31.318381643,
                30.1111726477
              ],
              [
                31.3183582073,
                30.1111824426
              ],
              [
                31.3183347799,
                30.1111922524
              ],
              [
                31.3183113608,
                30.1112020772
              ],
              [
                31.3182879501,
                30.1112119169
              ],
              [
                31.3182645476,
                30.1112217715
              ],
              [
                31.3182411535,
                30.1112316411
              ],
              [
                31.3182177677,
                30.1112415257
              ],
              [
                31.3236662367,
                30.1191321996
              ],
              [
                31.3275711392,
                30.1170051257
              ],
              [
                31.3294084551,
                30.1192107493
              ],
              [
                31.3335776607,
                30.1253147231
              ],
              [
                31.3354398255,
                30.1246920882
              ],
              [
                31.3377606521,
                30.1298846552
              ],
              [
                31.3456125504,
                30.1277691982
              ],
              [
                31.3511992107,
                30.1364470927
              ],
              [
                31.3591205958,
                30.1329712191
              ],
              [
                31.3596386412,
                30.1327665242
              ],
              [
                31.360155967,
                30.1325604606
              ],
              [
                31.3606725684,
                30.1323530304
              ],
              [
                31.3611884406,
                30.1321442354
              ],
              [
                31.361703579,
                30.1319340775
              ],
              [
                31.3622179786,
                30.1317225588
              ],
              [
                31.3627316348,
                30.1315096811
              ],
              [
                31.3630200036,
                30.1314289841
              ],
              [
                31.3633139939,
                30.1313654357
              ],
              [
                31.3636122577,
                30.1313193274
              ],
              [
                31.3639134274,
                30.1312908705
              ],
              [
                31.3642161222,
                30.1312801956
              ],
              [
                31.3645189541,
                30.1312873516
              ],
              [
                31.3648205347,
                30.1313123057
              ],
              [
                31.3651194812,
                30.1313549435
              ],
              [
                31.3654144229,
                30.1314150694
              ],
              [
                31.3657040074,
                30.1314924079
              ],
              [
                31.3659869069,
                30.1315866043
              ],
              [
                31.3685942944,
                30.1322821572
              ],
              [
                31.3732573704,
                30.1361372986
              ],
              [
                31.3763349958,
                30.1386816053
              ],
              [
                31.3772647337,
                30.137940287
              ],
              [
                31.3814498655,
                30.1418658831
              ],
              [
                31.3912062533,
                30.1494981221
              ],
              [
                31.4010473368,
                30.1566553214
              ],
              [
                31.4038056506,
                30.1586612875
              ],
              [
                31.403846273,
                30.1586922364
              ],
              [
                31.4038866238,
                30.1587234525
              ],
              [
                31.4039267005,
                30.1587549342
              ],
              [
                31.4039665008,
                30.1587866795
              ],
              [
                31.4040060225,
                30.1588186866
              ],
              [
                31.4040452632,
                30.1588509537
              ],
              [
                31.4040842208,
                30.158883479
              ],
              [
                31.4047325513,
                30.1583695411
              ],
              [
                31.4053841679,
                30.1578587542
              ],
              [
                31.4060390502,
                30.1573511339
              ],
              [
                31.4066971778,
                30.1568466961
              ],
              [
                31.4073585302,
                30.1563454565
              ],
              [
                31.4080230867,
                30.1558474307
              ],
              [
                31.4086908268,
                30.1553526342
              ],
              [
                31.4161204009,
                30.1615815075
              ],
              [
                31.4214982512,
                30.1655958159
              ],
              [
                31.4224151587,
                30.1657676584
              ],
              [
                31.4223868784,
                30.165623557
              ],
              [
                31.4223691879,
                30.1654781857
              ],
              [
                31.4223621588,
                30.1653321316
              ],
              [
                31.4223658194,
                30.1651859845
              ],
              [
                31.4223801548,
                30.1650403345
              ],
              [
                31.4224051071,
                30.1648957697
              ],
              [
                31.4224405755,
                30.1647528738
              ],
              [
                31.4224864168,
                30.1646122238
              ],
              [
                31.4225424458,
                30.1644743877
              ],
              [
                31.4226084362,
                30.1643399221
              ],
              [
                31.4226841215,
                30.1642093698
              ],
              [
                31.4227691961,
                30.164083258
              ],
              [
                31.4228633165,
                30.163962096
              ],
              [
                31.4255147128,
                30.1603414833
              ],
              [
                31.4284508429,
                30.1563316643
              ],
              [
                31.428504936,
                30.1562550888
              ],
              [
                31.428557211,
                30.1561775657
              ],
              [
                31.428607646,
                30.1560991274
              ],
              [
                31.4286562197,
                30.156019807
              ],
              [
                31.4287029118,
                30.1559396378
              ],
              [
                31.4287477025,
                30.1558586536
              ],
              [
                31.4287905731,
                30.1557768883
              ],
              [
                31.4289245417,
                30.1554867798
              ],
              [
                31.429034369,
                30.1551891094
              ],
              [
                31.4291194964,
                30.1548853921
              ],
              [
                31.4291794909,
                30.1545771736
              ],
              [
                31.4292140473,
                30.1542660223
              ],
              [
                31.42922299,
                30.1539535218
              ],
              [
                31.4292062738,
                30.1536412624
              ],
              [
                31.429163984,
                30.1533308332
              ],
              [
                31.429096336,
                30.1530238139
              ],
              [
                31.4289885571,
                30.1527408818
              ],
              [
                31.428900477,
                30.1524528464
              ],
              [
                31.4288324121,
                30.1521607425
              ],
              [
                31.4287846068,
                30.1518656194
              ],
              [
                31.4287572325,
                30.1515685374
              ],
              [
                31.4287503874,
                30.1512705638
              ],
              [
                31.4287640959,
                30.150972769
              ],
              [
                31.4287983087,
                30.1506762228
              ],
              [
                31.4288529026,
                30.1503819906
              ],
              [
                31.4289735731,
                30.1500763724
              ],
              [
                31.4291125224,
                30.1497766755
              ],
              [
                31.4292693678,
                30.149483725
              ],
              [
                31.4294436773,
                30.1491983275
              ],
              [
                31.429634971,
                30.1489212685
              ],
              [
                31.4298427221,
                30.1486533109
              ],
              [
                31.4300663585,
                30.1483951923
              ],
              [
                31.4304258091,
                30.1481411456
              ],
              [
                31.430805842,
                30.1479108346
              ],
              [
                31.4312043868,
                30.1477055143
              ],
              [
                31.4316192717,
                30.1475263033
              ],
              [
                31.4320482363,
                30.1473741779
              ],
              [
                31.4324889434,
                30.1472499672
              ],
              [
                31.4329389918,
                30.1471543477
              ],
              [
                31.4331438649,
                30.1470788268
              ],
              [
                31.4333427291,
                30.1469920177
              ],
              [
                31.433534762,
                30.1468942796
              ],
              [
                31.4337191695,
                30.1467860166
              ],
              [
                31.4338951891,
                30.1466676764
              ],
              [
                31.4340620927,
                30.1465397484
              ],
              [
                31.4342191903,
                30.1464027617
              ],
              [
                31.4343658322,
                30.1462572828
              ],
              [
                31.434501412,
                30.1461039131
              ],
              [
                31.4346253691,
                30.1459432871
              ],
              [
                31.434737191,
                30.145776069
              ],
              [
                31.4348364153,
                30.1456029502
              ],
              [
                31.4349226317,
                30.1454246467
              ],
              [
                31.4354672862,
                30.1439989823
              ],
              [
                31.4365593079,
                30.1411404174
              ],
              [
                31.4317367286,
                30.1397486358
              ],
              [
                31.431694508,
                30.1397288338
              ],
              [
                31.4316521772,
                30.1397092103
              ],
              [
                31.4316097372,
                30.1396897658
              ],
              [
                31.431567189,
                30.1396705008
              ],
              [
                31.4315245336,
                30.1396514158
              ],
              [
                31.431481772,
                30.1396325111
              ],
              [
                31.4314389052,
                30.1396137873
              ],
              [
                31.4308869913,
                30.1393923576
              ],
              [
                31.430320448,
                30.1392008657
              ],
              [
                31.4297414226,
                30.1390400373
              ],
              [
                31.4291521093,
                30.1389104817
              ],
              [
                31.4285547416,
                30.13881269
              ],
              [
                31.4279515833,
                30.1387470327
              ],
              [
                31.4273449202,
                30.1387137587
              ],
              [
                31.4227741533,
                30.1392451794
              ],
              [
                31.421628981,
                30.1394680683
              ],
              [
                31.420478087,
                30.1396674632
              ],
              [
                31.4193221096,
                30.1398432536
              ],
              [
                31.4181616897,
                30.1399953418
              ],
              [
                31.4169974708,
                30.1401236438
              ],
              [
                31.4158300985,
                30.1402280883
              ],
              [
                31.4146602202,
                30.1403086174
              ],
              [
                31.4138079427,
                30.1405608881
              ],
              [
                31.4129390738,
                30.1407659992
              ],
              [
                31.4120570646,
                30.1409231361
              ],
              [
                31.4111654182,
                30.1410316749
              ],
              [
                31.410267676,
                30.1410911845
              ],
              [
                31.4093674038,
                30.1411014284
              ],
              [
                31.4084681772,
                30.1410623662
              ],
              [
                31.4073030089,
                30.1411682519
              ],
              [
                31.406132173,
                30.1412030528
              ],
              [
                31.4049614043,
                30.1411665986
              ],
              [
                31.403796437,
                30.1410590678
              ],
              [
                31.4026429768,
                30.1408809873
              ],
              [
                31.4015066732,
                30.1406332293
              ],
              [
                31.4003930913,
                30.1403170074
              ],
              [
                31.4003589473,
                30.140291047
              ],
              [
                31.4003237835,
                30.1402661363
              ],
              [
                31.4002876426,
                30.1402423054
              ],
              [
                31.4002505683,
                30.1402195834
              ],
              [
                31.4002126059,
                30.1401979978
              ],
              [
                31.4001738012,
                30.1401775748
              ],
              [
                31.4001342015,
                30.1401583392
              ],
              [
                31.3937061489,
                30.1371313149
              ],
              [
                31.3934360322,
                30.1370240561
              ],
              [
                31.3931717453,
                30.1369063358
              ],
              [
                31.3929138244,
                30.1367783927
              ],
              [
                31.3926627925,
                30.1366404864
              ],
              [
                31.3924191586,
                30.1364928966
              ],
              [
                31.3921834169,
                30.1363359224
              ],
              [
                31.3919560453,
                30.1361698824
              ],
              [
                31.3867717769,
                30.1325049287
              ],
              [
                31.3687544914,
                30.1186844441
              ],
              [
                31.3684520843,
                30.1184810234
              ],
              [
                31.3681660346,
                30.1182604459
              ],
              [
                31.3678976277,
                30.1180237028
              ],
              [
                31.3676480698,
                30.1177718581
              ],
              [
                31.3674184822,
                30.1175060435
              ],
              [
                31.3672098965,
                30.1172274538
              ],
              [
                31.36702325,
                30.1169373407
              ],
              [
                31.3669318999,
                30.1167309253
              ],
              [
                31.3668559845,
                30.1165198365
              ],
              [
                31.3667958168,
                30.1163049454
              ],
              [
                31.3667516452,
                30.116087139
              ],
              [
                31.3667236519,
                30.1158673162
              ],
              [
                31.3667119522,
                30.1156463844
              ],
              [
                31.3667165943,
                30.1154252555
              ],
              [
                31.3667375591,
                30.1152048419
              ],
              [
                31.3667747598,
                30.1149860536
              ],
              [
                31.3668280428,
                30.1147697934
              ],
              [
                31.3668971881,
                30.1145569539
              ],
              [
                31.3669819102,
                30.1143484135
              ],
              [
                31.3670818593,
                30.114145033
              ],
              [
                31.3704292239,
                30.1104831925
              ],
              [
                31.3583869451,
                30.104398664
              ],
              [
                31.349164245,
                30.0992103386
              ],
              [
                31.342402676,
                30.095347169
              ],
              [
                31.3406921091,
                30.0836638686
              ],
              [
                31.3373172383,
                30.0686816401
              ],
              [
                31.3371962406,
                30.0686460016
              ],
              [
                31.3370757945,
                30.0686089767
              ],
              [
                31.336955921,
                30.0685705718
              ],
              [
                31.336836641,
                30.0685307936
              ],
              [
                31.3367179753,
                30.068489649
              ],
              [
                31.3365999446,
                30.0684471451
              ],
              [
                31.3364825694,
                30.0684032895
              ],
              [
                31.3316995801,
                30.0679807549
              ],
              [
                31.3269166401,
                30.0675580478
              ],
              [
                31.3198252544,
                30.0669753127
              ],
              [
                31.3137401998,
                30.0639525551
              ],
              [
                31.3082693884,
                30.061234532
              ],
              [
                31.3028331268,
                30.0584086652
              ],
              [
                31.3024221419,
                30.05919885
              ],
              [
                31.3019476151,
                30.0599616196
              ],
              [
                31.3014119465,
                30.0606931138
              ],
              [
                31.3008178459,
                30.0613896307
              ],
              [
                31.3001683187,
                30.0620476452
              ],
              [
                31.2994666513,
                30.0626638272
              ],
              [
                31.2987163939,
                30.0632350582
              ],
              [
                31.297921343,
                30.063758447
              ],
              [
                31.297085522,
                30.0642313447
              ],
              [
                31.2915959907,
                30.0691466896
              ],
              [
                31.2906427697,
                30.0681891671
              ],
              [
                31.2883202076,
                30.0658560877
              ],
              [
                31.285915516,
                30.0634404479
              ],
              [
                31.2799726745,
                30.055857591
              ],
              [
                31.2769971212,
                30.0586280419
              ],
              [
                31.2763753718,
                30.0557978273
              ],
              [
                31.2719079931,
                30.0561366604
              ],
              [
                31.2702413193,
                30.0525077343
              ],
              [
                31.2698918945,
                30.0524995216
              ],
              [
                31.269542578,
                30.052510686
              ],
              [
                31.269194788,
                30.0525411821
              ],
              [
                31.2688499368,
                30.0525908861
              ],
              [
                31.2685094244,
                30.0526595962
              ],
              [
                31.2681746337,
                30.0527470333
              ],
              [
                31.2678469239,
                30.0528528424
              ],
              [
                31.2675276256,
                30.052976594
              ],
              [
                31.2672180355,
                30.0531177854
              ],
              [
                31.2669194106,
                30.0532758434
              ],
              [
                31.2666329635,
                30.0534501262
              ],
              [
                31.2657861182,
                30.0540338048
              ],
              [
                31.2638761056,
                30.0553502471
              ],
              [
                31.2626874939,
                30.0542610122
              ],
              [
                31.2621547368,
                30.0528908335
              ],
              [
                31.2611837226,
                30.0496225256
              ],
              [
                31.261059663,
                30.0493034496
              ],
              [
                31.2610596633,
                30.0490291246
              ],
              [
                31.2606714238,
                30.0482462013
              ],
              [
                31.2603995639,
                30.0475469716
              ],
              [
                31.2599810065,
                30.0464704289
              ],
              [
                31.2595081435,
                30.0467610471
              ],
              [
                31.2590131561,
                30.0470222993
              ],
              [
                31.2584984498,
                30.0472529159
              ],
              [
                31.2579665255,
                30.0474517762
              ],
              [
                31.2574199684,
                30.0476179139
              ],
              [
                31.2568614344,
                30.0477505216
              ],
              [
                31.2562936379,
                30.0478489549
              ],
              [
                31.2559982615,
                30.0478279048
              ],
              [
                31.2557019603,
                30.0478225278
              ],
              [
                31.2554058319,
                30.047832844
              ],
              [
                31.2551109736,
                30.0478588149
              ],
              [
                31.2548184776,
                30.0479003445
              ],
              [
                31.2545294276,
                30.0479572788
              ],
              [
                31.2542448946,
                30.048029407
              ],
              [
                31.2539659326,
                30.0481164617
              ],
              [
                31.2536935751,
                30.0482181205
              ],
              [
                31.2532675559,
                30.0484700435
              ],
              [
                31.2528465495,
                30.0487282669
              ],
              [
                31.2524306789,
                30.0489927152
              ],
              [
                31.2520200657,
                30.0492633112
              ],
              [
                31.25161483,
                30.0495399756
              ],
              [
                31.2512150903,
                30.0498226277
              ],
              [
                31.2508209635,
                30.0501111848
              ],
              [
                31.2463660223,
                30.0448832873
              ],
              [
                31.2439087095,
                30.0453378787
              ],
              [
                31.2382125399,
                30.0447629627
              ],
              [
                31.2365917575,
                30.0445343678
              ],
              [
                31.2357550837,
                30.0444409887
              ],
              [
                31.2354816469,
                30.045141995
              ],
              [
                31.2352116851,
                30.0458440205
              ],
              [
                31.2349452032,
                30.046547052
              ],
              [
                31.2346822064,
                30.0472510765
              ],
              [
                31.2344226995,
                30.0479560809
              ],
              [
                31.2341666876,
                30.048662052
              ],
              [
                31.2339141754,
                30.0493689769
              ],
              [
                31.233140612,
                30.0493753552
              ],
              [
                31.2323670344,
                30.0493704754
              ],
              [
                31.2315936593,
                30.0493543388
              ],
              [
                31.230820703,
                30.04932695
              ],
              [
                31.230048382,
                30.0492883166
              ],
              [
                31.2292769125,
                30.0492384494
              ],
              [
                31.2285065104,
                30.0491773625
              ],
              [
                31.2269599204,
                30.0492189467
              ],
              [
                31.2254127793,
                30.0491980458
              ],
              [
                31.2238684218,
                30.0491147049
              ],
              [
                31.2223301766,
                30.0489691038
              ],
              [
                31.2208013593,
                30.0487615564
              ],
              [
                31.219285265,
                30.0484925102
              ],
              [
                31.2177851613,
                30.0481625452
              ],
              [
                31.2175739334,
                30.0488756145
              ],
              [
                31.215368561,
                30.0583470456
              ],
              [
                31.2151838119,
                30.0590689341
              ],
              [
                31.2130233074,
                30.0583859977
              ],
              [
                31.2077201044,
                30.052383502
              ],
              [
                31.2043584551,
                30.0486740976
              ],
              [
                31.2039158623,
                30.0481857094
              ],
              [
                31.2045019995,
                30.0433098026
              ],
              [
                31.2004175717,
                30.0429207493
              ],
              [
                31.2017092352,
                30.0361165843
              ],
              [
                31.2033306838,
                30.0363307082
              ],
              [
                31.2034754973,
                30.0358837466
              ],
              [
                31.2036004346,
                30.0354322672
              ],
              [
                31.2037053106,
                30.0349769389
              ],
              [
                31.2037899703,
                30.0345184362
              ],
              [
                31.2038542886,
                30.0340574384
              ],
              [
                31.2038981705,
                30.0335946285
              ],
              [
                31.2039215512,
                30.0331306921
              ],
              [
                31.2053583541,
                30.0283327051
              ],
              [
                31.2100645746,
                30.0296848615
              ],
              [
                31.211307037,
                30.0223206299
              ],
              [
                31.2115223283,
                30.021044443
              ],
              [
                31.2123364319,
                30.0153705523
              ],
              [
                31.2061515293,
                30.0141529233
              ],
              [
                31.2060544778,
                30.014162799
              ],
              [
                31.2059584011,
                30.0141782952
              ],
              [
                31.2058637286,
                30.0141993425
              ],
              [
                31.2057708832,
                30.0142258469
              ],
              [
                31.2056802798,
                30.01425769
              ],
              [
                31.205592323,
                30.0142947295
              ],
              [
                31.2055074061,
                30.0143368
              ],
              [
                31.2054259082,
                30.0143837135
              ],
              [
                31.2053481935,
                30.0144352603
              ],
              [
                31.2052746094,
                30.0144912102
              ],
              [
                31.2052054844,
                30.0145513132
              ],
              [
                31.2051411276,
                30.0146153008
              ],
              [
                31.2050818264,
                30.014682887
              ],
              [
                31.2050278457,
                30.01475377
              ],
              [
                31.2049794269,
                30.0148276329
              ],
              [
                31.204848514,
                30.0147964104
              ],
              [
                31.204715487,
                30.0147729109
              ],
              [
                31.2045809467,
                30.0147572407
              ],
              [
                31.2044455009,
                30.0147494706
              ],
              [
                31.2043097612,
                30.0147496356
              ],
              [
                31.2041743408,
                30.014757735
              ],
              [
                31.2040398514,
                30.0147737323
              ],
              [
                31.2039069004,
                30.0147975551
              ],
              [
                31.2037760883,
                30.0148290958
              ],
              [
                31.203648006,
                30.0148682121
              ],
              [
                31.203523232,
                30.0149147271
              ],
              [
                31.2034345049,
                30.0150078294
              ],
              [
                31.2033537294,
                30.0151062614
              ],
              [
                31.2032813268,
                30.0152095098
              ],
              [
                31.2032176746,
                30.0153170361
              ],
              [
                31.2031631049,
                30.0154282796
              ],
              [
                31.2031179023,
                30.0155426603
              ],
              [
                31.2030823024,
                30.0156595816
              ],
              [
                31.203052644,
                30.0157047106
              ],
              [
                31.2030228857,
                30.0157497897
              ],
              [
                31.2029930277,
                30.0157948189
              ],
              [
                31.20296307,
                30.0158397979
              ],
              [
                31.2029330128,
                30.0158847266
              ],
              [
                31.2029028561,
                30.0159296048
              ],
              [
                31.2028726002,
                30.0159744324
              ],
              [
                31.2026980438,
                30.0162292719
              ],
              [
                31.2025202782,
                30.016482426
              ],
              [
                31.2023393249,
                30.0167338639
              ],
              [
                31.2021552057,
                30.0169835554
              ],
              [
                31.2019679428,
                30.0172314702
              ],
              [
                31.201777559,
                30.0174775784
              ],
              [
                31.2015840771,
                30.0177218502
              ],
              [
                31.2015264457,
                30.0177794395
              ],
              [
                31.2014644145,
                30.0178334562
              ],
              [
                31.2013982751,
                30.0178836461
              ],
              [
                31.2013283387,
                30.0179297735
              ],
              [
                31.2012549339,
                30.0179716212
              ],
              [
                31.2011784061,
                30.0180089926
              ],
              [
                31.2010991151,
                30.0180417119
              ],
              [
                31.2010174338,
                30.0180696252
              ],
              [
                31.2009337462,
                30.0180926012
              ],
              [
                31.2009708528,
                30.0184971808
              ],
              [
                31.1977089099,
                30.0187214764
              ],
              [
                31.1974242963,
                30.0209547811
              ],
              [
                31.1958944961,
                30.02694595
              ],
              [
                31.1958597858,
                30.0270215978
              ],
              [
                31.1958195981,
                30.0270951638
              ],
              [
                31.1957740969,
                30.027166348
              ],
              [
                31.1957234675,
                30.0272348603
              ],
              [
                31.1956679164,
                30.0273004213
              ],
              [
                31.1956076702,
                30.0273627638
              ],
              [
                31.1955429744,
                30.0274216334
              ],
              [
                31.1954740928,
                30.0274767902
              ],
              [
                31.1954013062,
                30.0275280094
              ],
              [
                31.1953249114,
                30.0275750821
              ],
              [
                31.1952452199,
                30.0276178163
              ],
              [
                31.1869920148,
                30.0305745181
              ],
              [
                31.1869920142,
                30.031009788
              ],
              [
                31.1872431683,
                30.0310190222
              ],
              [
                31.1902850408,
                30.031130872
              ],
              [
                31.1900578859,
                30.0357611368
              ],
              [
                31.1899056355,
                30.0388644763
              ],
              [
                31.189699518,
                30.0408034197
              ],
              [
                31.1851228576,
                30.0438141262
              ],
              [
                31.1850412871,
                30.0457755049
              ],
              [
                31.1884765614,
                30.0458825565
              ],
              [
                31.1882154802,
                30.0475358967
              ],
              [
                31.185206181,
                30.0511398438
              ],
              [
                31.1908067508,
                30.0524427399
              ],
              [
                31.1905095549,
                30.0537527727
              ],
              [
                31.1902197557,
                30.0550640591
              ],
              [
                31.1899373604,
                30.0563765676
              ],
              [
                31.1896623761,
                30.0576902666
              ],
              [
                31.1893948097,
                30.0590051243
              ],
              [
                31.189134668,
                30.0603211091
              ],
              [
                31.1888819576,
                30.0616381892
              ],
              [
                31.1888363884,
                30.0621226227
              ],
              [
                31.1888276753,
                30.0626086161
              ],
              [
                31.1888558568,
                30.06309405
              ],
              [
                31.1889208107,
                30.0635768074
              ],
              [
                31.189022254,
                30.0640547831
              ],
              [
                31.1891597451,
                30.0645258926
              ],
              [
                31.1893326848,
                30.0649880813
              ],
              [
                31.1895403193,
                30.0654393335
              ],
              [
                31.1897817436,
                30.0658776812
              ],
              [
                31.1900559052,
                30.0663012126
              ],
              [
                31.1903616088,
                30.0667080806
              ],
              [
                31.1906975216,
                30.0670965105
              ],
              [
                31.1910621787,
                30.0674648083
              ],
              [
                31.19145399,
                30.0678113677
              ],
              [
                31.1918712469,
                30.068134677
              ],
              [
                31.1923121298,
                30.0684333262
              ],
              [
                31.1927747158,
                30.0687060125
              ],
              [
                31.1932569876,
                30.0689515466
              ],
              [
                31.1937568416,
                30.0691688576
              ],
              [
                31.1939579664,
                30.0695193925
              ],
              [
                31.1941325975,
                30.0698805106
              ],
              [
                31.1942800029,
                30.0702506989
              ],
              [
                31.1943995647,
                30.0706284063
              ],
              [
                31.1944907815,
                30.0710120504
              ],
              [
                31.1945532709,
                30.0714000236
              ],
              [
                31.1945867707,
                30.0717907004
              ],
              [
                31.1945911402,
                30.0721824437
              ],
              [
                31.1945663607,
                30.0725736121
              ],
              [
                31.1945125357,
                30.0729625666
              ],
              [
                31.1944298905,
                30.0733476774
              ],
              [
                31.1942996518,
                30.0738700938
              ],
              [
                31.1941599052,
                30.0743906483
              ],
              [
                31.1940106858,
                30.0749092103
              ],
              [
                31.1938520309,
                30.0754256492
              ],
              [
                31.1936839802,
                30.0759398353
              ],
              [
                31.1935065759,
                30.0764516392
              ],
              [
                31.1933198625,
                30.0769609323
              ],
              [
                31.1959311136,
                30.0784597485
              ],
              [
                31.1960567257,
                30.0787296633
              ],
              [
                31.1963513755,
                30.0790260003
              ],
              [
                31.1966210921,
                30.0793397827
              ],
              [
                31.1968645142,
                30.0796694269
              ],
              [
                31.1970804131,
                30.0800132694
              ],
              [
                31.1972676989,
                30.0803695749
              ],
              [
                31.197425426,
                30.0807365452
              ],
              [
                31.1975527982,
                30.0811123283
              ],
              [
                31.1976491723,
                30.0814950277
              ],
              [
                31.1977140614,
                30.081882712
              ],
              [
                31.2029785376,
                30.082778541
              ],
              [
                31.2056994459,
                30.0832415406
              ],
              [
                31.2040714544,
                30.0844039555
              ],
              [
                31.2039996735,
                30.0844516154
              ],
              [
                31.2039316255,
                30.084503251
              ],
              [
                31.203867601,
                30.0845586417
              ],
              [
                31.2038078735,
                30.084617551
              ],
              [
                31.2037526982,
                30.0846797272
              ],
              [
                31.2037023105,
                30.0847449049
              ],
              [
                31.2036569259,
                30.0848128056
              ],
              [
                31.2036167381,
                30.0848831393
              ],
              [
                31.2035819187,
                30.0849556056
              ],
              [
                31.2035225488,
                30.0851000728
              ],
              [
                31.203458481,
                30.0852430141
              ],
              [
                31.2033897669,
                30.0853843139
              ],
              [
                31.2033164621,
                30.085523858
              ],
              [
                31.2032386258,
                30.0856615337
              ],
              [
                31.2031563209,
                30.0857972298
              ],
              [
                31.2030696139,
                30.0859308365
              ],
              [
                31.202971695,
                30.0860483655
              ],
              [
                31.2028832108,
                30.0861714229
              ],
              [
                31.2028045726,
                30.0862994368
              ],
              [
                31.2027361457,
                30.0864318123
              ],
              [
                31.2026782483,
                30.0865679344
              ],
              [
                31.2026311493,
                30.0867071704
              ],
              [
                31.2025950677,
                30.0868488734
              ],
              [
                31.2025701712,
                30.0869923849
              ],
              [
                31.2025565755,
                30.0871370379
              ],
              [
                31.2025543439,
                30.0872821604
              ],
              [
                31.2025634868,
                30.0874270779
              ],
              [
                31.2025839618,
                30.087571117
              ],
              [
                31.2026156737,
                30.0877136083
              ],
              [
                31.2028988448,
                30.0892307894
              ],
              [
                31.2037391672,
                30.0937329529
              ],
              [
                31.1984083656,
                30.0938381184
              ],
              [
                31.1982781373,
                30.0938406874
              ],
              [
                31.1979679749,
                30.0934042944
              ],
              [
                31.1979081048,
                30.0934087809
              ],
              [
                31.1977032977,
                30.0934241248
              ]
            ]
          ]
        ]
      }
    }
  ]
}
